<?xml version="1.0" encoding="UTF-8"?>
<gpx creator="Garmin Connect" version="1.1"
  xsi:schemaLocation="http://www.topografix.com/GPX/1/1 http://www.topografix.com/GPX/11.xsd"
  xmlns:ns3="http://www.garmin.com/xmlschemas/TrackPointExtension/v1"
  xmlns="http://www.topografix.com/GPX/1/1"
  xmlns:xsi="http://www.w3.org/2001/XMLSchema-instance" xmlns:ns2="http://www.garmin.com/xmlschemas/GpxExtensions/v3">
  <metadata>
    <link href="connect.garmin.com">
      <text>Garmin Connect</text>
    </link>
    <time>2026-08-29T03:36:13.000Z</time>
  </metadata>
  <trk>
    <name>厦门市 骑行</name>
    <type>cycling</type>
    <trkseg>
      <trkpt lat="24.49050687253475189208984375" lon="118.1484684906899929046630859375">
        <ele>18.6000003814697265625</ele>
        <time>2026-08-29T03:36:13.000Z</time>
        <extensions>
          <ns3:TrackPointExtension>
            <ns3:hr>94</ns3:hr>
          </ns3:TrackPointExtension>
        </extensions>
      </trkpt>
      <trkpt lat="24.49049572460353374481201171875" lon="118.1484438478946685791015625">
        <ele>18.6000003814697265625</ele>
        <time>2026-08-29T03:36:14.000Z</time>
        <extensions>
          <ns3:TrackPointExtension>
            <ns3:hr>94</ns3:hr>
          </ns3:TrackPointExtension>
        </extensions>
      </trkpt>
      <trkpt lat="24.49046395719051361083984375" lon="118.1484275870025157928466796875">
        <ele>18.6000003814697265625</ele>
        <time>2026-08-29T03:36:17.000Z</time>
        <extensions>
          <ns3:TrackPointExtension>
            <ns3:hr>94</ns3:hr>
          </ns3:TrackPointExtension>
        </extensions>
      </trkpt>
      <trkpt lat="24.4903725944459438323974609375" lon="118.14839414320886135101318359375">
        <ele>18.6000003814697265625</ele>
        <time>2026-08-29T03:36:21.000Z</time>
        <extensions>
          <ns3:TrackPointExtension>
            <ns3:hr>97</ns3:hr>
          </ns3:TrackPointExtension>
        </extensions>
      </trkpt>
      <trkpt lat="24.4903280027210712432861328125" lon="118.1483571790158748626708984375">
        <ele>18.6000003814697265625</ele>
        <time>2026-08-29T03:36:23.000Z</time>
        <extensions>
          <ns3:TrackPointExtension>
            <ns3:hr>98</ns3:hr>
          </ns3:TrackPointExtension>
        </extensions>
      </trkpt>
      <trkpt lat="24.4903236441314220428466796875" lon="118.14831870608031749725341796875">
        <ele>18.6000003814697265625</ele>
        <time>2026-08-29T03:36:24.000Z</time>
        <extensions>
          <ns3:TrackPointExtension>
            <ns3:hr>99</ns3:hr>
          </ns3:TrackPointExtension>
        </extensions>
      </trkpt>
      <trkpt lat="24.4903836585581302642822265625" lon="118.14821787178516387939453125">
        <ele>18.3999996185302734375</ele>
        <time>2026-08-29T03:36:27.000Z</time>
        <extensions>
          <ns3:TrackPointExtension>
            <ns3:hr>100</ns3:hr>
          </ns3:TrackPointExtension>
        </extensions>
      </trkpt>
      <trkpt lat="24.49048432521522045135498046875" lon="118.14807009883224964141845703125">
        <ele>18.3999996185302734375</ele>
        <time>2026-08-29T03:36:32.000Z</time>
        <extensions>
          <ns3:TrackPointExtension>
            <ns3:hr>97</ns3:hr>
          </ns3:TrackPointExtension>
        </extensions>
      </trkpt>
      <trkpt lat="24.490505866706371307373046875" lon="118.14804042689502239227294921875">
        <ele>18.3999996185302734375</ele>
        <time>2026-08-29T03:36:33.000Z</time>
        <extensions>
          <ns3:TrackPointExtension>
            <ns3:hr>94</ns3:hr>
          </ns3:TrackPointExtension>
        </extensions>
      </trkpt>
      <trkpt lat="24.49052589945495128631591796875" lon="118.14801041968166828155517578125">
        <ele>18.3999996185302734375</ele>
        <time>2026-08-29T03:36:34.000Z</time>
        <extensions>
          <ns3:TrackPointExtension>
            <ns3:hr>93</ns3:hr>
          </ns3:TrackPointExtension>
        </extensions>
      </trkpt>
      <trkpt lat="24.49061491526663303375244140625" lon="118.14786038361489772796630859375">
        <ele>18.3999996185302734375</ele>
        <time>2026-08-29T03:36:39.000Z</time>
        <extensions>
          <ns3:TrackPointExtension>
            <ns3:hr>93</ns3:hr>
          </ns3:TrackPointExtension>
        </extensions>
      </trkpt>
      <trkpt lat="24.490784816443920135498046875" lon="118.1475533545017242431640625">
        <ele>18.6000003814697265625</ele>
        <time>2026-08-29T03:36:47.000Z</time>
        <extensions>
          <ns3:TrackPointExtension>
            <ns3:hr>96</ns3:hr>
          </ns3:TrackPointExtension>
        </extensions>
      </trkpt>
      <trkpt lat="24.4908084534108638763427734375" lon="118.1475163064897060394287109375">
        <ele>18.6000003814697265625</ele>
        <time>2026-08-29T03:36:48.000Z</time>
        <extensions>
          <ns3:TrackPointExtension>
            <ns3:hr>98</ns3:hr>
          </ns3:TrackPointExtension>
        </extensions>
      </trkpt>
      <trkpt lat="24.4909328408539295196533203125" lon="118.14729259349405765533447265625">
        <ele>19</ele>
        <time>2026-08-29T03:36:55.000Z</time>
        <extensions>
          <ns3:TrackPointExtension>
            <ns3:hr>101</ns3:hr>
          </ns3:TrackPointExtension>
        </extensions>
      </trkpt>
      <trkpt lat="24.4910961203277111053466796875" lon="118.1469701416790485382080078125">
        <ele>19</ele>
        <time>2026-08-29T03:37:03.000Z</time>
        <extensions>
          <ns3:TrackPointExtension>
            <ns3:hr>106</ns3:hr>
          </ns3:TrackPointExtension>
        </extensions>
      </trkpt>
      <trkpt lat="24.49115554802119731903076171875" lon="118.14685371704399585723876953125">
        <ele>19</ele>
        <time>2026-08-29T03:37:05.000Z</time>
        <extensions>
          <ns3:TrackPointExtension>
            <ns3:hr>110</ns3:hr>
          </ns3:TrackPointExtension>
        </extensions>
      </trkpt>
      <trkpt lat="24.491271637380123138427734375" lon="118.14662329852581024169921875">
        <ele>19.200000762939453125</ele>
        <time>2026-08-29T03:37:12.000Z</time>
        <extensions>
          <ns3:TrackPointExtension>
            <ns3:hr>111</ns3:hr>
          </ns3:TrackPointExtension>
        </extensions>
      </trkpt>
      <trkpt lat="24.49139476753771305084228515625" lon="118.14650201238691806793212890625">
        <ele>19.3999996185302734375</ele>
        <time>2026-08-29T03:37:17.000Z</time>
        <extensions>
          <ns3:TrackPointExtension>
            <ns3:hr>111</ns3:hr>
          </ns3:TrackPointExtension>
        </extensions>
      </trkpt>
      <trkpt lat="24.49155469425022602081298828125" lon="118.14653855748474597930908203125">
        <ele>19.6000003814697265625</ele>
        <time>2026-08-29T03:37:22.000Z</time>
        <extensions>
          <ns3:TrackPointExtension>
            <ns3:hr>111</ns3:hr>
          </ns3:TrackPointExtension>
        </extensions>
      </trkpt>
      <trkpt lat="24.49179165065288543701171875" lon="118.146602846682071685791015625">
        <ele>19.6000003814697265625</ele>
        <time>2026-08-29T03:37:28.000Z</time>
        <extensions>
          <ns3:TrackPointExtension>
            <ns3:hr>112</ns3:hr>
          </ns3:TrackPointExtension>
        </extensions>
      </trkpt>
      <trkpt lat="24.49182190932333469390869140625" lon="118.14659153111279010772705078125">
        <ele>19.6000003814697265625</ele>
        <time>2026-08-29T03:37:29.000Z</time>
        <extensions>
          <ns3:TrackPointExtension>
            <ns3:hr>111</ns3:hr>
          </ns3:TrackPointExtension>
        </extensions>
      </trkpt>
      <trkpt lat="24.4918873719871044158935546875" lon="118.14660259522497653961181640625">
        <ele>19.6000003814697265625</ele>
        <time>2026-08-29T03:37:31.000Z</time>
        <extensions>
          <ns3:TrackPointExtension>
            <ns3:hr>111</ns3:hr>
          </ns3:TrackPointExtension>
        </extensions>
      </trkpt>
      <trkpt lat="24.49195283465087413787841796875" lon="118.14663243480026721954345703125">
        <ele>19.6000003814697265625</ele>
        <time>2026-08-29T03:37:33.000Z</time>
        <extensions>
          <ns3:TrackPointExtension>
            <ns3:hr>110</ns3:hr>
          </ns3:TrackPointExtension>
        </extensions>
      </trkpt>
      <trkpt lat="24.49207068420946598052978515625" lon="118.1466693989932537078857421875">
        <ele>19.799999237060546875</ele>
        <time>2026-08-29T03:37:36.000Z</time>
        <extensions>
          <ns3:TrackPointExtension>
            <ns3:hr>107</ns3:hr>
          </ns3:TrackPointExtension>
        </extensions>
      </trkpt>
      <trkpt lat="24.49227235279977321624755859375" lon="118.146736621856689453125">
        <ele>20</ele>
        <time>2026-08-29T03:37:41.000Z</time>
        <extensions>
          <ns3:TrackPointExtension>
            <ns3:hr>106</ns3:hr>
          </ns3:TrackPointExtension>
        </extensions>
      </trkpt>
      <trkpt lat="24.4925599358975887298583984375" lon="118.146822117269039154052734375">
        <ele>20.200000762939453125</ele>
        <time>2026-08-29T03:37:49.000Z</time>
        <extensions>
          <ns3:TrackPointExtension>
            <ns3:hr>107</ns3:hr>
          </ns3:TrackPointExtension>
        </extensions>
      </trkpt>
      <trkpt lat="24.49277794919908046722412109375" lon="118.14688883721828460693359375">
        <ele>20.799999237060546875</ele>
        <time>2026-08-29T03:37:55.000Z</time>
        <extensions>
          <ns3:TrackPointExtension>
            <ns3:hr>105</ns3:hr>
          </ns3:TrackPointExtension>
        </extensions>
      </trkpt>
      <trkpt lat="24.493054635822772979736328125" lon="118.14697735011577606201171875">
        <ele>20.799999237060546875</ele>
        <time>2026-08-29T03:38:02.000Z</time>
        <extensions>
          <ns3:TrackPointExtension>
            <ns3:hr>106</ns3:hr>
          </ns3:TrackPointExtension>
        </extensions>
      </trkpt>
      <trkpt lat="24.49336552061140537261962890625" lon="118.14707499928772449493408203125">
        <ele>21.200000762939453125</ele>
        <time>2026-08-29T03:38:10.000Z</time>
        <extensions>
          <ns3:TrackPointExtension>
            <ns3:hr>109</ns3:hr>
          </ns3:TrackPointExtension>
        </extensions>
      </trkpt>
      <trkpt lat="24.49356316588819026947021484375" lon="118.1471451558172702789306640625">
        <ele>21</ele>
        <time>2026-08-29T03:38:15.000Z</time>
        <extensions>
          <ns3:TrackPointExtension>
            <ns3:hr>109</ns3:hr>
          </ns3:TrackPointExtension>
        </extensions>
      </trkpt>
      <trkpt lat="24.49369643814861774444580078125" lon="118.14717893488705158233642578125">
        <ele>21.200000762939453125</ele>
        <time>2026-08-29T03:38:18.000Z</time>
        <extensions>
          <ns3:TrackPointExtension>
            <ns3:hr>110</ns3:hr>
          </ns3:TrackPointExtension>
        </extensions>
      </trkpt>
      <trkpt lat="24.49388167820870876312255859375" lon="118.1472194194793701171875">
        <ele>21.200000762939453125</ele>
        <time>2026-08-29T03:38:22.000Z</time>
        <extensions>
          <ns3:TrackPointExtension>
            <ns3:hr>111</ns3:hr>
          </ns3:TrackPointExtension>
        </extensions>
      </trkpt>
      <trkpt lat="24.49395510368049144744873046875" lon="118.14725856296718120574951171875">
        <ele>21.200000762939453125</ele>
        <time>2026-08-29T03:38:24.000Z</time>
        <extensions>
          <ns3:TrackPointExtension>
            <ns3:hr>112</ns3:hr>
          </ns3:TrackPointExtension>
        </extensions>
      </trkpt>
      <trkpt lat="24.4939945824444293975830078125" lon="118.1472802720963954925537109375">
        <ele>21.200000762939453125</ele>
        <time>2026-08-29T03:38:25.000Z</time>
        <extensions>
          <ns3:TrackPointExtension>
            <ns3:hr>112</ns3:hr>
          </ns3:TrackPointExtension>
        </extensions>
      </trkpt>
      <trkpt lat="24.49421494267880916595458984375" lon="118.14734858460724353790283203125">
        <ele>21</ele>
        <time>2026-08-29T03:38:30.000Z</time>
        <extensions>
          <ns3:TrackPointExtension>
            <ns3:hr>112</ns3:hr>
          </ns3:TrackPointExtension>
        </extensions>
      </trkpt>
      <trkpt lat="24.494297839701175689697265625" lon="118.14737205393612384796142578125">
        <ele>21</ele>
        <time>2026-08-29T03:38:32.000Z</time>
        <extensions>
          <ns3:TrackPointExtension>
            <ns3:hr>111</ns3:hr>
          </ns3:TrackPointExtension>
        </extensions>
      </trkpt>
      <trkpt lat="24.4943415932357311248779296875" lon="118.14738127402961254119873046875">
        <ele>20.799999237060546875</ele>
        <time>2026-08-29T03:38:33.000Z</time>
        <extensions>
          <ns3:TrackPointExtension>
            <ns3:hr>111</ns3:hr>
          </ns3:TrackPointExtension>
        </extensions>
      </trkpt>
      <trkpt lat="24.49458022601902484893798828125" lon="118.14744112081825733184814453125">
        <ele>20.799999237060546875</ele>
        <time>2026-08-29T03:38:38.000Z</time>
        <extensions>
          <ns3:TrackPointExtension>
            <ns3:hr>110</ns3:hr>
          </ns3:TrackPointExtension>
        </extensions>
      </trkpt>
      <trkpt lat="24.4946715049445629119873046875" lon="118.1474727205932140350341796875">
        <ele>20.799999237060546875</ele>
        <time>2026-08-29T03:38:40.000Z</time>
        <extensions>
          <ns3:TrackPointExtension>
            <ns3:hr>110</ns3:hr>
          </ns3:TrackPointExtension>
        </extensions>
      </trkpt>
      <trkpt lat="24.49480821378529071807861328125" lon="118.147514127194881439208984375">
        <ele>20.6000003814697265625</ele>
        <time>2026-08-29T03:38:43.000Z</time>
        <extensions>
          <ns3:TrackPointExtension>
            <ns3:hr>111</ns3:hr>
          </ns3:TrackPointExtension>
        </extensions>
      </trkpt>
      <trkpt lat="24.49497409164905548095703125" lon="118.14755134284496307373046875">
        <ele>20.6000003814697265625</ele>
        <time>2026-08-29T03:38:47.000Z</time>
        <extensions>
          <ns3:TrackPointExtension>
            <ns3:hr>113</ns3:hr>
          </ns3:TrackPointExtension>
        </extensions>
      </trkpt>
      <trkpt lat="24.4950711540877819061279296875" lon="118.14757640473544597625732421875">
        <ele>20.799999237060546875</ele>
        <time>2026-08-29T03:38:50.000Z</time>
        <extensions>
          <ns3:TrackPointExtension>
            <ns3:hr>116</ns3:hr>
          </ns3:TrackPointExtension>
        </extensions>
      </trkpt>
      <trkpt lat="24.4951294921338558197021484375" lon="118.1476101838052272796630859375">
        <ele>20.6000003814697265625</ele>
        <time>2026-08-29T03:38:52.000Z</time>
        <extensions>
          <ns3:TrackPointExtension>
            <ns3:hr>121</ns3:hr>
          </ns3:TrackPointExtension>
        </extensions>
      </trkpt>
      <trkpt lat="24.49516075663268566131591796875" lon="118.14762501977384090423583984375">
        <ele>20.3999996185302734375</ele>
        <time>2026-08-29T03:38:53.000Z</time>
        <extensions>
          <ns3:TrackPointExtension>
            <ns3:hr>123</ns3:hr>
          </ns3:TrackPointExtension>
        </extensions>
      </trkpt>
      <trkpt lat="24.4954034127295017242431640625" lon="118.1477188132703304290771484375">
        <ele>21</ele>
        <time>2026-08-29T03:39:00.000Z</time>
        <extensions>
          <ns3:TrackPointExtension>
            <ns3:hr>122</ns3:hr>
          </ns3:TrackPointExtension>
        </extensions>
      </trkpt>
      <trkpt lat="24.495559819042682647705078125" lon="118.147774636745452880859375">
        <ele>20.799999237060546875</ele>
        <time>2026-08-29T03:39:04.000Z</time>
        <extensions>
          <ns3:TrackPointExtension>
            <ns3:hr>117</ns3:hr>
          </ns3:TrackPointExtension>
        </extensions>
      </trkpt>
      <trkpt lat="24.495599381625652313232421875" lon="118.14778645522892475128173828125">
        <ele>20.799999237060546875</ele>
        <time>2026-08-29T03:39:05.000Z</time>
        <extensions>
          <ns3:TrackPointExtension>
            <ns3:hr>113</ns3:hr>
          </ns3:TrackPointExtension>
        </extensions>
      </trkpt>
      <trkpt lat="24.49564171023666858673095703125" lon="118.1477999500930309295654296875">
        <ele>20.799999237060546875</ele>
        <time>2026-08-29T03:39:06.000Z</time>
        <extensions>
          <ns3:TrackPointExtension>
            <ns3:hr>109</ns3:hr>
          </ns3:TrackPointExtension>
        </extensions>
      </trkpt>
      <trkpt lat="24.49571882374584674835205078125" lon="118.14782517962157726287841796875">
        <ele>20.799999237060546875</ele>
        <time>2026-08-29T03:39:08.000Z</time>
        <extensions>
          <ns3:TrackPointExtension>
            <ns3:hr>105</ns3:hr>
          </ns3:TrackPointExtension>
        </extensions>
      </trkpt>
      <trkpt lat="24.4959110207855701446533203125" lon="118.14788921736180782318115234375">
        <ele>21</ele>
        <time>2026-08-29T03:39:13.000Z</time>
        <extensions>
          <ns3:TrackPointExtension>
            <ns3:hr>104</ns3:hr>
          </ns3:TrackPointExtension>
        </extensions>
      </trkpt>
      <trkpt lat="24.4961510784924030303955078125" lon="118.14796113409101963043212890625">
        <ele>20.799999237060546875</ele>
        <time>2026-08-29T03:39:19.000Z</time>
        <extensions>
          <ns3:TrackPointExtension>
            <ns3:hr>103</ns3:hr>
          </ns3:TrackPointExtension>
        </extensions>
      </trkpt>
      <trkpt lat="24.49637277983129024505615234375" lon="118.14802181906998157501220703125">
        <ele>20.799999237060546875</ele>
        <time>2026-08-29T03:39:25.000Z</time>
        <extensions>
          <ns3:TrackPointExtension>
            <ns3:hr>104</ns3:hr>
          </ns3:TrackPointExtension>
        </extensions>
      </trkpt>
      <trkpt lat="24.4965319521725177764892578125" lon="118.14806842245161533355712890625">
        <ele>21</ele>
        <time>2026-08-29T03:39:29.000Z</time>
        <extensions>
          <ns3:TrackPointExtension>
            <ns3:hr>107</ns3:hr>
          </ns3:TrackPointExtension>
        </extensions>
      </trkpt>
      <trkpt lat="24.49664133600890636444091796875" lon="118.14809826202690601348876953125">
        <ele>21</ele>
        <time>2026-08-29T03:39:32.000Z</time>
        <extensions>
          <ns3:TrackPointExtension>
            <ns3:hr>108</ns3:hr>
          </ns3:TrackPointExtension>
        </extensions>
      </trkpt>
      <trkpt lat="24.49681769125163555145263671875" lon="118.14816934056580066680908203125">
        <ele>21</ele>
        <time>2026-08-29T03:39:37.000Z</time>
        <extensions>
          <ns3:TrackPointExtension>
            <ns3:hr>108</ns3:hr>
          </ns3:TrackPointExtension>
        </extensions>
      </trkpt>
      <trkpt lat="24.497008211910724639892578125" lon="118.14824611879885196685791015625">
        <ele>21</ele>
        <time>2026-08-29T03:39:43.000Z</time>
        <extensions>
          <ns3:TrackPointExtension>
            <ns3:hr>108</ns3:hr>
          </ns3:TrackPointExtension>
        </extensions>
      </trkpt>
      <trkpt lat="24.49723251163959503173828125" lon="118.14830797724425792694091796875">
        <ele>21</ele>
        <time>2026-08-29T03:39:48.000Z</time>
        <extensions>
          <ns3:TrackPointExtension>
            <ns3:hr>108</ns3:hr>
          </ns3:TrackPointExtension>
        </extensions>
      </trkpt>
      <trkpt lat="24.497447423636913299560546875" lon="118.14839757978916168212890625">
        <ele>21.200000762939453125</ele>
        <time>2026-08-29T03:39:54.000Z</time>
        <extensions>
          <ns3:TrackPointExtension>
            <ns3:hr>109</ns3:hr>
          </ns3:TrackPointExtension>
        </extensions>
      </trkpt>
      <trkpt lat="24.49758044444024562835693359375" lon="118.14843638800084590911865234375">
        <ele>21.200000762939453125</ele>
        <time>2026-08-29T03:40:00.000Z</time>
        <extensions>
          <ns3:TrackPointExtension>
            <ns3:hr>110</ns3:hr>
          </ns3:TrackPointExtension>
        </extensions>
      </trkpt>
      <trkpt lat="24.49758362956345081329345703125" lon="118.14843554981052875518798828125">
        <ele>20.200000762939453125</ele>
        <time>2026-08-29T03:40:19.000Z</time>
        <extensions>
          <ns3:TrackPointExtension>
            <ns3:hr>110</ns3:hr>
          </ns3:TrackPointExtension>
        </extensions>
      </trkpt>
      <trkpt lat="24.49761162512004375457763671875" lon="118.148403279483318328857421875">
        <ele>20.200000762939453125</ele>
        <time>2026-08-29T03:40:23.000Z</time>
        <extensions>
          <ns3:TrackPointExtension>
            <ns3:hr>110</ns3:hr>
          </ns3:TrackPointExtension>
        </extensions>
      </trkpt>
      <trkpt lat="24.49761581607162952423095703125" lon="118.14838676713407039642333984375">
        <ele>20.200000762939453125</ele>
        <time>2026-08-29T03:40:24.000Z</time>
        <extensions>
          <ns3:TrackPointExtension>
            <ns3:hr>110</ns3:hr>
          </ns3:TrackPointExtension>
        </extensions>
      </trkpt>
      <trkpt lat="24.49765336699783802032470703125" lon="118.1482963263988494873046875">
        <ele>20</ele>
        <time>2026-08-29T03:40:29.000Z</time>
        <extensions>
          <ns3:TrackPointExtension>
            <ns3:hr>109</ns3:hr>
          </ns3:TrackPointExtension>
        </extensions>
      </trkpt>
      <trkpt lat="24.49763886630535125732421875" lon="118.14821795560419559478759765625">
        <ele>20</ele>
        <time>2026-08-29T03:40:32.000Z</time>
        <extensions>
          <ns3:TrackPointExtension>
            <ns3:hr>105</ns3:hr>
          </ns3:TrackPointExtension>
        </extensions>
      </trkpt>
      <trkpt lat="24.4976403750479221343994140625" lon="118.14815643243491649627685546875">
        <ele>20</ele>
        <time>2026-08-29T03:40:34.000Z</time>
        <extensions>
          <ns3:TrackPointExtension>
            <ns3:hr>104</ns3:hr>
          </ns3:TrackPointExtension>
        </extensions>
      </trkpt>
      <trkpt lat="24.497685469686985015869140625" lon="118.1479020416736602783203125">
        <ele>20.200000762939453125</ele>
        <time>2026-08-29T03:40:41.000Z</time>
        <extensions>
          <ns3:TrackPointExtension>
            <ns3:hr>104</ns3:hr>
          </ns3:TrackPointExtension>
        </extensions>
      </trkpt>
      <trkpt lat="24.49775847606360912322998046875" lon="118.14761429093778133392333984375">
        <ele>20</ele>
        <time>2026-08-29T03:40:48.000Z</time>
        <extensions>
          <ns3:TrackPointExtension>
            <ns3:hr>101</ns3:hr>
          </ns3:TrackPointExtension>
        </extensions>
      </trkpt>
      <trkpt lat="24.49780792929232120513916015625" lon="118.14744003117084503173828125">
        <ele>19.799999237060546875</ele>
        <time>2026-08-29T03:40:52.000Z</time>
        <extensions>
          <ns3:TrackPointExtension>
            <ns3:hr>98</ns3:hr>
          </ns3:TrackPointExtension>
        </extensions>
      </trkpt>
      <trkpt lat="24.49784464202821254730224609375" lon="118.147267363965511322021484375">
        <ele>19.799999237060546875</ele>
        <time>2026-08-29T03:40:56.000Z</time>
        <extensions>
          <ns3:TrackPointExtension>
            <ns3:hr>98</ns3:hr>
          </ns3:TrackPointExtension>
        </extensions>
      </trkpt>
      <trkpt lat="24.4978670217096805572509765625" lon="118.1471914239227771759033203125">
        <ele>19.6000003814697265625</ele>
        <time>2026-08-29T03:40:58.000Z</time>
        <extensions>
          <ns3:TrackPointExtension>
            <ns3:hr>98</ns3:hr>
          </ns3:TrackPointExtension>
        </extensions>
      </trkpt>
      <trkpt lat="24.4979099370539188385009765625" lon="118.147102408111095428466796875">
        <ele>19.799999237060546875</ele>
        <time>2026-08-29T03:41:01.000Z</time>
        <extensions>
          <ns3:TrackPointExtension>
            <ns3:hr>98</ns3:hr>
          </ns3:TrackPointExtension>
        </extensions>
      </trkpt>
      <trkpt lat="24.4979494996368885040283203125" lon="118.1468638591468334197998046875">
        <ele>19.3999996185302734375</ele>
        <time>2026-08-29T03:41:08.000Z</time>
        <extensions>
          <ns3:TrackPointExtension>
            <ns3:hr>97</ns3:hr>
          </ns3:TrackPointExtension>
        </extensions>
      </trkpt>
      <trkpt lat="24.49804061092436313629150390625" lon="118.14653000794351100921630859375">
        <ele>19.3999996185302734375</ele>
        <time>2026-08-29T03:41:16.000Z</time>
        <extensions>
          <ns3:TrackPointExtension>
            <ns3:hr>98</ns3:hr>
          </ns3:TrackPointExtension>
        </extensions>
      </trkpt>
      <trkpt lat="24.49813851155340671539306640625" lon="118.14615047536790370941162109375">
        <ele>19.6000003814697265625</ele>
        <time>2026-08-29T03:41:25.000Z</time>
        <extensions>
          <ns3:TrackPointExtension>
            <ns3:hr>100</ns3:hr>
          </ns3:TrackPointExtension>
        </extensions>
      </trkpt>
      <trkpt lat="24.4981687702238559722900390625" lon="118.1460320390760898590087890625">
        <ele>19.6000003814697265625</ele>
        <time>2026-08-29T03:41:28.000Z</time>
        <extensions>
          <ns3:TrackPointExtension>
            <ns3:hr>103</ns3:hr>
          </ns3:TrackPointExtension>
        </extensions>
      </trkpt>
      <trkpt lat="24.4982130266726016998291015625" lon="118.14588367938995361328125">
        <ele>19.6000003814697265625</ele>
        <time>2026-08-29T03:41:32.000Z</time>
        <extensions>
          <ns3:TrackPointExtension>
            <ns3:hr>102</ns3:hr>
          </ns3:TrackPointExtension>
        </extensions>
      </trkpt>
      <trkpt lat="24.49827815406024456024169921875" lon="118.1458593718707561492919921875">
        <ele>19.799999237060546875</ele>
        <time>2026-08-29T03:41:35.000Z</time>
        <extensions>
          <ns3:TrackPointExtension>
            <ns3:hr>103</ns3:hr>
          </ns3:TrackPointExtension>
        </extensions>
      </trkpt>
      <trkpt lat="24.4982904754579067230224609375" lon="118.1459006108343601226806640625">
        <ele>19.799999237060546875</ele>
        <time>2026-08-29T03:41:37.000Z</time>
        <extensions>
          <ns3:TrackPointExtension>
            <ns3:hr>102</ns3:hr>
          </ns3:TrackPointExtension>
        </extensions>
      </trkpt>
      <trkpt lat="24.498377144336700439453125" lon="118.14581888727843761444091796875">
        <ele>18.6000003814697265625</ele>
        <time>2026-08-29T03:41:59.000Z</time>
        <extensions>
          <ns3:TrackPointExtension>
            <ns3:hr>103</ns3:hr>
          </ns3:TrackPointExtension>
        </extensions>
      </trkpt>
      <trkpt lat="24.4983615539968013763427734375" lon="118.1457245908677577972412109375">
        <ele>18.3999996185302734375</ele>
        <time>2026-08-29T03:42:03.000Z</time>
        <extensions>
          <ns3:TrackPointExtension>
            <ns3:hr>104</ns3:hr>
          </ns3:TrackPointExtension>
        </extensions>
      </trkpt>
      <trkpt lat="24.4983843527734279632568359375" lon="118.145553432404994964599609375">
        <ele>18.200000762939453125</ele>
        <time>2026-08-29T03:42:09.000Z</time>
        <extensions>
          <ns3:TrackPointExtension>
            <ns3:hr>104</ns3:hr>
          </ns3:TrackPointExtension>
        </extensions>
      </trkpt>
      <trkpt lat="24.498309083282947540283203125" lon="118.145434074103832244873046875">
        <ele>18</ele>
        <time>2026-08-29T03:42:14.000Z</time>
        <extensions>
          <ns3:TrackPointExtension>
            <ns3:hr>103</ns3:hr>
          </ns3:TrackPointExtension>
        </extensions>
      </trkpt>
      <trkpt lat="24.498268179595470428466796875" lon="118.145326785743236541748046875">
        <ele>18</ele>
        <time>2026-08-29T03:42:19.000Z</time>
        <extensions>
          <ns3:TrackPointExtension>
            <ns3:hr>102</ns3:hr>
          </ns3:TrackPointExtension>
        </extensions>
      </trkpt>
      <trkpt lat="24.49829391203820705413818359375" lon="118.14530423842370510101318359375">
        <ele>18</ele>
        <time>2026-08-29T03:42:22.000Z</time>
        <extensions>
          <ns3:TrackPointExtension>
            <ns3:hr>101</ns3:hr>
          </ns3:TrackPointExtension>
        </extensions>
      </trkpt>
      <trkpt lat="24.498290978372097015380859375" lon="118.14530641771852970123291015625">
        <ele>18</ele>
        <time>2026-08-29T03:42:23.000Z</time>
        <extensions>
          <ns3:TrackPointExtension>
            <ns3:hr>101</ns3:hr>
          </ns3:TrackPointExtension>
        </extensions>
      </trkpt>
    </trkseg>
  </trk>
</gpx>
