<?xml version="1.0" encoding="UTF-8"?>
<gpx creator="Garmin Connect" version="1.1"
  xsi:schemaLocation="http://www.topografix.com/GPX/1/1 http://www.topografix.com/GPX/11.xsd"
  xmlns:ns3="http://www.garmin.com/xmlschemas/TrackPointExtension/v1"
  xmlns="http://www.topografix.com/GPX/1/1"
  xmlns:xsi="http://www.w3.org/2001/XMLSchema-instance" xmlns:ns2="http://www.garmin.com/xmlschemas/GpxExtensions/v3">
  <metadata>
    <link href="connect.garmin.com">
      <text>Garmin Connect</text>
    </link>
    <time>2026-09-08T13:07:48.000Z</time>
  </metadata>
  <trk>
    <name>厦门市 跑步</name>
    <type>running</type>
    <trkseg>
      <trkpt lat="24.53430189751088619232177734375" lon="118.15374380908906459808349609375">
        <ele>27.200000762939453125</ele>
        <time>2026-09-08T13:07:48.000Z</time>
        <extensions>
          <ns3:TrackPointExtension>
            <ns3:hr>66</ns3:hr>
            <ns3:cad>0</ns3:cad>
          </ns3:TrackPointExtension>
        </extensions>
      </trkpt>
      <trkpt lat="24.532859958708286285400390625" lon="118.15229541622102260589599609375">
        <ele>27</ele>
        <time>2026-09-08T13:07:49.000Z</time>
        <extensions>
          <ns3:TrackPointExtension>
            <ns3:hr>66</ns3:hr>
            <ns3:cad>0</ns3:cad>
          </ns3:TrackPointExtension>
        </extensions>
      </trkpt>
      <trkpt lat="24.5329429395496845245361328125" lon="118.152289800345897674560546875">
        <ele>27</ele>
        <time>2026-09-08T13:07:50.000Z</time>
        <extensions>
          <ns3:TrackPointExtension>
            <ns3:hr>66</ns3:hr>
            <ns3:cad>0</ns3:cad>
          </ns3:TrackPointExtension>
        </extensions>
      </trkpt>
      <trkpt lat="24.533038325607776641845703125" lon="118.15230128355324268341064453125">
        <ele>26.799999237060546875</ele>
        <time>2026-09-08T13:07:51.000Z</time>
        <extensions>
          <ns3:TrackPointExtension>
            <ns3:hr>64</ns3:hr>
            <ns3:cad>0</ns3:cad>
          </ns3:TrackPointExtension>
        </extensions>
      </trkpt>
      <trkpt lat="24.53308953903615474700927734375" lon="118.15231285057961940765380859375">
        <ele>26.799999237060546875</ele>
        <time>2026-09-08T13:07:52.000Z</time>
        <extensions>
          <ns3:TrackPointExtension>
            <ns3:hr>62</ns3:hr>
            <ns3:cad>0</ns3:cad>
          </ns3:TrackPointExtension>
        </extensions>
      </trkpt>
      <trkpt lat="24.53315391205251216888427734375" lon="118.1523281894624233245849609375">
        <ele>26.6000003814697265625</ele>
        <time>2026-09-08T13:07:53.000Z</time>
        <extensions>
          <ns3:TrackPointExtension>
            <ns3:hr>61</ns3:hr>
            <ns3:cad>0</ns3:cad>
          </ns3:TrackPointExtension>
        </extensions>
      </trkpt>
      <trkpt lat="24.5331863500177860260009765625" lon="118.1523362360894680023193359375">
        <ele>26.6000003814697265625</ele>
        <time>2026-09-08T13:07:54.000Z</time>
        <extensions>
          <ns3:TrackPointExtension>
            <ns3:hr>61</ns3:hr>
            <ns3:cad>88</ns3:cad>
          </ns3:TrackPointExtension>
        </extensions>
      </trkpt>
      <trkpt lat="24.53323638997972011566162109375" lon="118.15234956331551074981689453125">
        <ele>26.6000003814697265625</ele>
        <time>2026-09-08T13:07:55.000Z</time>
        <extensions>
          <ns3:TrackPointExtension>
            <ns3:hr>61</ns3:hr>
            <ns3:cad>90</ns3:cad>
          </ns3:TrackPointExtension>
        </extensions>
      </trkpt>
      <trkpt lat="24.5332892797887325286865234375" lon="118.15236079506576061248779296875">
        <ele>26.6000003814697265625</ele>
        <time>2026-09-08T13:07:56.000Z</time>
        <extensions>
          <ns3:TrackPointExtension>
            <ns3:hr>60</ns3:hr>
            <ns3:cad>90</ns3:cad>
          </ns3:TrackPointExtension>
        </extensions>
      </trkpt>
      <trkpt lat="24.5333415828645229339599609375" lon="118.1523687578737735748291015625">
        <ele>26.6000003814697265625</ele>
        <time>2026-09-08T13:07:57.000Z</time>
        <extensions>
          <ns3:TrackPointExtension>
            <ns3:hr>60</ns3:hr>
            <ns3:cad>90</ns3:cad>
          </ns3:TrackPointExtension>
        </extensions>
      </trkpt>
      <trkpt lat="24.53336915932595729827880859375" lon="118.152365572750568389892578125">
        <ele>26.6000003814697265625</ele>
        <time>2026-09-08T13:07:58.000Z</time>
        <extensions>
          <ns3:TrackPointExtension>
            <ns3:hr>60</ns3:hr>
            <ns3:cad>90</ns3:cad>
          </ns3:TrackPointExtension>
        </extensions>
      </trkpt>
      <trkpt lat="24.533403106033802032470703125" lon="118.152370266616344451904296875">
        <ele>26.6000003814697265625</ele>
        <time>2026-09-08T13:07:59.000Z</time>
        <extensions>
          <ns3:TrackPointExtension>
            <ns3:hr>62</ns3:hr>
            <ns3:cad>90</ns3:cad>
          </ns3:TrackPointExtension>
        </extensions>
      </trkpt>
      <trkpt lat="24.53343034721910953521728515625" lon="118.15236917696893215179443359375">
        <ele>26.6000003814697265625</ele>
        <time>2026-09-08T13:08:00.000Z</time>
        <extensions>
          <ns3:TrackPointExtension>
            <ns3:hr>63</ns3:hr>
            <ns3:cad>90</ns3:cad>
          </ns3:TrackPointExtension>
        </extensions>
      </trkpt>
      <trkpt lat="24.53347292728722095489501953125" lon="118.15237001515924930572509765625">
        <ele>26.6000003814697265625</ele>
        <time>2026-09-08T13:08:01.000Z</time>
        <extensions>
          <ns3:TrackPointExtension>
            <ns3:hr>64</ns3:hr>
            <ns3:cad>90</ns3:cad>
          </ns3:TrackPointExtension>
        </extensions>
      </trkpt>
      <trkpt lat="24.5335062034428119659423828125" lon="118.15237537957727909088134765625">
        <ele>26.6000003814697265625</ele>
        <time>2026-09-08T13:08:02.000Z</time>
        <extensions>
          <ns3:TrackPointExtension>
            <ns3:hr>65</ns3:hr>
            <ns3:cad>89</ns3:cad>
          </ns3:TrackPointExtension>
        </extensions>
      </trkpt>
      <trkpt lat="24.5335336960852146148681640625" lon="118.15237236209213733673095703125">
        <ele>26.6000003814697265625</ele>
        <time>2026-09-08T13:08:03.000Z</time>
        <extensions>
          <ns3:TrackPointExtension>
            <ns3:hr>66</ns3:hr>
            <ns3:cad>88</ns3:cad>
          </ns3:TrackPointExtension>
        </extensions>
      </trkpt>
      <trkpt lat="24.5335735939443111419677734375" lon="118.152376301586627960205078125">
        <ele>26.799999237060546875</ele>
        <time>2026-09-08T13:08:04.000Z</time>
        <extensions>
          <ns3:TrackPointExtension>
            <ns3:hr>67</ns3:hr>
            <ns3:cad>89</ns3:cad>
          </ns3:TrackPointExtension>
        </extensions>
      </trkpt>
      <trkpt lat="24.5336118154227733612060546875" lon="118.15237529575824737548828125">
        <ele>26.799999237060546875</ele>
        <time>2026-09-08T13:08:05.000Z</time>
        <extensions>
          <ns3:TrackPointExtension>
            <ns3:hr>68</ns3:hr>
            <ns3:cad>89</ns3:cad>
          </ns3:TrackPointExtension>
        </extensions>
      </trkpt>
      <trkpt lat="24.5336570776998996734619140625" lon="118.15238459967076778411865234375">
        <ele>26.799999237060546875</ele>
        <time>2026-09-08T13:08:06.000Z</time>
        <extensions>
          <ns3:TrackPointExtension>
            <ns3:hr>69</ns3:hr>
            <ns3:cad>89</ns3:cad>
          </ns3:TrackPointExtension>
        </extensions>
      </trkpt>
      <trkpt lat="24.5336832292377948760986328125" lon="118.15238895826041698455810546875">
        <ele>27</ele>
        <time>2026-09-08T13:08:07.000Z</time>
        <extensions>
          <ns3:TrackPointExtension>
            <ns3:hr>70</ns3:hr>
            <ns3:cad>89</ns3:cad>
          </ns3:TrackPointExtension>
        </extensions>
      </trkpt>
      <trkpt lat="24.53372371383011341094970703125" lon="118.15238527022302150726318359375">
        <ele>26.799999237060546875</ele>
        <time>2026-09-08T13:08:08.000Z</time>
        <extensions>
          <ns3:TrackPointExtension>
            <ns3:hr>71</ns3:hr>
            <ns3:cad>89</ns3:cad>
          </ns3:TrackPointExtension>
        </extensions>
      </trkpt>
      <trkpt lat="24.53375338576734066009521484375" lon="118.15238459967076778411865234375">
        <ele>26.799999237060546875</ele>
        <time>2026-09-08T13:08:09.000Z</time>
        <extensions>
          <ns3:TrackPointExtension>
            <ns3:hr>72</ns3:hr>
            <ns3:cad>89</ns3:cad>
          </ns3:TrackPointExtension>
        </extensions>
      </trkpt>
      <trkpt lat="24.5337972231209278106689453125" lon="118.15238242037594318389892578125">
        <ele>26.799999237060546875</ele>
        <time>2026-09-08T13:08:10.000Z</time>
        <extensions>
          <ns3:TrackPointExtension>
            <ns3:hr>74</ns3:hr>
            <ns3:cad>88</ns3:cad>
          </ns3:TrackPointExtension>
        </extensions>
      </trkpt>
      <trkpt lat="24.53383016400039196014404296875" lon="118.15238141454756259918212890625">
        <ele>26.6000003814697265625</ele>
        <time>2026-09-08T13:08:11.000Z</time>
        <extensions>
          <ns3:TrackPointExtension>
            <ns3:hr>76</ns3:hr>
            <ns3:cad>88</ns3:cad>
          </ns3:TrackPointExtension>
        </extensions>
      </trkpt>
      <trkpt lat="24.53387743793427944183349609375" lon="118.15238325856626033782958984375">
        <ele>26.6000003814697265625</ele>
        <time>2026-09-08T13:08:12.000Z</time>
        <extensions>
          <ns3:TrackPointExtension>
            <ns3:hr>78</ns3:hr>
            <ns3:cad>87</ns3:cad>
          </ns3:TrackPointExtension>
        </extensions>
      </trkpt>
      <trkpt lat="24.53390660695731639862060546875" lon="118.15237638540565967559814453125">
        <ele>26.6000003814697265625</ele>
        <time>2026-09-08T13:08:13.000Z</time>
        <extensions>
          <ns3:TrackPointExtension>
            <ns3:hr>80</ns3:hr>
            <ns3:cad>88</ns3:cad>
          </ns3:TrackPointExtension>
        </extensions>
      </trkpt>
      <trkpt lat="24.5339558087289333343505859375" lon="118.15237118862569332122802734375">
        <ele>26.6000003814697265625</ele>
        <time>2026-09-08T13:08:14.000Z</time>
        <extensions>
          <ns3:TrackPointExtension>
            <ns3:hr>82</ns3:hr>
            <ns3:cad>89</ns3:cad>
          </ns3:TrackPointExtension>
        </extensions>
      </trkpt>
      <trkpt lat="24.53399646095931529998779296875" lon="118.1523711048066616058349609375">
        <ele>26.6000003814697265625</ele>
        <time>2026-09-08T13:08:15.000Z</time>
        <extensions>
          <ns3:TrackPointExtension>
            <ns3:hr>84</ns3:hr>
            <ns3:cad>89</ns3:cad>
          </ns3:TrackPointExtension>
        </extensions>
      </trkpt>
      <trkpt lat="24.5340379513800144195556640625" lon="118.152371607720851898193359375">
        <ele>26.6000003814697265625</ele>
        <time>2026-09-08T13:08:16.000Z</time>
        <extensions>
          <ns3:TrackPointExtension>
            <ns3:hr>85</ns3:hr>
            <ns3:cad>89</ns3:cad>
          </ns3:TrackPointExtension>
        </extensions>
      </trkpt>
      <trkpt lat="24.534062258899211883544921875" lon="118.1523751281201839447021484375">
        <ele>26.6000003814697265625</ele>
        <time>2026-09-08T13:08:17.000Z</time>
        <extensions>
          <ns3:TrackPointExtension>
            <ns3:hr>86</ns3:hr>
            <ns3:cad>88</ns3:cad>
          </ns3:TrackPointExtension>
        </extensions>
      </trkpt>
      <trkpt lat="24.534101821482181549072265625" lon="118.15237403847277164459228515625">
        <ele>26.6000003814697265625</ele>
        <time>2026-09-08T13:08:18.000Z</time>
        <extensions>
          <ns3:TrackPointExtension>
            <ns3:hr>87</ns3:hr>
            <ns3:cad>88</ns3:cad>
          </ns3:TrackPointExtension>
        </extensions>
      </trkpt>
      <trkpt lat="24.5341234467923641204833984375" lon="118.15237487666308879852294921875">
        <ele>26.799999237060546875</ele>
        <time>2026-09-08T13:08:19.000Z</time>
        <extensions>
          <ns3:TrackPointExtension>
            <ns3:hr>88</ns3:hr>
            <ns3:cad>87</ns3:cad>
          </ns3:TrackPointExtension>
        </extensions>
      </trkpt>
      <trkpt lat="24.53414632938802242279052734375" lon="118.15237839706242084503173828125">
        <ele>26.799999237060546875</ele>
        <time>2026-09-08T13:08:20.000Z</time>
        <extensions>
          <ns3:TrackPointExtension>
            <ns3:hr>90</ns3:hr>
            <ns3:cad>87</ns3:cad>
          </ns3:TrackPointExtension>
        </extensions>
      </trkpt>
      <trkpt lat="24.5341717265546321868896484375" lon="118.15237605012953281402587890625">
        <ele>26.799999237060546875</ele>
        <time>2026-09-08T13:08:21.000Z</time>
        <extensions>
          <ns3:TrackPointExtension>
            <ns3:hr>91</ns3:hr>
            <ns3:cad>89</ns3:cad>
          </ns3:TrackPointExtension>
        </extensions>
      </trkpt>
      <trkpt lat="24.5341967046260833740234375" lon="118.1523704342544078826904296875">
        <ele>26.799999237060546875</ele>
        <time>2026-09-08T13:08:22.000Z</time>
        <extensions>
          <ns3:TrackPointExtension>
            <ns3:hr>93</ns3:hr>
            <ns3:cad>89</ns3:cad>
          </ns3:TrackPointExtension>
        </extensions>
      </trkpt>
      <trkpt lat="24.53422679565846920013427734375" lon="118.152364231646060943603515625">
        <ele>26.799999237060546875</ele>
        <time>2026-09-08T13:08:23.000Z</time>
        <extensions>
          <ns3:TrackPointExtension>
            <ns3:hr>94</ns3:hr>
            <ns3:cad>89</ns3:cad>
          </ns3:TrackPointExtension>
        </extensions>
      </trkpt>
      <trkpt lat="24.53424909152090549468994140625" lon="118.15236213617026805877685546875">
        <ele>26.799999237060546875</ele>
        <time>2026-09-08T13:08:24.000Z</time>
        <extensions>
          <ns3:TrackPointExtension>
            <ns3:hr>94</ns3:hr>
            <ns3:cad>89</ns3:cad>
          </ns3:TrackPointExtension>
        </extensions>
      </trkpt>
      <trkpt lat="24.53428613953292369842529296875" lon="118.152350485324859619140625">
        <ele>26.799999237060546875</ele>
        <time>2026-09-08T13:08:25.000Z</time>
        <extensions>
          <ns3:TrackPointExtension>
            <ns3:hr>95</ns3:hr>
            <ns3:cad>88</ns3:cad>
          </ns3:TrackPointExtension>
        </extensions>
      </trkpt>
      <trkpt lat="24.5343152247369289398193359375" lon="118.15233296714723110198974609375">
        <ele>26.799999237060546875</ele>
        <time>2026-09-08T13:08:26.000Z</time>
        <extensions>
          <ns3:TrackPointExtension>
            <ns3:hr>94</ns3:hr>
            <ns3:cad>87</ns3:cad>
          </ns3:TrackPointExtension>
        </extensions>
      </trkpt>
      <trkpt lat="24.53434489667415618896484375" lon="118.15231687389314174652099609375">
        <ele>27</ele>
        <time>2026-09-08T13:08:27.000Z</time>
        <extensions>
          <ns3:TrackPointExtension>
            <ns3:hr>95</ns3:hr>
            <ns3:cad>87</ns3:cad>
          </ns3:TrackPointExtension>
        </extensions>
      </trkpt>
      <trkpt lat="24.53437146730720996856689453125" lon="118.15230078063905239105224609375">
        <ele>27</ele>
        <time>2026-09-08T13:08:28.000Z</time>
        <extensions>
          <ns3:TrackPointExtension>
            <ns3:hr>96</ns3:hr>
            <ns3:cad>88</ns3:cad>
          </ns3:TrackPointExtension>
        </extensions>
      </trkpt>
      <trkpt lat="24.53441270627081394195556640625" lon="118.15228787250816822052001953125">
        <ele>26.799999237060546875</ele>
        <time>2026-09-08T13:08:29.000Z</time>
        <extensions>
          <ns3:TrackPointExtension>
            <ns3:hr>101</ns3:hr>
            <ns3:cad>88</ns3:cad>
          </ns3:TrackPointExtension>
        </extensions>
      </trkpt>
      <trkpt lat="24.5344308950006961822509765625" lon="118.15226959995925426483154296875">
        <ele>26.799999237060546875</ele>
        <time>2026-09-08T13:08:30.000Z</time>
        <extensions>
          <ns3:TrackPointExtension>
            <ns3:hr>109</ns3:hr>
            <ns3:cad>88</ns3:cad>
          </ns3:TrackPointExtension>
        </extensions>
      </trkpt>
      <trkpt lat="24.53446383588016033172607421875" lon="118.15225434489548206329345703125">
        <ele>26.799999237060546875</ele>
        <time>2026-09-08T13:08:31.000Z</time>
        <extensions>
          <ns3:TrackPointExtension>
            <ns3:hr>112</ns3:hr>
            <ns3:cad>88</ns3:cad>
          </ns3:TrackPointExtension>
        </extensions>
      </trkpt>
      <trkpt lat="24.53448395244777202606201171875" lon="118.1522413529455661773681640625">
        <ele>26.799999237060546875</ele>
        <time>2026-09-08T13:08:32.000Z</time>
        <extensions>
          <ns3:TrackPointExtension>
            <ns3:hr>112</ns3:hr>
            <ns3:cad>88</ns3:cad>
          </ns3:TrackPointExtension>
        </extensions>
      </trkpt>
      <trkpt lat="24.53452728688716888427734375" lon="118.15222718752920627593994140625">
        <ele>26.799999237060546875</ele>
        <time>2026-09-08T13:08:33.000Z</time>
        <extensions>
          <ns3:TrackPointExtension>
            <ns3:hr>111</ns3:hr>
            <ns3:cad>88</ns3:cad>
          </ns3:TrackPointExtension>
        </extensions>
      </trkpt>
      <trkpt lat="24.534547068178653717041015625" lon="118.1522177159786224365234375">
        <ele>26.799999237060546875</ele>
        <time>2026-09-08T13:08:34.000Z</time>
        <extensions>
          <ns3:TrackPointExtension>
            <ns3:hr>112</ns3:hr>
            <ns3:cad>88</ns3:cad>
          </ns3:TrackPointExtension>
        </extensions>
      </trkpt>
      <trkpt lat="24.53458051197230815887451171875" lon="118.15219734795391559600830078125">
        <ele>26.799999237060546875</ele>
        <time>2026-09-08T13:08:35.000Z</time>
        <extensions>
          <ns3:TrackPointExtension>
            <ns3:hr>112</ns3:hr>
            <ns3:cad>87</ns3:cad>
          </ns3:TrackPointExtension>
        </extensions>
      </trkpt>
      <trkpt lat="24.53460884280502796173095703125" lon="118.15218561328947544097900390625">
        <ele>26.799999237060546875</ele>
        <time>2026-09-08T13:08:36.000Z</time>
        <extensions>
          <ns3:TrackPointExtension>
            <ns3:hr>112</ns3:hr>
            <ns3:cad>88</ns3:cad>
          </ns3:TrackPointExtension>
        </extensions>
      </trkpt>
      <trkpt lat="24.53464102931320667266845703125" lon="118.15216608345508575439453125">
        <ele>26.799999237060546875</ele>
        <time>2026-09-08T13:08:37.000Z</time>
        <extensions>
          <ns3:TrackPointExtension>
            <ns3:hr>113</ns3:hr>
            <ns3:cad>89</ns3:cad>
          </ns3:TrackPointExtension>
        </extensions>
      </trkpt>
      <trkpt lat="24.534665755927562713623046875" lon="118.152150325477123260498046875">
        <ele>26.799999237060546875</ele>
        <time>2026-09-08T13:08:38.000Z</time>
        <extensions>
          <ns3:TrackPointExtension>
            <ns3:hr>114</ns3:hr>
            <ns3:cad>89</ns3:cad>
          </ns3:TrackPointExtension>
        </extensions>
      </trkpt>
      <trkpt lat="24.53469282947480678558349609375" lon="118.15212928690016269683837890625">
        <ele>26.799999237060546875</ele>
        <time>2026-09-08T13:08:39.000Z</time>
        <extensions>
          <ns3:TrackPointExtension>
            <ns3:hr>114</ns3:hr>
            <ns3:cad>88</ns3:cad>
          </ns3:TrackPointExtension>
        </extensions>
      </trkpt>
      <trkpt lat="24.5347333140671253204345703125" lon="118.15211336128413677215576171875">
        <ele>26.799999237060546875</ele>
        <time>2026-09-08T13:08:40.000Z</time>
        <extensions>
          <ns3:TrackPointExtension>
            <ns3:hr>115</ns3:hr>
            <ns3:cad>88</ns3:cad>
          </ns3:TrackPointExtension>
        </extensions>
      </trkpt>
      <trkpt lat="24.5347567833960056304931640625" lon="118.152104057371616363525390625">
        <ele>27</ele>
        <time>2026-09-08T13:08:41.000Z</time>
        <extensions>
          <ns3:TrackPointExtension>
            <ns3:hr>116</ns3:hr>
            <ns3:cad>88</ns3:cad>
          </ns3:TrackPointExtension>
        </extensions>
      </trkpt>
      <trkpt lat="24.53481017611920833587646484375" lon="118.152118138968944549560546875">
        <ele>27</ele>
        <time>2026-09-08T13:08:42.000Z</time>
        <extensions>
          <ns3:TrackPointExtension>
            <ns3:hr>117</ns3:hr>
            <ns3:cad>87</ns3:cad>
          </ns3:TrackPointExtension>
        </extensions>
      </trkpt>
      <trkpt lat="24.534842111170291900634765625" lon="118.15212719142436981201171875">
        <ele>27</ele>
        <time>2026-09-08T13:08:43.000Z</time>
        <extensions>
          <ns3:TrackPointExtension>
            <ns3:hr>118</ns3:hr>
            <ns3:cad>87</ns3:cad>
          </ns3:TrackPointExtension>
        </extensions>
      </trkpt>
      <trkpt lat="24.53488267958164215087890625" lon="118.15215661190450191497802734375">
        <ele>27</ele>
        <time>2026-09-08T13:08:44.000Z</time>
        <extensions>
          <ns3:TrackPointExtension>
            <ns3:hr>119</ns3:hr>
            <ns3:cad>87</ns3:cad>
          </ns3:TrackPointExtension>
        </extensions>
      </trkpt>
      <trkpt lat="24.5349048078060150146484375" lon="118.1521689333021640777587890625">
        <ele>26.799999237060546875</ele>
        <time>2026-09-08T13:08:45.000Z</time>
        <extensions>
          <ns3:TrackPointExtension>
            <ns3:hr>119</ns3:hr>
            <ns3:cad>88</ns3:cad>
          </ns3:TrackPointExtension>
        </extensions>
      </trkpt>
      <trkpt lat="24.5349423587322235107421875" lon="118.1522058136761188507080078125">
        <ele>26.799999237060546875</ele>
        <time>2026-09-08T13:08:46.000Z</time>
        <extensions>
          <ns3:TrackPointExtension>
            <ns3:hr>120</ns3:hr>
            <ns3:cad>88</ns3:cad>
          </ns3:TrackPointExtension>
        </extensions>
      </trkpt>
      <trkpt lat="24.534976892173290252685546875" lon="118.15223305486142635345458984375">
        <ele>26.799999237060546875</ele>
        <time>2026-09-08T13:08:47.000Z</time>
        <extensions>
          <ns3:TrackPointExtension>
            <ns3:hr>120</ns3:hr>
            <ns3:cad>88</ns3:cad>
          </ns3:TrackPointExtension>
        </extensions>
      </trkpt>
      <trkpt lat="24.53500731848180294036865234375" lon="118.1522606313228607177734375">
        <ele>26.799999237060546875</ele>
        <time>2026-09-08T13:08:48.000Z</time>
        <extensions>
          <ns3:TrackPointExtension>
            <ns3:hr>121</ns3:hr>
            <ns3:cad>88</ns3:cad>
          </ns3:TrackPointExtension>
        </extensions>
      </trkpt>
      <trkpt lat="24.53503631986677646636962890625" lon="118.15229005180299282073974609375">
        <ele>27</ele>
        <time>2026-09-08T13:08:49.000Z</time>
        <extensions>
          <ns3:TrackPointExtension>
            <ns3:hr>121</ns3:hr>
            <ns3:cad>87</ns3:cad>
          </ns3:TrackPointExtension>
        </extensions>
      </trkpt>
      <trkpt lat="24.53506984747946262359619140625" lon="118.15231737680733203887939453125">
        <ele>27</ele>
        <time>2026-09-08T13:08:50.000Z</time>
        <extensions>
          <ns3:TrackPointExtension>
            <ns3:hr>122</ns3:hr>
            <ns3:cad>87</ns3:cad>
          </ns3:TrackPointExtension>
        </extensions>
      </trkpt>
      <trkpt lat="24.53510371036827564239501953125" lon="118.152351491153240203857421875">
        <ele>27</ele>
        <time>2026-09-08T13:08:51.000Z</time>
        <extensions>
          <ns3:TrackPointExtension>
            <ns3:hr>122</ns3:hr>
            <ns3:cad>87</ns3:cad>
          </ns3:TrackPointExtension>
        </extensions>
      </trkpt>
      <trkpt lat="24.5351289398968219757080078125" lon="118.15236649475991725921630859375">
        <ele>27</ele>
        <time>2026-09-08T13:08:52.000Z</time>
        <extensions>
          <ns3:TrackPointExtension>
            <ns3:hr>122</ns3:hr>
            <ns3:cad>88</ns3:cad>
          </ns3:TrackPointExtension>
        </extensions>
      </trkpt>
      <trkpt lat="24.535158611834049224853515625" lon="118.152393400669097900390625">
        <ele>27</ele>
        <time>2026-09-08T13:08:53.000Z</time>
        <extensions>
          <ns3:TrackPointExtension>
            <ns3:hr>122</ns3:hr>
            <ns3:cad>88</ns3:cad>
          </ns3:TrackPointExtension>
        </extensions>
      </trkpt>
      <trkpt lat="24.5351738668978214263916015625" lon="118.1524054706096649169921875">
        <ele>27</ele>
        <time>2026-09-08T13:08:54.000Z</time>
        <extensions>
          <ns3:TrackPointExtension>
            <ns3:hr>123</ns3:hr>
            <ns3:cad>88</ns3:cad>
          </ns3:TrackPointExtension>
        </extensions>
      </trkpt>
      <trkpt lat="24.53520546667277812957763671875" lon="118.15242701210081577301025390625">
        <ele>27</ele>
        <time>2026-09-08T13:08:55.000Z</time>
        <extensions>
          <ns3:TrackPointExtension>
            <ns3:hr>123</ns3:hr>
            <ns3:cad>87</ns3:cad>
          </ns3:TrackPointExtension>
        </extensions>
      </trkpt>
      <trkpt lat="24.53522759489715099334716796875" lon="118.1524388305842876434326171875">
        <ele>27</ele>
        <time>2026-09-08T13:08:56.000Z</time>
        <extensions>
          <ns3:TrackPointExtension>
            <ns3:hr>124</ns3:hr>
            <ns3:cad>87</ns3:cad>
          </ns3:TrackPointExtension>
        </extensions>
      </trkpt>
      <trkpt lat="24.5352593623101711273193359375" lon="118.1524673290550708770751953125">
        <ele>27</ele>
        <time>2026-09-08T13:08:57.000Z</time>
        <extensions>
          <ns3:TrackPointExtension>
            <ns3:hr>125</ns3:hr>
            <ns3:cad>86</ns3:cad>
          </ns3:TrackPointExtension>
        </extensions>
      </trkpt>
      <trkpt lat="24.53528023324906826019287109375" lon="118.1524820812046527862548828125">
        <ele>27</ele>
        <time>2026-09-08T13:08:58.000Z</time>
        <extensions>
          <ns3:TrackPointExtension>
            <ns3:hr>125</ns3:hr>
            <ns3:cad>87</ns3:cad>
          </ns3:TrackPointExtension>
        </extensions>
      </trkpt>
      <trkpt lat="24.53530873171985149383544921875" lon="118.15250881947576999664306640625">
        <ele>27</ele>
        <time>2026-09-08T13:08:59.000Z</time>
        <extensions>
          <ns3:TrackPointExtension>
            <ns3:hr>126</ns3:hr>
            <ns3:cad>88</ns3:cad>
          </ns3:TrackPointExtension>
        </extensions>
      </trkpt>
      <trkpt lat="24.53533957712352275848388671875" lon="118.15253446809947490692138671875">
        <ele>27</ele>
        <time>2026-09-08T13:09:00.000Z</time>
        <extensions>
          <ns3:TrackPointExtension>
            <ns3:hr>127</ns3:hr>
            <ns3:cad>88</ns3:cad>
          </ns3:TrackPointExtension>
        </extensions>
      </trkpt>
      <trkpt lat="24.53536690212786197662353515625" lon="118.15255726687610149383544921875">
        <ele>27</ele>
        <time>2026-09-08T13:09:01.000Z</time>
        <extensions>
          <ns3:TrackPointExtension>
            <ns3:hr>127</ns3:hr>
            <ns3:cad>87</ns3:cad>
          </ns3:TrackPointExtension>
        </extensions>
      </trkpt>
      <trkpt lat="24.5353934727609157562255859375" lon="118.15258006565272808074951171875">
        <ele>27</ele>
        <time>2026-09-08T13:09:02.000Z</time>
        <extensions>
          <ns3:TrackPointExtension>
            <ns3:hr>128</ns3:hr>
            <ns3:cad>87</ns3:cad>
          </ns3:TrackPointExtension>
        </extensions>
      </trkpt>
      <trkpt lat="24.535421468317508697509765625" lon="118.15259523689746856689453125">
        <ele>27.200000762939453125</ele>
        <time>2026-09-08T13:09:03.000Z</time>
        <extensions>
          <ns3:TrackPointExtension>
            <ns3:hr>128</ns3:hr>
            <ns3:cad>87</ns3:cad>
          </ns3:TrackPointExtension>
        </extensions>
      </trkpt>
      <trkpt lat="24.53544736839830875396728515625" lon="118.15262231044471263885498046875">
        <ele>27.200000762939453125</ele>
        <time>2026-09-08T13:09:04.000Z</time>
        <extensions>
          <ns3:TrackPointExtension>
            <ns3:hr>128</ns3:hr>
            <ns3:cad>86</ns3:cad>
          </ns3:TrackPointExtension>
        </extensions>
      </trkpt>
      <trkpt lat="24.53546195290982723236083984375" lon="118.152631111443042755126953125">
        <ele>27.200000762939453125</ele>
        <time>2026-09-08T13:09:05.000Z</time>
        <extensions>
          <ns3:TrackPointExtension>
            <ns3:hr>129</ns3:hr>
            <ns3:cad>86</ns3:cad>
          </ns3:TrackPointExtension>
        </extensions>
      </trkpt>
      <trkpt lat="24.5354880206286907196044921875" lon="118.15266036428511142730712890625">
        <ele>27.200000762939453125</ele>
        <time>2026-09-08T13:09:06.000Z</time>
        <extensions>
          <ns3:TrackPointExtension>
            <ns3:hr>129</ns3:hr>
            <ns3:cad>87</ns3:cad>
          </ns3:TrackPointExtension>
        </extensions>
      </trkpt>
      <trkpt lat="24.53551526181399822235107421875" lon="118.15268576145172119140625">
        <ele>27.200000762939453125</ele>
        <time>2026-09-08T13:09:07.000Z</time>
        <extensions>
          <ns3:TrackPointExtension>
            <ns3:hr>129</ns3:hr>
            <ns3:cad>87</ns3:cad>
          </ns3:TrackPointExtension>
        </extensions>
      </trkpt>
      <trkpt lat="24.53553806059062480926513671875" lon="118.15270629711449146270751953125">
        <ele>27.200000762939453125</ele>
        <time>2026-09-08T13:09:08.000Z</time>
        <extensions>
          <ns3:TrackPointExtension>
            <ns3:hr>129</ns3:hr>
            <ns3:cad>87</ns3:cad>
          </ns3:TrackPointExtension>
        </extensions>
      </trkpt>
      <trkpt lat="24.53556655906140804290771484375" lon="118.152729682624340057373046875">
        <ele>27.200000762939453125</ele>
        <time>2026-09-08T13:09:09.000Z</time>
        <extensions>
          <ns3:TrackPointExtension>
            <ns3:hr>130</ns3:hr>
            <ns3:cad>87</ns3:cad>
          </ns3:TrackPointExtension>
        </extensions>
      </trkpt>
      <trkpt lat="24.53559841029345989227294921875" lon="118.15274703316390514373779296875">
        <ele>27.200000762939453125</ele>
        <time>2026-09-08T13:09:10.000Z</time>
        <extensions>
          <ns3:TrackPointExtension>
            <ns3:hr>130</ns3:hr>
            <ns3:cad>86</ns3:cad>
          </ns3:TrackPointExtension>
        </extensions>
      </trkpt>
      <trkpt lat="24.53562757931649684906005859375" lon="118.15277360379695892333984375">
        <ele>27.200000762939453125</ele>
        <time>2026-09-08T13:09:11.000Z</time>
        <extensions>
          <ns3:TrackPointExtension>
            <ns3:hr>130</ns3:hr>
            <ns3:cad>86</ns3:cad>
          </ns3:TrackPointExtension>
        </extensions>
      </trkpt>
      <trkpt lat="24.5356586761772632598876953125" lon="118.15279279835522174835205078125">
        <ele>27.200000762939453125</ele>
        <time>2026-09-08T13:09:12.000Z</time>
        <extensions>
          <ns3:TrackPointExtension>
            <ns3:hr>130</ns3:hr>
            <ns3:cad>86</ns3:cad>
          </ns3:TrackPointExtension>
        </extensions>
      </trkpt>
      <trkpt lat="24.53569195233285427093505859375" lon="118.15282146446406841278076171875">
        <ele>27.200000762939453125</ele>
        <time>2026-09-08T13:09:13.000Z</time>
        <extensions>
          <ns3:TrackPointExtension>
            <ns3:hr>131</ns3:hr>
            <ns3:cad>86</ns3:cad>
          </ns3:TrackPointExtension>
        </extensions>
      </trkpt>
      <trkpt lat="24.53571877442300319671630859375" lon="118.15283856354653835296630859375">
        <ele>27.200000762939453125</ele>
        <time>2026-09-08T13:09:14.000Z</time>
        <extensions>
          <ns3:TrackPointExtension>
            <ns3:hr>131</ns3:hr>
            <ns3:cad>87</ns3:cad>
          </ns3:TrackPointExtension>
        </extensions>
      </trkpt>
      <trkpt lat="24.535755403339862823486328125" lon="118.15286152996122837066650390625">
        <ele>27.200000762939453125</ele>
        <time>2026-09-08T13:09:15.000Z</time>
        <extensions>
          <ns3:TrackPointExtension>
            <ns3:hr>130</ns3:hr>
            <ns3:cad>87</ns3:cad>
          </ns3:TrackPointExtension>
        </extensions>
      </trkpt>
      <trkpt lat="24.535785578191280364990234375" lon="118.15288600511848926544189453125">
        <ele>27.200000762939453125</ele>
        <time>2026-09-08T13:09:16.000Z</time>
        <extensions>
          <ns3:TrackPointExtension>
            <ns3:hr>130</ns3:hr>
            <ns3:cad>87</ns3:cad>
          </ns3:TrackPointExtension>
        </extensions>
      </trkpt>
      <trkpt lat="24.535831846296787261962890625" lon="118.152911402285099029541015625">
        <ele>27.200000762939453125</ele>
        <time>2026-09-08T13:09:17.000Z</time>
        <extensions>
          <ns3:TrackPointExtension>
            <ns3:hr>130</ns3:hr>
            <ns3:cad>86</ns3:cad>
          </ns3:TrackPointExtension>
        </extensions>
      </trkpt>
      <trkpt lat="24.5358812995254993438720703125" lon="118.15294367261230945587158203125">
        <ele>27.3999996185302734375</ele>
        <time>2026-09-08T13:09:18.000Z</time>
        <extensions>
          <ns3:TrackPointExtension>
            <ns3:hr>130</ns3:hr>
            <ns3:cad>86</ns3:cad>
          </ns3:TrackPointExtension>
        </extensions>
      </trkpt>
      <trkpt lat="24.53591960482299327850341796875" lon="118.15296831540763378143310546875">
        <ele>27.3999996185302734375</ele>
        <time>2026-09-08T13:09:19.000Z</time>
        <extensions>
          <ns3:TrackPointExtension>
            <ns3:hr>130</ns3:hr>
            <ns3:cad>86</ns3:cad>
          </ns3:TrackPointExtension>
        </extensions>
      </trkpt>
      <trkpt lat="24.5359634421765804290771484375" lon="118.1530031003057956695556640625">
        <ele>27.3999996185302734375</ele>
        <time>2026-09-08T13:09:20.000Z</time>
        <extensions>
          <ns3:TrackPointExtension>
            <ns3:hr>130</ns3:hr>
            <ns3:cad>86</ns3:cad>
          </ns3:TrackPointExtension>
        </extensions>
      </trkpt>
      <trkpt lat="24.53601197339594364166259765625" lon="118.15303419716656208038330078125">
        <ele>27.200000762939453125</ele>
        <time>2026-09-08T13:09:21.000Z</time>
        <extensions>
          <ns3:TrackPointExtension>
            <ns3:hr>131</ns3:hr>
            <ns3:cad>86</ns3:cad>
          </ns3:TrackPointExtension>
        </extensions>
      </trkpt>
      <trkpt lat="24.53604868613183498382568359375" lon="118.15306621603667736053466796875">
        <ele>27.200000762939453125</ele>
        <time>2026-09-08T13:09:22.000Z</time>
        <extensions>
          <ns3:TrackPointExtension>
            <ns3:hr>132</ns3:hr>
            <ns3:cad>87</ns3:cad>
          </ns3:TrackPointExtension>
        </extensions>
      </trkpt>
      <trkpt lat="24.5360992290079593658447265625" lon="118.15309287048876285552978515625">
        <ele>27.200000762939453125</ele>
        <time>2026-09-08T13:09:23.000Z</time>
        <extensions>
          <ns3:TrackPointExtension>
            <ns3:hr>132</ns3:hr>
            <ns3:cad>87</ns3:cad>
          </ns3:TrackPointExtension>
        </extensions>
      </trkpt>
      <trkpt lat="24.5361501909792423248291015625" lon="118.15312840975821018218994140625">
        <ele>27</ele>
        <time>2026-09-08T13:09:24.000Z</time>
        <extensions>
          <ns3:TrackPointExtension>
            <ns3:hr>132</ns3:hr>
            <ns3:cad>87</ns3:cad>
          </ns3:TrackPointExtension>
        </extensions>
      </trkpt>
      <trkpt lat="24.53619721345603466033935546875" lon="118.1531606800854206085205078125">
        <ele>27</ele>
        <time>2026-09-08T13:09:25.000Z</time>
        <extensions>
          <ns3:TrackPointExtension>
            <ns3:hr>132</ns3:hr>
            <ns3:cad>87</ns3:cad>
          </ns3:TrackPointExtension>
        </extensions>
      </trkpt>
      <trkpt lat="24.53625597059726715087890625" lon="118.15320812165737152099609375">
        <ele>27</ele>
        <time>2026-09-08T13:09:26.000Z</time>
        <extensions>
          <ns3:TrackPointExtension>
            <ns3:hr>132</ns3:hr>
            <ns3:cad>86</ns3:cad>
          </ns3:TrackPointExtension>
        </extensions>
      </trkpt>
      <trkpt lat="24.53629620373249053955078125" lon="118.1532423198223114013671875">
        <ele>27</ele>
        <time>2026-09-08T13:09:27.000Z</time>
        <extensions>
          <ns3:TrackPointExtension>
            <ns3:hr>132</ns3:hr>
            <ns3:cad>86</ns3:cad>
          </ns3:TrackPointExtension>
        </extensions>
      </trkpt>
      <trkpt lat="24.536347500979900360107421875" lon="118.153280206024646759033203125">
        <ele>27</ele>
        <time>2026-09-08T13:09:28.000Z</time>
        <extensions>
          <ns3:TrackPointExtension>
            <ns3:hr>132</ns3:hr>
            <ns3:cad>86</ns3:cad>
          </ns3:TrackPointExtension>
        </extensions>
      </trkpt>
      <trkpt lat="24.53638429753482341766357421875" lon="118.15331272780895233154296875">
        <ele>27</ele>
        <time>2026-09-08T13:09:29.000Z</time>
        <extensions>
          <ns3:TrackPointExtension>
            <ns3:hr>132</ns3:hr>
            <ns3:cad>87</ns3:cad>
          </ns3:TrackPointExtension>
        </extensions>
      </trkpt>
      <trkpt lat="24.53642268665134906768798828125" lon="118.15334281884133815765380859375">
        <ele>27</ele>
        <time>2026-09-08T13:09:30.000Z</time>
        <extensions>
          <ns3:TrackPointExtension>
            <ns3:hr>132</ns3:hr>
            <ns3:cad>87</ns3:cad>
          </ns3:TrackPointExtension>
        </extensions>
      </trkpt>
      <trkpt lat="24.53646141104400157928466796875" lon="118.15337366424500942230224609375">
        <ele>27</ele>
        <time>2026-09-08T13:09:31.000Z</time>
        <extensions>
          <ns3:TrackPointExtension>
            <ns3:hr>132</ns3:hr>
            <ns3:cad>87</ns3:cad>
          </ns3:TrackPointExtension>
        </extensions>
      </trkpt>
      <trkpt lat="24.53649929724633693695068359375" lon="118.153392188251018524169921875">
        <ele>27</ele>
        <time>2026-09-08T13:09:32.000Z</time>
        <extensions>
          <ns3:TrackPointExtension>
            <ns3:hr>131</ns3:hr>
            <ns3:cad>87</ns3:cad>
          </ns3:TrackPointExtension>
        </extensions>
      </trkpt>
      <trkpt lat="24.53654296696186065673828125" lon="118.1534329243004322052001953125">
        <ele>27</ele>
        <time>2026-09-08T13:09:33.000Z</time>
        <extensions>
          <ns3:TrackPointExtension>
            <ns3:hr>131</ns3:hr>
            <ns3:cad>87</ns3:cad>
          </ns3:TrackPointExtension>
        </extensions>
      </trkpt>
      <trkpt lat="24.5365826971828937530517578125" lon="118.15345983020961284637451171875">
        <ele>27</ele>
        <time>2026-09-08T13:09:34.000Z</time>
        <extensions>
          <ns3:TrackPointExtension>
            <ns3:hr>131</ns3:hr>
            <ns3:cad>86</ns3:cad>
          </ns3:TrackPointExtension>
        </extensions>
      </trkpt>
      <trkpt lat="24.53661999665200710296630859375" lon="118.15349235199391841888427734375">
        <ele>27</ele>
        <time>2026-09-08T13:09:35.000Z</time>
        <extensions>
          <ns3:TrackPointExtension>
            <ns3:hr>131</ns3:hr>
            <ns3:cad>86</ns3:cad>
          </ns3:TrackPointExtension>
        </extensions>
      </trkpt>
      <trkpt lat="24.53664354979991912841796875" lon="118.1535174138844013214111328125">
        <ele>27.200000762939453125</ele>
        <time>2026-09-08T13:09:36.000Z</time>
        <extensions>
          <ns3:TrackPointExtension>
            <ns3:hr>132</ns3:hr>
            <ns3:cad>86</ns3:cad>
          </ns3:TrackPointExtension>
        </extensions>
      </trkpt>
      <trkpt lat="24.536676071584224700927734375" lon="118.15354876220226287841796875">
        <ele>27.200000762939453125</ele>
        <time>2026-09-08T13:09:37.000Z</time>
        <extensions>
          <ns3:TrackPointExtension>
            <ns3:hr>132</ns3:hr>
            <ns3:cad>87</ns3:cad>
          </ns3:TrackPointExtension>
        </extensions>
      </trkpt>
      <trkpt lat="24.5366956852376461029052734375" lon="118.1535695493221282958984375">
        <ele>27</ele>
        <time>2026-09-08T13:09:38.000Z</time>
        <extensions>
          <ns3:TrackPointExtension>
            <ns3:hr>132</ns3:hr>
            <ns3:cad>87</ns3:cad>
          </ns3:TrackPointExtension>
        </extensions>
      </trkpt>
      <trkpt lat="24.5367463119328022003173828125" lon="118.15361707471311092376708984375">
        <ele>27</ele>
        <time>2026-09-08T13:09:39.000Z</time>
        <extensions>
          <ns3:TrackPointExtension>
            <ns3:hr>132</ns3:hr>
            <ns3:cad>88</ns3:cad>
          </ns3:TrackPointExtension>
        </extensions>
      </trkpt>
      <trkpt lat="24.53679266385734081268310546875" lon="118.1536634266376495361328125">
        <ele>26.799999237060546875</ele>
        <time>2026-09-08T13:09:40.000Z</time>
        <extensions>
          <ns3:TrackPointExtension>
            <ns3:hr>132</ns3:hr>
            <ns3:cad>88</ns3:cad>
          </ns3:TrackPointExtension>
        </extensions>
      </trkpt>
      <trkpt lat="24.536841027438640594482421875" lon="118.1537063419818878173828125">
        <ele>26.6000003814697265625</ele>
        <time>2026-09-08T13:09:41.000Z</time>
        <extensions>
          <ns3:TrackPointExtension>
            <ns3:hr>131</ns3:hr>
            <ns3:cad>87</ns3:cad>
          </ns3:TrackPointExtension>
        </extensions>
      </trkpt>
      <trkpt lat="24.536890648305416107177734375" lon="118.15374967642128467559814453125">
        <ele>26.6000003814697265625</ele>
        <time>2026-09-08T13:09:42.000Z</time>
        <extensions>
          <ns3:TrackPointExtension>
            <ns3:hr>131</ns3:hr>
            <ns3:cad>87</ns3:cad>
          </ns3:TrackPointExtension>
        </extensions>
      </trkpt>
      <trkpt lat="24.53692912124097347259521484375" lon="118.1537769176065921783447265625">
        <ele>26.6000003814697265625</ele>
        <time>2026-09-08T13:09:43.000Z</time>
        <extensions>
          <ns3:TrackPointExtension>
            <ns3:hr>131</ns3:hr>
            <ns3:cad>87</ns3:cad>
          </ns3:TrackPointExtension>
        </extensions>
      </trkpt>
      <trkpt lat="24.5369722880423069000244140625" lon="118.15382025204598903656005859375">
        <ele>26.6000003814697265625</ele>
        <time>2026-09-08T13:09:44.000Z</time>
        <extensions>
          <ns3:TrackPointExtension>
            <ns3:hr>131</ns3:hr>
            <ns3:cad>87</ns3:cad>
          </ns3:TrackPointExtension>
        </extensions>
      </trkpt>
      <trkpt lat="24.53704529441893100738525390625" lon="118.15388026647269725799560546875">
        <ele>26.6000003814697265625</ele>
        <time>2026-09-08T13:09:45.000Z</time>
        <extensions>
          <ns3:TrackPointExtension>
            <ns3:hr>132</ns3:hr>
            <ns3:cad>87</ns3:cad>
          </ns3:TrackPointExtension>
        </extensions>
      </trkpt>
      <trkpt lat="24.53711017034947872161865234375" lon="118.15392100252211093902587890625">
        <ele>26.6000003814697265625</ele>
        <time>2026-09-08T13:09:46.000Z</time>
        <extensions>
          <ns3:TrackPointExtension>
            <ns3:hr>132</ns3:hr>
            <ns3:cad>87</ns3:cad>
          </ns3:TrackPointExtension>
        </extensions>
      </trkpt>
      <trkpt lat="24.53714839182794094085693359375" lon="118.1539450585842132568359375">
        <ele>26.6000003814697265625</ele>
        <time>2026-09-08T13:09:47.000Z</time>
        <extensions>
          <ns3:TrackPointExtension>
            <ns3:hr>132</ns3:hr>
            <ns3:cad>87</ns3:cad>
          </ns3:TrackPointExtension>
        </extensions>
      </trkpt>
      <trkpt lat="24.53725098632276058197021484375" lon="118.15400331281125545501708984375">
        <ele>26.6000003814697265625</ele>
        <time>2026-09-08T13:09:48.000Z</time>
        <extensions>
          <ns3:TrackPointExtension>
            <ns3:hr>131</ns3:hr>
            <ns3:cad>87</ns3:cad>
          </ns3:TrackPointExtension>
        </extensions>
      </trkpt>
      <trkpt lat="24.5372703485190868377685546875" lon="118.15402443520724773406982421875">
        <ele>26.6000003814697265625</ele>
        <time>2026-09-08T13:09:49.000Z</time>
        <extensions>
          <ns3:TrackPointExtension>
            <ns3:hr>131</ns3:hr>
            <ns3:cad>86</ns3:cad>
          </ns3:TrackPointExtension>
        </extensions>
      </trkpt>
      <trkpt lat="24.53726825304329395294189453125" lon="118.1540411151945590972900390625">
        <ele>26.799999237060546875</ele>
        <time>2026-09-08T13:09:50.000Z</time>
        <extensions>
          <ns3:TrackPointExtension>
            <ns3:hr>132</ns3:hr>
            <ns3:cad>86</ns3:cad>
          </ns3:TrackPointExtension>
        </extensions>
      </trkpt>
      <trkpt lat="24.53729205764830112457275390625" lon="118.15406978130340576171875">
        <ele>26.799999237060546875</ele>
        <time>2026-09-08T13:09:51.000Z</time>
        <extensions>
          <ns3:TrackPointExtension>
            <ns3:hr>132</ns3:hr>
            <ns3:cad>86</ns3:cad>
          </ns3:TrackPointExtension>
        </extensions>
      </trkpt>
      <trkpt lat="24.5373146049678325653076171875" lon="118.15408243797719478607177734375">
        <ele>26.799999237060546875</ele>
        <time>2026-09-08T13:09:52.000Z</time>
        <extensions>
          <ns3:TrackPointExtension>
            <ns3:hr>132</ns3:hr>
            <ns3:cad>88</ns3:cad>
          </ns3:TrackPointExtension>
        </extensions>
      </trkpt>
      <trkpt lat="24.5373437739908695220947265625" lon="118.15410129725933074951171875">
        <ele>26.799999237060546875</ele>
        <time>2026-09-08T13:09:53.000Z</time>
        <extensions>
          <ns3:TrackPointExtension>
            <ns3:hr>132</ns3:hr>
            <ns3:cad>88</ns3:cad>
          </ns3:TrackPointExtension>
        </extensions>
      </trkpt>
      <trkpt lat="24.53737369738519191741943359375" lon="118.15413323231041431427001953125">
        <ele>26.799999237060546875</ele>
        <time>2026-09-08T13:09:54.000Z</time>
        <extensions>
          <ns3:TrackPointExtension>
            <ns3:hr>132</ns3:hr>
            <ns3:cad>87</ns3:cad>
          </ns3:TrackPointExtension>
        </extensions>
      </trkpt>
      <trkpt lat="24.53740261495113372802734375" lon="118.15417162142693996429443359375">
        <ele>26.6000003814697265625</ele>
        <time>2026-09-08T13:09:55.000Z</time>
        <extensions>
          <ns3:TrackPointExtension>
            <ns3:hr>132</ns3:hr>
            <ns3:cad>87</ns3:cad>
          </ns3:TrackPointExtension>
        </extensions>
      </trkpt>
      <trkpt lat="24.53743438236415386199951171875" lon="118.15421252511441707611083984375">
        <ele>26.6000003814697265625</ele>
        <time>2026-09-08T13:09:56.000Z</time>
        <extensions>
          <ns3:TrackPointExtension>
            <ns3:hr>133</ns3:hr>
            <ns3:cad>87</ns3:cad>
          </ns3:TrackPointExtension>
        </extensions>
      </trkpt>
    </trkseg>
  </trk>
</gpx>
