<?xml version="1.0" encoding="UTF-8"?>
<gpx creator="Garmin Connect" version="1.1"
  xsi:schemaLocation="http://www.topografix.com/GPX/1/1 http://www.topografix.com/GPX/11.xsd"
  xmlns:ns3="http://www.garmin.com/xmlschemas/TrackPointExtension/v1"
  xmlns="http://www.topografix.com/GPX/1/1"
  xmlns:xsi="http://www.w3.org/2001/XMLSchema-instance" xmlns:ns2="http://www.garmin.com/xmlschemas/GpxExtensions/v3">
  <metadata>
    <link href="connect.garmin.com">
      <text>Garmin Connect</text>
    </link>
    <time>2026-09-10T12:19:39.000Z</time>
  </metadata>
  <trk>
    <name>朝阳区 骑行</name>
    <type>cycling</type>
    <trkseg>
      <trkpt lat="39.9569563753902912139892578125" lon="116.45834044553339481353759765625">
        <ele>42.40000152587890625</ele>
        <time>2026-09-10T12:19:39.000Z</time>
        <extensions>
          <ns3:TrackPointExtension>
            <ns3:hr>89</ns3:hr>
          </ns3:TrackPointExtension>
        </extensions>
      </trkpt>
      <trkpt lat="39.95700960047543048858642578125" lon="116.45827724598348140716552734375">
        <ele>42.40000152587890625</ele>
        <time>2026-09-10T12:19:42.000Z</time>
        <extensions>
          <ns3:TrackPointExtension>
            <ns3:hr>90</ns3:hr>
          </ns3:TrackPointExtension>
        </extensions>
      </trkpt>
      <trkpt lat="39.95704472064971923828125" lon="116.45828395150601863861083984375">
        <ele>42.59999847412109375</ele>
        <time>2026-09-10T12:19:44.000Z</time>
        <extensions>
          <ns3:TrackPointExtension>
            <ns3:hr>93</ns3:hr>
          </ns3:TrackPointExtension>
        </extensions>
      </trkpt>
      <trkpt lat="39.95707430876791477203369140625" lon="116.4583033137023448944091796875">
        <ele>42.40000152587890625</ele>
        <time>2026-09-10T12:19:46.000Z</time>
        <extensions>
          <ns3:TrackPointExtension>
            <ns3:hr>96</ns3:hr>
          </ns3:TrackPointExtension>
        </extensions>
      </trkpt>
      <trkpt lat="39.9571085907518863677978515625" lon="116.458338014781475067138671875">
        <ele>42.40000152587890625</ele>
        <time>2026-09-10T12:19:49.000Z</time>
        <extensions>
          <ns3:TrackPointExtension>
            <ns3:hr>96</ns3:hr>
          </ns3:TrackPointExtension>
        </extensions>
      </trkpt>
      <trkpt lat="39.95715460740029811859130859375" lon="116.458405740559101104736328125">
        <ele>42.40000152587890625</ele>
        <time>2026-09-10T12:19:52.000Z</time>
        <extensions>
          <ns3:TrackPointExtension>
            <ns3:hr>93</ns3:hr>
          </ns3:TrackPointExtension>
        </extensions>
      </trkpt>
      <trkpt lat="39.95716986246407032012939453125" lon="116.45842560566961765289306640625">
        <ele>42.200000762939453125</ele>
        <time>2026-09-10T12:19:53.000Z</time>
        <extensions>
          <ns3:TrackPointExtension>
            <ns3:hr>90</ns3:hr>
          </ns3:TrackPointExtension>
        </extensions>
      </trkpt>
      <trkpt lat="39.95717992074787616729736328125" lon="116.458440609276294708251953125">
        <ele>42.200000762939453125</ele>
        <time>2026-09-10T12:19:54.000Z</time>
        <extensions>
          <ns3:TrackPointExtension>
            <ns3:hr>89</ns3:hr>
          </ns3:TrackPointExtension>
        </extensions>
      </trkpt>
      <trkpt lat="39.9572530947625637054443359375" lon="116.45853809081017971038818359375">
        <ele>42.40000152587890625</ele>
        <time>2026-09-10T12:19:59.000Z</time>
        <extensions>
          <ns3:TrackPointExtension>
            <ns3:hr>89</ns3:hr>
          </ns3:TrackPointExtension>
        </extensions>
      </trkpt>
      <trkpt lat="39.9573573656380176544189453125" lon="116.458649151027202606201171875">
        <ele>42.200000762939453125</ele>
        <time>2026-09-10T12:20:04.000Z</time>
        <extensions>
          <ns3:TrackPointExtension>
            <ns3:hr>89</ns3:hr>
          </ns3:TrackPointExtension>
        </extensions>
      </trkpt>
      <trkpt lat="39.95748451910912990570068359375" lon="116.4588216505944728851318359375">
        <ele>42.59999847412109375</ele>
        <time>2026-09-10T12:20:10.000Z</time>
        <extensions>
          <ns3:TrackPointExtension>
            <ns3:hr>87</ns3:hr>
          </ns3:TrackPointExtension>
        </extensions>
      </trkpt>
      <trkpt lat="39.95758694596588611602783203125" lon="116.45897042937576770782470703125">
        <ele>42.59999847412109375</ele>
        <time>2026-09-10T12:20:15.000Z</time>
        <extensions>
          <ns3:TrackPointExtension>
            <ns3:hr>87</ns3:hr>
          </ns3:TrackPointExtension>
        </extensions>
      </trkpt>
      <trkpt lat="39.95769272558391094207763671875" lon="116.45909733138978481292724609375">
        <ele>42.799999237060546875</ele>
        <time>2026-09-10T12:20:20.000Z</time>
        <extensions>
          <ns3:TrackPointExtension>
            <ns3:hr>86</ns3:hr>
          </ns3:TrackPointExtension>
        </extensions>
      </trkpt>
      <trkpt lat="39.9578482098877429962158203125" lon="116.45925776101648807525634765625">
        <ele>43</ele>
        <time>2026-09-10T12:20:26.000Z</time>
        <extensions>
          <ns3:TrackPointExtension>
            <ns3:hr>90</ns3:hr>
          </ns3:TrackPointExtension>
        </extensions>
      </trkpt>
      <trkpt lat="39.9579016864299774169921875" lon="116.45930729806423187255859375">
        <ele>43</ele>
        <time>2026-09-10T12:20:28.000Z</time>
        <extensions>
          <ns3:TrackPointExtension>
            <ns3:hr>93</ns3:hr>
          </ns3:TrackPointExtension>
        </extensions>
      </trkpt>
      <trkpt lat="39.9580061249434947967529296875" lon="116.45942439325153827667236328125">
        <ele>43.200000762939453125</ele>
        <time>2026-09-10T12:20:32.000Z</time>
        <extensions>
          <ns3:TrackPointExtension>
            <ns3:hr>93</ns3:hr>
          </ns3:TrackPointExtension>
        </extensions>
      </trkpt>
      <trkpt lat="39.958061613142490386962890625" lon="116.45948993973433971405029296875">
        <ele>43.40000152587890625</ele>
        <time>2026-09-10T12:20:34.000Z</time>
        <extensions>
          <ns3:TrackPointExtension>
            <ns3:hr>93</ns3:hr>
          </ns3:TrackPointExtension>
        </extensions>
      </trkpt>
      <trkpt lat="39.958230592310428619384765625" lon="116.45967744290828704833984375">
        <ele>43.40000152587890625</ele>
        <time>2026-09-10T12:20:40.000Z</time>
        <extensions>
          <ns3:TrackPointExtension>
            <ns3:hr>90</ns3:hr>
          </ns3:TrackPointExtension>
        </extensions>
      </trkpt>
      <trkpt lat="39.95833528228104114532470703125" lon="116.459801830351352691650390625">
        <ele>43.59999847412109375</ele>
        <time>2026-09-10T12:20:44.000Z</time>
        <extensions>
          <ns3:TrackPointExtension>
            <ns3:hr>93</ns3:hr>
          </ns3:TrackPointExtension>
        </extensions>
      </trkpt>
      <trkpt lat="39.95842765085399150848388671875" lon="116.45989176817238330841064453125">
        <ele>43.59999847412109375</ele>
        <time>2026-09-10T12:20:47.000Z</time>
        <extensions>
          <ns3:TrackPointExtension>
            <ns3:hr>93</ns3:hr>
          </ns3:TrackPointExtension>
        </extensions>
      </trkpt>
      <trkpt lat="39.9586699716746807098388671875" lon="116.4600898325443267822265625">
        <ele>43.799999237060546875</ele>
        <time>2026-09-10T12:20:54.000Z</time>
        <extensions>
          <ns3:TrackPointExtension>
            <ns3:hr>91</ns3:hr>
          </ns3:TrackPointExtension>
        </extensions>
      </trkpt>
      <trkpt lat="39.958813972771167755126953125" lon="116.46020240150392055511474609375">
        <ele>44</ele>
        <time>2026-09-10T12:20:58.000Z</time>
        <extensions>
          <ns3:TrackPointExtension>
            <ns3:hr>91</ns3:hr>
          </ns3:TrackPointExtension>
        </extensions>
      </trkpt>
      <trkpt lat="39.95885177515447139739990234375" lon="116.460235677659511566162109375">
        <ele>44</ele>
        <time>2026-09-10T12:20:59.000Z</time>
        <extensions>
          <ns3:TrackPointExtension>
            <ns3:hr>91</ns3:hr>
          </ns3:TrackPointExtension>
        </extensions>
      </trkpt>
      <trkpt lat="39.95903885923326015472412109375" lon="116.46044547669589519500732421875">
        <ele>44</ele>
        <time>2026-09-10T12:21:05.000Z</time>
        <extensions>
          <ns3:TrackPointExtension>
            <ns3:hr>90</ns3:hr>
          </ns3:TrackPointExtension>
        </extensions>
      </trkpt>
      <trkpt lat="39.95918151922523975372314453125" lon="116.4605761505663394927978515625">
        <ele>44</ele>
        <time>2026-09-10T12:21:09.000Z</time>
        <extensions>
          <ns3:TrackPointExtension>
            <ns3:hr>90</ns3:hr>
          </ns3:TrackPointExtension>
        </extensions>
      </trkpt>
      <trkpt lat="39.9593941681087017059326171875" lon="116.460813023149967193603515625">
        <ele>44</ele>
        <time>2026-09-10T12:21:16.000Z</time>
        <extensions>
          <ns3:TrackPointExtension>
            <ns3:hr>88</ns3:hr>
          </ns3:TrackPointExtension>
        </extensions>
      </trkpt>
      <trkpt lat="39.95948762632906436920166015625" lon="116.4609132707118988037109375">
        <ele>44</ele>
        <time>2026-09-10T12:21:19.000Z</time>
        <extensions>
          <ns3:TrackPointExtension>
            <ns3:hr>93</ns3:hr>
          </ns3:TrackPointExtension>
        </extensions>
      </trkpt>
      <trkpt lat="39.9595755524933338165283203125" lon="116.46101762540638446807861328125">
        <ele>44</ele>
        <time>2026-09-10T12:21:22.000Z</time>
        <extensions>
          <ns3:TrackPointExtension>
            <ns3:hr>97</ns3:hr>
          </ns3:TrackPointExtension>
        </extensions>
      </trkpt>
      <trkpt lat="39.959818460047245025634765625" lon="116.4612914621829986572265625">
        <ele>44.200000762939453125</ele>
        <time>2026-09-10T12:21:30.000Z</time>
        <extensions>
          <ns3:TrackPointExtension>
            <ns3:hr>96</ns3:hr>
          </ns3:TrackPointExtension>
        </extensions>
      </trkpt>
      <trkpt lat="39.95987704955041408538818359375" lon="116.46135441027581691741943359375">
        <ele>44.40000152587890625</ele>
        <time>2026-09-10T12:21:32.000Z</time>
        <extensions>
          <ns3:TrackPointExtension>
            <ns3:hr>95</ns3:hr>
          </ns3:TrackPointExtension>
        </extensions>
      </trkpt>
      <trkpt lat="39.96000009588897228240966796875" lon="116.46148927509784698486328125">
        <ele>44.59999847412109375</ele>
        <time>2026-09-10T12:21:36.000Z</time>
        <extensions>
          <ns3:TrackPointExtension>
            <ns3:hr>94</ns3:hr>
          </ns3:TrackPointExtension>
        </extensions>
      </trkpt>
      <trkpt lat="39.96019254438579082489013671875" lon="116.46172606386244297027587890625">
        <ele>44.40000152587890625</ele>
        <time>2026-09-10T12:21:42.000Z</time>
        <extensions>
          <ns3:TrackPointExtension>
            <ns3:hr>96</ns3:hr>
          </ns3:TrackPointExtension>
        </extensions>
      </trkpt>
      <trkpt lat="39.9602271616458892822265625" lon="116.4617643691599369049072265625">
        <ele>44.40000152587890625</ele>
        <time>2026-09-10T12:21:43.000Z</time>
        <extensions>
          <ns3:TrackPointExtension>
            <ns3:hr>96</ns3:hr>
          </ns3:TrackPointExtension>
        </extensions>
      </trkpt>
      <trkpt lat="39.9603721685707569122314453125" lon="116.46193896420300006866455078125">
        <ele>44.59999847412109375</ele>
        <time>2026-09-10T12:21:48.000Z</time>
        <extensions>
          <ns3:TrackPointExtension>
            <ns3:hr>99</ns3:hr>
          </ns3:TrackPointExtension>
        </extensions>
      </trkpt>
      <trkpt lat="39.96044685132801532745361328125" lon="116.46203854121267795562744140625">
        <ele>44.59999847412109375</ele>
        <time>2026-09-10T12:21:50.000Z</time>
        <extensions>
          <ns3:TrackPointExtension>
            <ns3:hr>99</ns3:hr>
          </ns3:TrackPointExtension>
        </extensions>
      </trkpt>
      <trkpt lat="39.96062806807458400726318359375" lon="116.46223090589046478271484375">
        <ele>44.59999847412109375</ele>
        <time>2026-09-10T12:21:55.000Z</time>
        <extensions>
          <ns3:TrackPointExtension>
            <ns3:hr>98</ns3:hr>
          </ns3:TrackPointExtension>
        </extensions>
      </trkpt>
      <trkpt lat="39.96065572835505008697509765625" lon="116.46227491088211536407470703125">
        <ele>44.59999847412109375</ele>
        <time>2026-09-10T12:21:56.000Z</time>
        <extensions>
          <ns3:TrackPointExtension>
            <ns3:hr>98</ns3:hr>
          </ns3:TrackPointExtension>
        </extensions>
      </trkpt>
      <trkpt lat="39.9608118832111358642578125" lon="116.46245948038995265960693359375">
        <ele>44.799999237060546875</ele>
        <time>2026-09-10T12:22:01.000Z</time>
        <extensions>
          <ns3:TrackPointExtension>
            <ns3:hr>96</ns3:hr>
          </ns3:TrackPointExtension>
        </extensions>
      </trkpt>
      <trkpt lat="39.9608762562274932861328125" lon="116.46252653561532497406005859375">
        <ele>44.59999847412109375</ele>
        <time>2026-09-10T12:22:03.000Z</time>
        <extensions>
          <ns3:TrackPointExtension>
            <ns3:hr>95</ns3:hr>
          </ns3:TrackPointExtension>
        </extensions>
      </trkpt>
      <trkpt lat="39.960934929549694061279296875" lon="116.46260767243802547454833984375">
        <ele>44.59999847412109375</ele>
        <time>2026-09-10T12:22:05.000Z</time>
        <extensions>
          <ns3:TrackPointExtension>
            <ns3:hr>94</ns3:hr>
          </ns3:TrackPointExtension>
        </extensions>
      </trkpt>
      <trkpt lat="39.96099636889994144439697265625" lon="116.4626873843371868133544921875">
        <ele>44.59999847412109375</ele>
        <time>2026-09-10T12:22:07.000Z</time>
        <extensions>
          <ns3:TrackPointExtension>
            <ns3:hr>94</ns3:hr>
          </ns3:TrackPointExtension>
        </extensions>
      </trkpt>
      <trkpt lat="39.96112394146621227264404296875" lon="116.46282509900629520416259765625">
        <ele>44.59999847412109375</ele>
        <time>2026-09-10T12:22:11.000Z</time>
        <extensions>
          <ns3:TrackPointExtension>
            <ns3:hr>95</ns3:hr>
          </ns3:TrackPointExtension>
        </extensions>
      </trkpt>
      <trkpt lat="39.96119468472898006439208984375" lon="116.46288360469043254852294921875">
        <ele>44.799999237060546875</ele>
        <time>2026-09-10T12:22:13.000Z</time>
        <extensions>
          <ns3:TrackPointExtension>
            <ns3:hr>95</ns3:hr>
          </ns3:TrackPointExtension>
        </extensions>
      </trkpt>
      <trkpt lat="39.96142300777137279510498046875" lon="116.463121064007282257080078125">
        <ele>44.799999237060546875</ele>
        <time>2026-09-10T12:22:20.000Z</time>
        <extensions>
          <ns3:TrackPointExtension>
            <ns3:hr>95</ns3:hr>
          </ns3:TrackPointExtension>
        </extensions>
      </trkpt>
      <trkpt lat="39.96156223118305206298828125" lon="116.4632513187825679779052734375">
        <ele>44.799999237060546875</ele>
        <time>2026-09-10T12:22:24.000Z</time>
        <extensions>
          <ns3:TrackPointExtension>
            <ns3:hr>95</ns3:hr>
          </ns3:TrackPointExtension>
        </extensions>
      </trkpt>
      <trkpt lat="39.96163557283580303192138671875" lon="116.46331544034183025360107421875">
        <ele>44.799999237060546875</ele>
        <time>2026-09-10T12:22:26.000Z</time>
        <extensions>
          <ns3:TrackPointExtension>
            <ns3:hr>94</ns3:hr>
          </ns3:TrackPointExtension>
        </extensions>
      </trkpt>
      <trkpt lat="39.96174520812928676605224609375" lon="116.463403366506099700927734375">
        <ele>44.799999237060546875</ele>
        <time>2026-09-10T12:22:29.000Z</time>
        <extensions>
          <ns3:TrackPointExtension>
            <ns3:hr>92</ns3:hr>
          </ns3:TrackPointExtension>
        </extensions>
      </trkpt>
      <trkpt lat="39.96184998191893100738525390625" lon="116.4635047875344753265380859375">
        <ele>44.799999237060546875</ele>
        <time>2026-09-10T12:22:32.000Z</time>
        <extensions>
          <ns3:TrackPointExtension>
            <ns3:hr>93</ns3:hr>
          </ns3:TrackPointExtension>
        </extensions>
      </trkpt>
      <trkpt lat="39.962070174515247344970703125" lon="116.46369782276451587677001953125">
        <ele>44.59999847412109375</ele>
        <time>2026-09-10T12:22:38.000Z</time>
        <extensions>
          <ns3:TrackPointExtension>
            <ns3:hr>94</ns3:hr>
          </ns3:TrackPointExtension>
        </extensions>
      </trkpt>
      <trkpt lat="39.96235440485179424285888671875" lon="116.463888175785541534423828125">
        <ele>44.59999847412109375</ele>
        <time>2026-09-10T12:22:45.000Z</time>
        <extensions>
          <ns3:TrackPointExtension>
            <ns3:hr>93</ns3:hr>
          </ns3:TrackPointExtension>
        </extensions>
      </trkpt>
      <trkpt lat="39.962732680141925811767578125" lon="116.4641542173922061920166015625">
        <ele>44.59999847412109375</ele>
        <time>2026-09-10T12:22:54.000Z</time>
        <extensions>
          <ns3:TrackPointExtension>
            <ns3:hr>96</ns3:hr>
          </ns3:TrackPointExtension>
        </extensions>
      </trkpt>
      <trkpt lat="39.9627725780010223388671875" lon="116.4641820453107357025146484375">
        <ele>44.40000152587890625</ele>
        <time>2026-09-10T12:22:55.000Z</time>
        <extensions>
          <ns3:TrackPointExtension>
            <ns3:hr>97</ns3:hr>
          </ns3:TrackPointExtension>
        </extensions>
      </trkpt>
      <trkpt lat="39.9630128033459186553955078125" lon="116.46434775553643703460693359375">
        <ele>43.59999847412109375</ele>
        <time>2026-09-10T12:23:01.000Z</time>
        <extensions>
          <ns3:TrackPointExtension>
            <ns3:hr>96</ns3:hr>
          </ns3:TrackPointExtension>
        </extensions>
      </trkpt>
      <trkpt lat="39.96305328793823719024658203125" lon="116.46438111551105976104736328125">
        <ele>43.799999237060546875</ele>
        <time>2026-09-10T12:23:02.000Z</time>
        <extensions>
          <ns3:TrackPointExtension>
            <ns3:hr>96</ns3:hr>
          </ns3:TrackPointExtension>
        </extensions>
      </trkpt>
      <trkpt lat="39.96321489103138446807861328125" lon="116.46448924206197261810302734375">
        <ele>43.799999237060546875</ele>
        <time>2026-09-10T12:23:06.000Z</time>
        <extensions>
          <ns3:TrackPointExtension>
            <ns3:hr>96</ns3:hr>
          </ns3:TrackPointExtension>
        </extensions>
      </trkpt>
      <trkpt lat="39.96329351328313350677490234375" lon="116.46454690955579280853271484375">
        <ele>43.200000762939453125</ele>
        <time>2026-09-10T12:23:08.000Z</time>
        <extensions>
          <ns3:TrackPointExtension>
            <ns3:hr>96</ns3:hr>
          </ns3:TrackPointExtension>
        </extensions>
      </trkpt>
      <trkpt lat="39.9635477364063262939453125" lon="116.4647139608860015869140625">
        <ele>44.40000152587890625</ele>
        <time>2026-09-10T12:23:14.000Z</time>
        <extensions>
          <ns3:TrackPointExtension>
            <ns3:hr>96</ns3:hr>
          </ns3:TrackPointExtension>
        </extensions>
      </trkpt>
      <trkpt lat="39.963669441640377044677734375" lon="116.4648126997053623199462890625">
        <ele>44</ele>
        <time>2026-09-10T12:23:17.000Z</time>
        <extensions>
          <ns3:TrackPointExtension>
            <ns3:hr>95</ns3:hr>
          </ns3:TrackPointExtension>
        </extensions>
      </trkpt>
      <trkpt lat="39.9637812562286853790283203125" lon="116.4649339020252227783203125">
        <ele>43.799999237060546875</ele>
        <time>2026-09-10T12:23:20.000Z</time>
        <extensions>
          <ns3:TrackPointExtension>
            <ns3:hr>94</ns3:hr>
          </ns3:TrackPointExtension>
        </extensions>
      </trkpt>
      <trkpt lat="39.964034222066402435302734375" lon="116.46514470688998699188232421875">
        <ele>44.200000762939453125</ele>
        <time>2026-09-10T12:23:26.000Z</time>
        <extensions>
          <ns3:TrackPointExtension>
            <ns3:hr>94</ns3:hr>
          </ns3:TrackPointExtension>
        </extensions>
      </trkpt>
      <trkpt lat="39.9642316997051239013671875" lon="116.46534687839448451995849609375">
        <ele>44.40000152587890625</ele>
        <time>2026-09-10T12:23:31.000Z</time>
        <extensions>
          <ns3:TrackPointExtension>
            <ns3:hr>97</ns3:hr>
          </ns3:TrackPointExtension>
        </extensions>
      </trkpt>
      <trkpt lat="39.96430478990077972412109375" lon="116.46542432717978954315185546875">
        <ele>44.59999847412109375</ele>
        <time>2026-09-10T12:23:33.000Z</time>
        <extensions>
          <ns3:TrackPointExtension>
            <ns3:hr>97</ns3:hr>
          </ns3:TrackPointExtension>
        </extensions>
      </trkpt>
      <trkpt lat="39.964598156511783599853515625" lon="116.465755999088287353515625">
        <ele>44.799999237060546875</ele>
        <time>2026-09-10T12:23:41.000Z</time>
        <extensions>
          <ns3:TrackPointExtension>
            <ns3:hr>98</ns3:hr>
          </ns3:TrackPointExtension>
        </extensions>
      </trkpt>
      <trkpt lat="39.96469865553081035614013671875" lon="116.465893797576427459716796875">
        <ele>44.59999847412109375</ele>
        <time>2026-09-10T12:23:44.000Z</time>
        <extensions>
          <ns3:TrackPointExtension>
            <ns3:hr>99</ns3:hr>
          </ns3:TrackPointExtension>
        </extensions>
      </trkpt>
      <trkpt lat="39.96477291919291019439697265625" lon="116.46598071791231632232666015625">
        <ele>44.59999847412109375</ele>
        <time>2026-09-10T12:23:46.000Z</time>
        <extensions>
          <ns3:TrackPointExtension>
            <ns3:hr>98</ns3:hr>
          </ns3:TrackPointExtension>
        </extensions>
      </trkpt>
      <trkpt lat="39.965021274983882904052734375" lon="116.46630342118442058563232421875">
        <ele>45</ele>
        <time>2026-09-10T12:23:53.000Z</time>
        <extensions>
          <ns3:TrackPointExtension>
            <ns3:hr>98</ns3:hr>
          </ns3:TrackPointExtension>
        </extensions>
      </trkpt>
      <trkpt lat="39.96523610316216945648193359375" lon="116.46663970313966274261474609375">
        <ele>44.799999237060546875</ele>
        <time>2026-09-10T12:24:00.000Z</time>
        <extensions>
          <ns3:TrackPointExtension>
            <ns3:hr>97</ns3:hr>
          </ns3:TrackPointExtension>
        </extensions>
      </trkpt>
      <trkpt lat="39.9653828702867031097412109375" lon="116.46688914857804775238037109375">
        <ele>45.40000152587890625</ele>
        <time>2026-09-10T12:24:05.000Z</time>
        <extensions>
          <ns3:TrackPointExtension>
            <ns3:hr>97</ns3:hr>
          </ns3:TrackPointExtension>
        </extensions>
      </trkpt>
      <trkpt lat="39.96553190052509307861328125" lon="116.46714177913963794708251953125">
        <ele>45.799999237060546875</ele>
        <time>2026-09-10T12:24:10.000Z</time>
        <extensions>
          <ns3:TrackPointExtension>
            <ns3:hr>99</ns3:hr>
          </ns3:TrackPointExtension>
        </extensions>
      </trkpt>
      <trkpt lat="39.9655649252235889434814453125" lon="116.4671881310641765594482421875">
        <ele>45.799999237060546875</ele>
        <time>2026-09-10T12:24:11.000Z</time>
        <extensions>
          <ns3:TrackPointExtension>
            <ns3:hr>99</ns3:hr>
          </ns3:TrackPointExtension>
        </extensions>
      </trkpt>
      <trkpt lat="39.9656760692596435546875" lon="116.4673856087028980255126953125">
        <ele>45.799999237060546875</ele>
        <time>2026-09-10T12:24:15.000Z</time>
        <extensions>
          <ns3:TrackPointExtension>
            <ns3:hr>101</ns3:hr>
          </ns3:TrackPointExtension>
        </extensions>
      </trkpt>
      <trkpt lat="39.96584228239953517913818359375" lon="116.4676732756197452545166015625">
        <ele>46</ele>
        <time>2026-09-10T12:24:21.000Z</time>
        <extensions>
          <ns3:TrackPointExtension>
            <ns3:hr>100</ns3:hr>
          </ns3:TrackPointExtension>
        </extensions>
      </trkpt>
      <trkpt lat="39.9659048952162265777587890625" lon="116.46777126006782054901123046875">
        <ele>46.200000762939453125</ele>
        <time>2026-09-10T12:24:23.000Z</time>
        <extensions>
          <ns3:TrackPointExtension>
            <ns3:hr>95</ns3:hr>
          </ns3:TrackPointExtension>
        </extensions>
      </trkpt>
      <trkpt lat="39.96596583165228366851806640625" lon="116.46787167526781558990478515625">
        <ele>46.200000762939453125</ele>
        <time>2026-09-10T12:24:25.000Z</time>
        <extensions>
          <ns3:TrackPointExtension>
            <ns3:hr>92</ns3:hr>
          </ns3:TrackPointExtension>
        </extensions>
      </trkpt>
      <trkpt lat="39.9660287797451019287109375" lon="116.46796437911689281463623046875">
        <ele>46.200000762939453125</ele>
        <time>2026-09-10T12:24:27.000Z</time>
        <extensions>
          <ns3:TrackPointExtension>
            <ns3:hr>93</ns3:hr>
          </ns3:TrackPointExtension>
        </extensions>
      </trkpt>
      <trkpt lat="39.9661928974092006683349609375" lon="116.46821533329784870147705078125">
        <ele>46</ele>
        <time>2026-09-10T12:24:33.000Z</time>
        <extensions>
          <ns3:TrackPointExtension>
            <ns3:hr>93</ns3:hr>
          </ns3:TrackPointExtension>
        </extensions>
      </trkpt>
      <trkpt lat="39.966242015361785888671875" lon="116.4683374576270580291748046875">
        <ele>46</ele>
        <time>2026-09-10T12:24:37.000Z</time>
        <extensions>
          <ns3:TrackPointExtension>
            <ns3:hr>92</ns3:hr>
          </ns3:TrackPointExtension>
        </extensions>
      </trkpt>
      <trkpt lat="39.96624830178916454315185546875" lon="116.46834894083440303802490234375">
        <ele>46</ele>
        <time>2026-09-10T12:25:47.000Z</time>
        <extensions>
          <ns3:TrackPointExtension>
            <ns3:hr>76</ns3:hr>
          </ns3:TrackPointExtension>
        </extensions>
      </trkpt>
      <trkpt lat="39.966268837451934814453125" lon="116.4684127271175384521484375">
        <ele>46</ele>
        <time>2026-09-10T12:25:50.000Z</time>
        <extensions>
          <ns3:TrackPointExtension>
            <ns3:hr>76</ns3:hr>
          </ns3:TrackPointExtension>
        </extensions>
      </trkpt>
      <trkpt lat="39.966349303722381591796875" lon="116.46851255558431148529052734375">
        <ele>45.799999237060546875</ele>
        <time>2026-09-10T12:25:53.000Z</time>
        <extensions>
          <ns3:TrackPointExtension>
            <ns3:hr>79</ns3:hr>
          </ns3:TrackPointExtension>
        </extensions>
      </trkpt>
      <trkpt lat="39.96638484299182891845703125" lon="116.46854775957763195037841796875">
        <ele>45.799999237060546875</ele>
        <time>2026-09-10T12:25:54.000Z</time>
        <extensions>
          <ns3:TrackPointExtension>
            <ns3:hr>74</ns3:hr>
          </ns3:TrackPointExtension>
        </extensions>
      </trkpt>
      <trkpt lat="39.96641208417713642120361328125" lon="116.46857759915292263031005859375">
        <ele>45.799999237060546875</ele>
        <time>2026-09-10T12:25:55.000Z</time>
        <extensions>
          <ns3:TrackPointExtension>
            <ns3:hr>74</ns3:hr>
          </ns3:TrackPointExtension>
        </extensions>
      </trkpt>
      <trkpt lat="39.96653798036277294158935546875" lon="116.4687468297779560089111328125">
        <ele>46</ele>
        <time>2026-09-10T12:26:00.000Z</time>
        <extensions>
          <ns3:TrackPointExtension>
            <ns3:hr>71</ns3:hr>
          </ns3:TrackPointExtension>
        </extensions>
      </trkpt>
      <trkpt lat="39.966591037809848785400390625" lon="116.4688257873058319091796875">
        <ele>46</ele>
        <time>2026-09-10T12:26:02.000Z</time>
        <extensions>
          <ns3:TrackPointExtension>
            <ns3:hr>70</ns3:hr>
          </ns3:TrackPointExtension>
        </extensions>
      </trkpt>
      <trkpt lat="39.96674333699047565460205078125" lon="116.46900071762502193450927734375">
        <ele>45.799999237060546875</ele>
        <time>2026-09-10T12:26:07.000Z</time>
        <extensions>
          <ns3:TrackPointExtension>
            <ns3:hr>71</ns3:hr>
          </ns3:TrackPointExtension>
        </extensions>
      </trkpt>
      <trkpt lat="39.96686420403420925140380859375" lon="116.46915695630013942718505859375">
        <ele>46</ele>
        <time>2026-09-10T12:26:12.000Z</time>
        <extensions>
          <ns3:TrackPointExtension>
            <ns3:hr>72</ns3:hr>
          </ns3:TrackPointExtension>
        </extensions>
      </trkpt>
      <trkpt lat="39.967051036655902862548828125" lon="116.469350494444370269775390625">
        <ele>45.799999237060546875</ele>
        <time>2026-09-10T12:26:18.000Z</time>
        <extensions>
          <ns3:TrackPointExtension>
            <ns3:hr>74</ns3:hr>
          </ns3:TrackPointExtension>
        </extensions>
      </trkpt>
      <trkpt lat="39.96714566834270954132080078125" lon="116.46945300512015819549560546875">
        <ele>46</ele>
        <time>2026-09-10T12:26:21.000Z</time>
        <extensions>
          <ns3:TrackPointExtension>
            <ns3:hr>81</ns3:hr>
          </ns3:TrackPointExtension>
        </extensions>
      </trkpt>
      <trkpt lat="39.96717617847025394439697265625" lon="116.46949156187474727630615234375">
        <ele>46</ele>
        <time>2026-09-10T12:26:22.000Z</time>
        <extensions>
          <ns3:TrackPointExtension>
            <ns3:hr>90</ns3:hr>
          </ns3:TrackPointExtension>
        </extensions>
      </trkpt>
      <trkpt lat="39.96720115654170513153076171875" lon="116.469528861343860626220703125">
        <ele>46</ele>
        <time>2026-09-10T12:26:23.000Z</time>
        <extensions>
          <ns3:TrackPointExtension>
            <ns3:hr>93</ns3:hr>
          </ns3:TrackPointExtension>
        </extensions>
      </trkpt>
      <trkpt lat="39.9672335945069789886474609375" lon="116.46956398151814937591552734375">
        <ele>46</ele>
        <time>2026-09-10T12:26:24.000Z</time>
        <extensions>
          <ns3:TrackPointExtension>
            <ns3:hr>95</ns3:hr>
          </ns3:TrackPointExtension>
        </extensions>
      </trkpt>
      <trkpt lat="39.96742377988994121551513671875" lon="116.46976548247039318084716796875">
        <ele>46</ele>
        <time>2026-09-10T12:26:30.000Z</time>
        <extensions>
          <ns3:TrackPointExtension>
            <ns3:hr>97</ns3:hr>
          </ns3:TrackPointExtension>
        </extensions>
      </trkpt>
      <trkpt lat="39.96765042655169963836669921875" lon="116.47003085352480411529541015625">
        <ele>46</ele>
        <time>2026-09-10T12:26:37.000Z</time>
        <extensions>
          <ns3:TrackPointExtension>
            <ns3:hr>99</ns3:hr>
          </ns3:TrackPointExtension>
        </extensions>
      </trkpt>
      <trkpt lat="39.96768948622047901153564453125" lon="116.4700674824416637420654296875">
        <ele>46.200000762939453125</ele>
        <time>2026-09-10T12:26:38.000Z</time>
        <extensions>
          <ns3:TrackPointExtension>
            <ns3:hr>99</ns3:hr>
          </ns3:TrackPointExtension>
        </extensions>
      </trkpt>
      <trkpt lat="39.9677995406091213226318359375" lon="116.4701620303094387054443359375">
        <ele>46.59999847412109375</ele>
        <time>2026-09-10T12:26:41.000Z</time>
        <extensions>
          <ns3:TrackPointExtension>
            <ns3:hr>100</ns3:hr>
          </ns3:TrackPointExtension>
        </extensions>
      </trkpt>
      <trkpt lat="39.96783365495502948760986328125" lon="116.4701975695788860321044921875">
        <ele>46.59999847412109375</ele>
        <time>2026-09-10T12:26:42.000Z</time>
        <extensions>
          <ns3:TrackPointExtension>
            <ns3:hr>100</ns3:hr>
          </ns3:TrackPointExtension>
        </extensions>
      </trkpt>
      <trkpt lat="39.96798788197338581085205078125" lon="116.47040518932044506072998046875">
        <ele>46.59999847412109375</ele>
        <time>2026-09-10T12:26:47.000Z</time>
        <extensions>
          <ns3:TrackPointExtension>
            <ns3:hr>99</ns3:hr>
          </ns3:TrackPointExtension>
        </extensions>
      </trkpt>
      <trkpt lat="39.96805577538907527923583984375" lon="116.4704833924770355224609375">
        <ele>46.40000152587890625</ele>
        <time>2026-09-10T12:26:49.000Z</time>
        <extensions>
          <ns3:TrackPointExtension>
            <ns3:hr>100</ns3:hr>
          </ns3:TrackPointExtension>
        </extensions>
      </trkpt>
      <trkpt lat="39.96830664575099945068359375" lon="116.4707464165985584259033203125">
        <ele>46</ele>
        <time>2026-09-10T12:26:56.000Z</time>
        <extensions>
          <ns3:TrackPointExtension>
            <ns3:hr>100</ns3:hr>
          </ns3:TrackPointExtension>
        </extensions>
      </trkpt>
      <trkpt lat="39.96858827769756317138671875" lon="116.47105478681623935699462890625">
        <ele>45.799999237060546875</ele>
        <time>2026-09-10T12:27:04.000Z</time>
        <extensions>
          <ns3:TrackPointExtension>
            <ns3:hr>100</ns3:hr>
          </ns3:TrackPointExtension>
        </extensions>
      </trkpt>
      <trkpt lat="39.968874268233776092529296875" lon="116.47137614898383617401123046875">
        <ele>46.200000762939453125</ele>
        <time>2026-09-10T12:27:12.000Z</time>
        <extensions>
          <ns3:TrackPointExtension>
            <ns3:hr>99</ns3:hr>
          </ns3:TrackPointExtension>
        </extensions>
      </trkpt>
      <trkpt lat="39.96912882663309574127197265625" lon="116.47165006957948207855224609375">
        <ele>46</ele>
        <time>2026-09-10T12:27:19.000Z</time>
        <extensions>
          <ns3:TrackPointExtension>
            <ns3:hr>99</ns3:hr>
          </ns3:TrackPointExtension>
        </extensions>
      </trkpt>
      <trkpt lat="39.96924214996397495269775390625" lon="116.47176590748131275177001953125">
        <ele>46</ele>
        <time>2026-09-10T12:27:22.000Z</time>
        <extensions>
          <ns3:TrackPointExtension>
            <ns3:hr>95</ns3:hr>
          </ns3:TrackPointExtension>
        </extensions>
      </trkpt>
      <trkpt lat="39.96939553879201412200927734375" lon="116.4719396643340587615966796875">
        <ele>45.799999237060546875</ele>
        <time>2026-09-10T12:27:26.000Z</time>
        <extensions>
          <ns3:TrackPointExtension>
            <ns3:hr>95</ns3:hr>
          </ns3:TrackPointExtension>
        </extensions>
      </trkpt>
      <trkpt lat="39.96954792179167270660400390625" lon="116.4721146784722805023193359375">
        <ele>45.59999847412109375</ele>
        <time>2026-09-10T12:27:30.000Z</time>
        <extensions>
          <ns3:TrackPointExtension>
            <ns3:hr>96</ns3:hr>
          </ns3:TrackPointExtension>
        </extensions>
      </trkpt>
      <trkpt lat="39.9697367660701274871826171875" lon="116.47234492935240268707275390625">
        <ele>45.40000152587890625</ele>
        <time>2026-09-10T12:27:35.000Z</time>
        <extensions>
          <ns3:TrackPointExtension>
            <ns3:hr>98</ns3:hr>
          </ns3:TrackPointExtension>
        </extensions>
      </trkpt>
      <trkpt lat="39.96980994008481502532958984375" lon="116.47242992185056209564208984375">
        <ele>45.40000152587890625</ele>
        <time>2026-09-10T12:27:37.000Z</time>
        <extensions>
          <ns3:TrackPointExtension>
            <ns3:hr>101</ns3:hr>
          </ns3:TrackPointExtension>
        </extensions>
      </trkpt>
      <trkpt lat="39.97001093812286853790283203125" lon="116.4726299978792667388916015625">
        <ele>45.40000152587890625</ele>
        <time>2026-09-10T12:27:42.000Z</time>
        <extensions>
          <ns3:TrackPointExtension>
            <ns3:hr>99</ns3:hr>
          </ns3:TrackPointExtension>
        </extensions>
      </trkpt>
      <trkpt lat="39.97027396224439144134521484375" lon="116.47292428649961948394775390625">
        <ele>45.40000152587890625</ele>
        <time>2026-09-10T12:27:49.000Z</time>
        <extensions>
          <ns3:TrackPointExtension>
            <ns3:hr>99</ns3:hr>
          </ns3:TrackPointExtension>
        </extensions>
      </trkpt>
      <trkpt lat="39.970513768494129180908203125" lon="116.47316317074000835418701171875">
        <ele>45.200000762939453125</ele>
        <time>2026-09-10T12:27:56.000Z</time>
        <extensions>
          <ns3:TrackPointExtension>
            <ns3:hr>98</ns3:hr>
          </ns3:TrackPointExtension>
        </extensions>
      </trkpt>
      <trkpt lat="39.9707057140767574310302734375" lon="116.4733786694705486297607421875">
        <ele>45</ele>
        <time>2026-09-10T12:28:02.000Z</time>
        <extensions>
          <ns3:TrackPointExtension>
            <ns3:hr>96</ns3:hr>
          </ns3:TrackPointExtension>
        </extensions>
      </trkpt>
      <trkpt lat="39.9708364717662334442138671875" lon="116.47352434694766998291015625">
        <ele>45.200000762939453125</ele>
        <time>2026-09-10T12:28:06.000Z</time>
        <extensions>
          <ns3:TrackPointExtension>
            <ns3:hr>93</ns3:hr>
          </ns3:TrackPointExtension>
        </extensions>
      </trkpt>
      <trkpt lat="39.97087377123534679412841796875" lon="116.47355862893164157867431640625">
        <ele>45.40000152587890625</ele>
        <time>2026-09-10T12:28:07.000Z</time>
        <extensions>
          <ns3:TrackPointExtension>
            <ns3:hr>93</ns3:hr>
          </ns3:TrackPointExtension>
        </extensions>
      </trkpt>
      <trkpt lat="39.970914088189601898193359375" lon="116.4735979400575160980224609375">
        <ele>45.40000152587890625</ele>
        <time>2026-09-10T12:28:08.000Z</time>
        <extensions>
          <ns3:TrackPointExtension>
            <ns3:hr>93</ns3:hr>
          </ns3:TrackPointExtension>
        </extensions>
      </trkpt>
      <trkpt lat="39.97106261551380157470703125" lon="116.473748646676540374755859375">
        <ele>45.59999847412109375</ele>
        <time>2026-09-10T12:28:12.000Z</time>
        <extensions>
          <ns3:TrackPointExtension>
            <ns3:hr>93</ns3:hr>
          </ns3:TrackPointExtension>
        </extensions>
      </trkpt>
      <trkpt lat="39.97112690471112728118896484375" lon="116.47382886148989200592041015625">
        <ele>45.59999847412109375</ele>
        <time>2026-09-10T12:28:14.000Z</time>
        <extensions>
          <ns3:TrackPointExtension>
            <ns3:hr>93</ns3:hr>
          </ns3:TrackPointExtension>
        </extensions>
      </trkpt>
      <trkpt lat="39.97135153971612453460693359375" lon="116.47406305186450481414794921875">
        <ele>45.799999237060546875</ele>
        <time>2026-09-10T12:28:20.000Z</time>
        <extensions>
          <ns3:TrackPointExtension>
            <ns3:hr>94</ns3:hr>
          </ns3:TrackPointExtension>
        </extensions>
      </trkpt>
      <trkpt lat="39.97159109450876712799072265625" lon="116.4743546582758426666259765625">
        <ele>46</ele>
        <time>2026-09-10T12:28:27.000Z</time>
        <extensions>
          <ns3:TrackPointExtension>
            <ns3:hr>97</ns3:hr>
          </ns3:TrackPointExtension>
        </extensions>
      </trkpt>
      <trkpt lat="39.97162395156919956207275390625" lon="116.47439497523009777069091796875">
        <ele>46.200000762939453125</ele>
        <time>2026-09-10T12:28:28.000Z</time>
        <extensions>
          <ns3:TrackPointExtension>
            <ns3:hr>97</ns3:hr>
          </ns3:TrackPointExtension>
        </extensions>
      </trkpt>
      <trkpt lat="39.9717222712934017181396484375" lon="116.47452506236732006072998046875">
        <ele>46.200000762939453125</ele>
        <time>2026-09-10T12:28:31.000Z</time>
        <extensions>
          <ns3:TrackPointExtension>
            <ns3:hr>96</ns3:hr>
          </ns3:TrackPointExtension>
        </extensions>
      </trkpt>
      <trkpt lat="39.97179695405066013336181640625" lon="116.4745903573930263519287109375">
        <ele>46</ele>
        <time>2026-09-10T12:28:33.000Z</time>
        <extensions>
          <ns3:TrackPointExtension>
            <ns3:hr>96</ns3:hr>
          </ns3:TrackPointExtension>
        </extensions>
      </trkpt>
      <trkpt lat="39.9720582179725170135498046875" lon="116.4748634397983551025390625">
        <ele>46.200000762939453125</ele>
        <time>2026-09-10T12:28:40.000Z</time>
        <extensions>
          <ns3:TrackPointExtension>
            <ns3:hr>96</ns3:hr>
          </ns3:TrackPointExtension>
        </extensions>
      </trkpt>
      <trkpt lat="39.97228528372943401336669921875" lon="116.47513568401336669921875">
        <ele>46.200000762939453125</ele>
        <time>2026-09-10T12:28:47.000Z</time>
        <extensions>
          <ns3:TrackPointExtension>
            <ns3:hr>98</ns3:hr>
          </ns3:TrackPointExtension>
        </extensions>
      </trkpt>
      <trkpt lat="39.97238217853009700775146484375" lon="116.4752602390944957733154296875">
        <ele>46.200000762939453125</ele>
        <time>2026-09-10T12:28:50.000Z</time>
        <extensions>
          <ns3:TrackPointExtension>
            <ns3:hr>101</ns3:hr>
          </ns3:TrackPointExtension>
        </extensions>
      </trkpt>
      <trkpt lat="39.97251796536147594451904296875" lon="116.47541287355124950408935546875">
        <ele>46.40000152587890625</ele>
        <time>2026-09-10T12:28:54.000Z</time>
        <extensions>
          <ns3:TrackPointExtension>
            <ns3:hr>100</ns3:hr>
          </ns3:TrackPointExtension>
        </extensions>
      </trkpt>
      <trkpt lat="39.97276875190436840057373046875" lon="116.47566969506442546844482421875">
        <ele>46.40000152587890625</ele>
        <time>2026-09-10T12:29:01.000Z</time>
        <extensions>
          <ns3:TrackPointExtension>
            <ns3:hr>102</ns3:hr>
          </ns3:TrackPointExtension>
        </extensions>
      </trkpt>
      <trkpt lat="39.973001182079315185546875" lon="116.47591830231249332427978515625">
        <ele>46.200000762939453125</ele>
        <time>2026-09-10T12:29:08.000Z</time>
        <extensions>
          <ns3:TrackPointExtension>
            <ns3:hr>103</ns3:hr>
          </ns3:TrackPointExtension>
        </extensions>
      </trkpt>
      <trkpt lat="39.97327066026628017425537109375" lon="116.4762117527425289154052734375">
        <ele>46.200000762939453125</ele>
        <time>2026-09-10T12:29:16.000Z</time>
        <extensions>
          <ns3:TrackPointExtension>
            <ns3:hr>102</ns3:hr>
          </ns3:TrackPointExtension>
        </extensions>
      </trkpt>
      <trkpt lat="39.97350954450666904449462890625" lon="116.4764782972633838653564453125">
        <ele>46.40000152587890625</ele>
        <time>2026-09-10T12:29:23.000Z</time>
        <extensions>
          <ns3:TrackPointExtension>
            <ns3:hr>104</ns3:hr>
          </ns3:TrackPointExtension>
        </extensions>
      </trkpt>
      <trkpt lat="39.97370953671634197235107421875" lon="116.47671089507639408111572265625">
        <ele>46.40000152587890625</ele>
        <time>2026-09-10T12:29:29.000Z</time>
        <extensions>
          <ns3:TrackPointExtension>
            <ns3:hr>105</ns3:hr>
          </ns3:TrackPointExtension>
        </extensions>
      </trkpt>
      <trkpt lat="39.9738449044525623321533203125" lon="116.4768705703318119049072265625">
        <ele>46.200000762939453125</ele>
        <time>2026-09-10T12:29:33.000Z</time>
        <extensions>
          <ns3:TrackPointExtension>
            <ns3:hr>105</ns3:hr>
          </ns3:TrackPointExtension>
        </extensions>
      </trkpt>
      <trkpt lat="39.9738811142742633819580078125" lon="116.4769051037728786468505859375">
        <ele>46.200000762939453125</ele>
        <time>2026-09-10T12:29:34.000Z</time>
        <extensions>
          <ns3:TrackPointExtension>
            <ns3:hr>106</ns3:hr>
          </ns3:TrackPointExtension>
        </extensions>
      </trkpt>
      <trkpt lat="39.97405084781348705291748046875" lon="116.47708472795784473419189453125">
        <ele>46.40000152587890625</ele>
        <time>2026-09-10T12:29:39.000Z</time>
        <extensions>
          <ns3:TrackPointExtension>
            <ns3:hr>109</ns3:hr>
          </ns3:TrackPointExtension>
        </extensions>
      </trkpt>
      <trkpt lat="39.97411723248660564422607421875" lon="116.47715832106769084930419921875">
        <ele>46.59999847412109375</ele>
        <time>2026-09-10T12:29:41.000Z</time>
        <extensions>
          <ns3:TrackPointExtension>
            <ns3:hr>109</ns3:hr>
          </ns3:TrackPointExtension>
        </extensions>
      </trkpt>
      <trkpt lat="39.97439551167190074920654296875" lon="116.47745738737285137176513671875">
        <ele>46.59999847412109375</ele>
        <time>2026-09-10T12:29:49.000Z</time>
        <extensions>
          <ns3:TrackPointExtension>
            <ns3:hr>110</ns3:hr>
          </ns3:TrackPointExtension>
        </extensions>
      </trkpt>
      <trkpt lat="39.9745717830955982208251953125" lon="116.477643549442291259765625">
        <ele>46.40000152587890625</ele>
        <time>2026-09-10T12:29:55.000Z</time>
        <extensions>
          <ns3:TrackPointExtension>
            <ns3:hr>107</ns3:hr>
          </ns3:TrackPointExtension>
        </extensions>
      </trkpt>
      <trkpt lat="39.9746019579470157623291015625" lon="116.4776742272078990936279296875">
        <ele>46.40000152587890625</ele>
        <time>2026-09-10T12:29:56.000Z</time>
        <extensions>
          <ns3:TrackPointExtension>
            <ns3:hr>106</ns3:hr>
          </ns3:TrackPointExtension>
        </extensions>
      </trkpt>
      <trkpt lat="39.97468636371195316314697265625" lon="116.4777734689414501190185546875">
        <ele>46.799999237060546875</ele>
        <time>2026-09-10T12:29:59.000Z</time>
        <extensions>
          <ns3:TrackPointExtension>
            <ns3:hr>101</ns3:hr>
          </ns3:TrackPointExtension>
        </extensions>
      </trkpt>
      <trkpt lat="39.97476096265017986297607421875" lon="116.47785351611673831939697265625">
        <ele>46.799999237060546875</ele>
        <time>2026-09-10T12:30:02.000Z</time>
        <extensions>
          <ns3:TrackPointExtension>
            <ns3:hr>99</ns3:hr>
          </ns3:TrackPointExtension>
        </extensions>
      </trkpt>
      <trkpt lat="39.97481108643114566802978515625" lon="116.47789961658418178558349609375">
        <ele>46.59999847412109375</ele>
        <time>2026-09-10T12:30:06.000Z</time>
        <extensions>
          <ns3:TrackPointExtension>
            <ns3:hr>98</ns3:hr>
          </ns3:TrackPointExtension>
        </extensions>
      </trkpt>
      <trkpt lat="39.97482617385685443878173828125" lon="116.4778945036232471466064453125">
        <ele>46.59999847412109375</ele>
        <time>2026-09-10T12:30:07.000Z</time>
        <extensions>
          <ns3:TrackPointExtension>
            <ns3:hr>98</ns3:hr>
          </ns3:TrackPointExtension>
        </extensions>
      </trkpt>
      <trkpt lat="39.97489825822412967681884765625" lon="116.47777942009270191192626953125">
        <ele>46.40000152587890625</ele>
        <time>2026-09-10T12:30:11.000Z</time>
        <extensions>
          <ns3:TrackPointExtension>
            <ns3:hr>96</ns3:hr>
          </ns3:TrackPointExtension>
        </extensions>
      </trkpt>
      <trkpt lat="39.9749650619924068450927734375" lon="116.4776663482189178466796875">
        <ele>46.40000152587890625</ele>
        <time>2026-09-10T12:30:15.000Z</time>
        <extensions>
          <ns3:TrackPointExtension>
            <ns3:hr>100</ns3:hr>
          </ns3:TrackPointExtension>
        </extensions>
      </trkpt>
      <trkpt lat="39.9749855138361454010009765625" lon="116.477645225822925567626953125">
        <ele>46.59999847412109375</ele>
        <time>2026-09-10T12:30:16.000Z</time>
        <extensions>
          <ns3:TrackPointExtension>
            <ns3:hr>101</ns3:hr>
          </ns3:TrackPointExtension>
        </extensions>
      </trkpt>
      <trkpt lat="39.97501878999173641204833984375" lon="116.4775883965194225311279296875">
        <ele>46.40000152587890625</ele>
        <time>2026-09-10T12:30:18.000Z</time>
        <extensions>
          <ns3:TrackPointExtension>
            <ns3:hr>104</ns3:hr>
          </ns3:TrackPointExtension>
        </extensions>
      </trkpt>
      <trkpt lat="39.97509908862411975860595703125" lon="116.477477587759494781494140625">
        <ele>46.40000152587890625</ele>
        <time>2026-09-10T12:30:22.000Z</time>
        <extensions>
          <ns3:TrackPointExtension>
            <ns3:hr>106</ns3:hr>
          </ns3:TrackPointExtension>
        </extensions>
      </trkpt>
      <trkpt lat="39.97521325014531612396240234375" lon="116.47730223834514617919921875">
        <ele>46.200000762939453125</ele>
        <time>2026-09-10T12:30:27.000Z</time>
        <extensions>
          <ns3:TrackPointExtension>
            <ns3:hr>103</ns3:hr>
          </ns3:TrackPointExtension>
        </extensions>
      </trkpt>
      <trkpt lat="39.975294135510921478271484375" lon="116.4771827124059200286865234375">
        <ele>46.40000152587890625</ele>
        <time>2026-09-10T12:30:30.000Z</time>
        <extensions>
          <ns3:TrackPointExtension>
            <ns3:hr>100</ns3:hr>
          </ns3:TrackPointExtension>
        </extensions>
      </trkpt>
      <trkpt lat="39.97539882548153400421142578125" lon="116.4770526252686977386474609375">
        <ele>46.59999847412109375</ele>
        <time>2026-09-10T12:30:34.000Z</time>
        <extensions>
          <ns3:TrackPointExtension>
            <ns3:hr>100</ns3:hr>
          </ns3:TrackPointExtension>
        </extensions>
      </trkpt>
      <trkpt lat="39.97554483823478221893310546875" lon="116.4768134057521820068359375">
        <ele>46.799999237060546875</ele>
        <time>2026-09-10T12:30:40.000Z</time>
        <extensions>
          <ns3:TrackPointExtension>
            <ns3:hr>97</ns3:hr>
          </ns3:TrackPointExtension>
        </extensions>
      </trkpt>
      <trkpt lat="39.9755722470581531524658203125" lon="116.47677308879792690277099609375">
        <ele>46.59999847412109375</ele>
        <time>2026-09-10T12:30:41.000Z</time>
        <extensions>
          <ns3:TrackPointExtension>
            <ns3:hr>96</ns3:hr>
          </ns3:TrackPointExtension>
        </extensions>
      </trkpt>
      <trkpt lat="39.9757720716297626495361328125" lon="116.47649883292615413665771484375">
        <ele>46.799999237060546875</ele>
        <time>2026-09-10T12:30:48.000Z</time>
        <extensions>
          <ns3:TrackPointExtension>
            <ns3:hr>98</ns3:hr>
          </ns3:TrackPointExtension>
        </extensions>
      </trkpt>
      <trkpt lat="39.97595001943409442901611328125" lon="116.476225666701793670654296875">
        <ele>47</ele>
        <time>2026-09-10T12:30:55.000Z</time>
        <extensions>
          <ns3:TrackPointExtension>
            <ns3:hr>98</ns3:hr>
          </ns3:TrackPointExtension>
        </extensions>
      </trkpt>
      <trkpt lat="39.9761237762868404388427734375" lon="116.4759569428861141204833984375">
        <ele>47.200000762939453125</ele>
        <time>2026-09-10T12:31:02.000Z</time>
        <extensions>
          <ns3:TrackPointExtension>
            <ns3:hr>98</ns3:hr>
          </ns3:TrackPointExtension>
        </extensions>
      </trkpt>
      <trkpt lat="39.97633047401905059814453125" lon="116.47563792765140533447265625">
        <ele>47</ele>
        <time>2026-09-10T12:31:10.000Z</time>
        <extensions>
          <ns3:TrackPointExtension>
            <ns3:hr>100</ns3:hr>
          </ns3:TrackPointExtension>
        </extensions>
      </trkpt>
      <trkpt lat="39.97651127167046070098876953125" lon="116.4753542840480804443359375">
        <ele>47.200000762939453125</ele>
        <time>2026-09-10T12:31:18.000Z</time>
        <extensions>
          <ns3:TrackPointExtension>
            <ns3:hr>101</ns3:hr>
          </ns3:TrackPointExtension>
        </extensions>
      </trkpt>
      <trkpt lat="39.97665057890117168426513671875" lon="116.47515152581036090850830078125">
        <ele>47</ele>
        <time>2026-09-10T12:31:23.000Z</time>
        <extensions>
          <ns3:TrackPointExtension>
            <ns3:hr>100</ns3:hr>
          </ns3:TrackPointExtension>
        </extensions>
      </trkpt>
      <trkpt lat="39.97685794718563556671142578125" lon="116.4748411439359188079833984375">
        <ele>47.200000762939453125</ele>
        <time>2026-09-10T12:31:31.000Z</time>
        <extensions>
          <ns3:TrackPointExtension>
            <ns3:hr>102</ns3:hr>
          </ns3:TrackPointExtension>
        </extensions>
      </trkpt>
      <trkpt lat="39.976880662143230438232421875" lon="116.4748049341142177581787109375">
        <ele>47.200000762939453125</ele>
        <time>2026-09-10T12:31:32.000Z</time>
        <extensions>
          <ns3:TrackPointExtension>
            <ns3:hr>105</ns3:hr>
          </ns3:TrackPointExtension>
        </extensions>
      </trkpt>
      <trkpt lat="39.97707671485841274261474609375" lon="116.47452740930020809173583984375">
        <ele>47.200000762939453125</ele>
        <time>2026-09-10T12:31:39.000Z</time>
        <extensions>
          <ns3:TrackPointExtension>
            <ns3:hr>105</ns3:hr>
          </ns3:TrackPointExtension>
        </extensions>
      </trkpt>
      <trkpt lat="39.97729011811316013336181640625" lon="116.47421644069254398345947265625">
        <ele>47</ele>
        <time>2026-09-10T12:31:47.000Z</time>
        <extensions>
          <ns3:TrackPointExtension>
            <ns3:hr>104</ns3:hr>
          </ns3:TrackPointExtension>
        </extensions>
      </trkpt>
      <trkpt lat="39.97734929434955120086669921875" lon="116.47409792058169841766357421875">
        <ele>47.200000762939453125</ele>
        <time>2026-09-10T12:31:51.000Z</time>
        <extensions>
          <ns3:TrackPointExtension>
            <ns3:hr>101</ns3:hr>
          </ns3:TrackPointExtension>
        </extensions>
      </trkpt>
      <trkpt lat="39.97734862379729747772216796875" lon="116.4740747027099132537841796875">
        <ele>47.200000762939453125</ele>
        <time>2026-09-10T12:31:52.000Z</time>
        <extensions>
          <ns3:TrackPointExtension>
            <ns3:hr>99</ns3:hr>
          </ns3:TrackPointExtension>
        </extensions>
      </trkpt>
      <trkpt lat="39.97733554802834987640380859375" lon="116.47405064664781093597412109375">
        <ele>47.200000762939453125</ele>
        <time>2026-09-10T12:31:53.000Z</time>
        <extensions>
          <ns3:TrackPointExtension>
            <ns3:hr>97</ns3:hr>
          </ns3:TrackPointExtension>
        </extensions>
      </trkpt>
    </trkseg>
  </trk>
</gpx>
