<?xml version="1.0" encoding="UTF-8"?>
<gpx creator="Garmin Connect" version="1.1"
  xsi:schemaLocation="http://www.topografix.com/GPX/1/1 http://www.topografix.com/GPX/11.xsd"
  xmlns:ns3="http://www.garmin.com/xmlschemas/TrackPointExtension/v1"
  xmlns="http://www.topografix.com/GPX/1/1"
  xmlns:xsi="http://www.w3.org/2001/XMLSchema-instance" xmlns:ns2="http://www.garmin.com/xmlschemas/GpxExtensions/v3">
  <metadata>
    <link href="connect.garmin.com">
      <text>Garmin Connect</text>
    </link>
    <time>2026-09-10T09:35:42.000Z</time>
  </metadata>
  <trk>
    <name>朝阳区 骑行</name>
    <type>cycling</type>
    <trkseg>
      <trkpt lat="39.97734761796891689300537109375" lon="116.47397872991859912872314453125">
        <ele>38.59999847412109375</ele>
        <time>2026-09-10T09:35:42.000Z</time>
        <extensions>
          <ns3:TrackPointExtension>
            <ns3:hr>67</ns3:hr>
          </ns3:TrackPointExtension>
        </extensions>
      </trkpt>
      <trkpt lat="39.9773653037846088409423828125" lon="116.47400286979973316192626953125">
        <ele>38.59999847412109375</ele>
        <time>2026-09-10T09:35:43.000Z</time>
        <extensions>
          <ns3:TrackPointExtension>
            <ns3:hr>66</ns3:hr>
          </ns3:TrackPointExtension>
        </extensions>
      </trkpt>
      <trkpt lat="39.97737578116357326507568359375" lon="116.47405676543712615966796875">
        <ele>38.40000152587890625</ele>
        <time>2026-09-10T09:35:45.000Z</time>
        <extensions>
          <ns3:TrackPointExtension>
            <ns3:hr>65</ns3:hr>
          </ns3:TrackPointExtension>
        </extensions>
      </trkpt>
      <trkpt lat="39.9773642979562282562255859375" lon="116.47408090531826019287109375">
        <ele>38.40000152587890625</ele>
        <time>2026-09-10T09:35:46.000Z</time>
        <extensions>
          <ns3:TrackPointExtension>
            <ns3:hr>65</ns3:hr>
          </ns3:TrackPointExtension>
        </extensions>
      </trkpt>
      <trkpt lat="39.9772496335208415985107421875" lon="116.47423454560339450836181640625">
        <ele>38.200000762939453125</ele>
        <time>2026-09-10T09:35:52.000Z</time>
        <extensions>
          <ns3:TrackPointExtension>
            <ns3:hr>65</ns3:hr>
          </ns3:TrackPointExtension>
        </extensions>
      </trkpt>
      <trkpt lat="39.9771024473011493682861328125" lon="116.47444543428719043731689453125">
        <ele>38.200000762939453125</ele>
        <time>2026-09-10T09:35:58.000Z</time>
        <extensions>
          <ns3:TrackPointExtension>
            <ns3:hr>61</ns3:hr>
          </ns3:TrackPointExtension>
        </extensions>
      </trkpt>
      <trkpt lat="39.97705190442502498626708984375" lon="116.47451416589319705963134765625">
        <ele>38.200000762939453125</ele>
        <time>2026-09-10T09:36:00.000Z</time>
        <extensions>
          <ns3:TrackPointExtension>
            <ns3:hr>60</ns3:hr>
          </ns3:TrackPointExtension>
        </extensions>
      </trkpt>
      <trkpt lat="39.97691259719431400299072265625" lon="116.474730670452117919921875">
        <ele>38.200000762939453125</ele>
        <time>2026-09-10T09:36:06.000Z</time>
        <extensions>
          <ns3:TrackPointExtension>
            <ns3:hr>62</ns3:hr>
          </ns3:TrackPointExtension>
        </extensions>
      </trkpt>
      <trkpt lat="39.97683732770383358001708984375" lon="116.47483619861304759979248046875">
        <ele>38.40000152587890625</ele>
        <time>2026-09-10T09:36:09.000Z</time>
        <extensions>
          <ns3:TrackPointExtension>
            <ns3:hr>66</ns3:hr>
          </ns3:TrackPointExtension>
        </extensions>
      </trkpt>
      <trkpt lat="39.97677898965775966644287109375" lon="116.4749480970203876495361328125">
        <ele>38.40000152587890625</ele>
        <time>2026-09-10T09:36:12.000Z</time>
        <extensions>
          <ns3:TrackPointExtension>
            <ns3:hr>69</ns3:hr>
          </ns3:TrackPointExtension>
        </extensions>
      </trkpt>
      <trkpt lat="39.97675619088113307952880859375" lon="116.4749856479465961456298828125">
        <ele>38.40000152587890625</ele>
        <time>2026-09-10T09:36:13.000Z</time>
        <extensions>
          <ns3:TrackPointExtension>
            <ns3:hr>73</ns3:hr>
          </ns3:TrackPointExtension>
        </extensions>
      </trkpt>
      <trkpt lat="39.97670556418597698211669921875" lon="116.4750637672841548919677734375">
        <ele>38.40000152587890625</ele>
        <time>2026-09-10T09:36:15.000Z</time>
        <extensions>
          <ns3:TrackPointExtension>
            <ns3:hr>76</ns3:hr>
          </ns3:TrackPointExtension>
        </extensions>
      </trkpt>
      <trkpt lat="39.97663968242704868316650390625" lon="116.47517901845276355743408203125">
        <ele>38.40000152587890625</ele>
        <time>2026-09-10T09:36:18.000Z</time>
        <extensions>
          <ns3:TrackPointExtension>
            <ns3:hr>76</ns3:hr>
          </ns3:TrackPointExtension>
        </extensions>
      </trkpt>
      <trkpt lat="39.97648428194224834442138671875" lon="116.4753950200974941253662109375">
        <ele>38.40000152587890625</ele>
        <time>2026-09-10T09:36:24.000Z</time>
        <extensions>
          <ns3:TrackPointExtension>
            <ns3:hr>79</ns3:hr>
          </ns3:TrackPointExtension>
        </extensions>
      </trkpt>
      <trkpt lat="39.97645645402371883392333984375" lon="116.4754258655011653900146484375">
        <ele>38.40000152587890625</ele>
        <time>2026-09-10T09:36:25.000Z</time>
        <extensions>
          <ns3:TrackPointExtension>
            <ns3:hr>79</ns3:hr>
          </ns3:TrackPointExtension>
        </extensions>
      </trkpt>
      <trkpt lat="39.9763004668056964874267578125" lon="116.475599706172943115234375">
        <ele>38.40000152587890625</ele>
        <time>2026-09-10T09:36:30.000Z</time>
        <extensions>
          <ns3:TrackPointExtension>
            <ns3:hr>81</ns3:hr>
          </ns3:TrackPointExtension>
        </extensions>
      </trkpt>
      <trkpt lat="39.9762709625065326690673828125" lon="116.47563599981367588043212890625">
        <ele>38.40000152587890625</ele>
        <time>2026-09-10T09:36:31.000Z</time>
        <extensions>
          <ns3:TrackPointExtension>
            <ns3:hr>82</ns3:hr>
          </ns3:TrackPointExtension>
        </extensions>
      </trkpt>
      <trkpt lat="39.97621622867882251739501953125" lon="116.47573172114789485931396484375">
        <ele>38.40000152587890625</ele>
        <time>2026-09-10T09:36:33.000Z</time>
        <extensions>
          <ns3:TrackPointExtension>
            <ns3:hr>87</ns3:hr>
          </ns3:TrackPointExtension>
        </extensions>
      </trkpt>
      <trkpt lat="39.97619410045444965362548828125" lon="116.475785784423351287841796875">
        <ele>38.200000762939453125</ele>
        <time>2026-09-10T09:36:34.000Z</time>
        <extensions>
          <ns3:TrackPointExtension>
            <ns3:hr>90</ns3:hr>
          </ns3:TrackPointExtension>
        </extensions>
      </trkpt>
      <trkpt lat="39.97609418816864490509033203125" lon="116.47597496397793292999267578125">
        <ele>38</ele>
        <time>2026-09-10T09:36:38.000Z</time>
        <extensions>
          <ns3:TrackPointExtension>
            <ns3:hr>92</ns3:hr>
          </ns3:TrackPointExtension>
        </extensions>
      </trkpt>
      <trkpt lat="39.975924789905548095703125" lon="116.476243436336517333984375">
        <ele>38.40000152587890625</ele>
        <time>2026-09-10T09:36:45.000Z</time>
        <extensions>
          <ns3:TrackPointExtension>
            <ns3:hr>93</ns3:hr>
          </ns3:TrackPointExtension>
        </extensions>
      </trkpt>
      <trkpt lat="39.97572136111557483673095703125" lon="116.47653420455753803253173828125">
        <ele>38</ele>
        <time>2026-09-10T09:36:52.000Z</time>
        <extensions>
          <ns3:TrackPointExtension>
            <ns3:hr>94</ns3:hr>
          </ns3:TrackPointExtension>
        </extensions>
      </trkpt>
      <trkpt lat="39.97552312910556793212890625" lon="116.47687635384500026702880859375">
        <ele>38</ele>
        <time>2026-09-10T09:36:59.000Z</time>
        <extensions>
          <ns3:TrackPointExtension>
            <ns3:hr>94</ns3:hr>
          </ns3:TrackPointExtension>
        </extensions>
      </trkpt>
      <trkpt lat="39.97540603391826152801513671875" lon="116.47704298608005046844482421875">
        <ele>38</ele>
        <time>2026-09-10T09:37:03.000Z</time>
        <extensions>
          <ns3:TrackPointExtension>
            <ns3:hr>94</ns3:hr>
          </ns3:TrackPointExtension>
        </extensions>
      </trkpt>
      <trkpt lat="39.97537292540073394775390625" lon="116.4770905114710330963134765625">
        <ele>37.799999237060546875</ele>
        <time>2026-09-10T09:37:04.000Z</time>
        <extensions>
          <ns3:TrackPointExtension>
            <ns3:hr>94</ns3:hr>
          </ns3:TrackPointExtension>
        </extensions>
      </trkpt>
      <trkpt lat="39.9753439240157604217529296875" lon="116.47713853977620601654052734375">
        <ele>37.799999237060546875</ele>
        <time>2026-09-10T09:37:05.000Z</time>
        <extensions>
          <ns3:TrackPointExtension>
            <ns3:hr>94</ns3:hr>
          </ns3:TrackPointExtension>
        </extensions>
      </trkpt>
      <trkpt lat="39.97518290765583515167236328125" lon="116.477366946637630462646484375">
        <ele>37.799999237060546875</ele>
        <time>2026-09-10T09:37:10.000Z</time>
        <extensions>
          <ns3:TrackPointExtension>
            <ns3:hr>94</ns3:hr>
          </ns3:TrackPointExtension>
        </extensions>
      </trkpt>
      <trkpt lat="39.97498258017003536224365234375" lon="116.47762368433177471160888671875">
        <ele>37.799999237060546875</ele>
        <time>2026-09-10T09:37:16.000Z</time>
        <extensions>
          <ns3:TrackPointExtension>
            <ns3:hr>94</ns3:hr>
          </ns3:TrackPointExtension>
        </extensions>
      </trkpt>
      <trkpt lat="39.9749489687383174896240234375" lon="116.4776323176920413970947265625">
        <ele>37.59999847412109375</ele>
        <time>2026-09-10T09:37:17.000Z</time>
        <extensions>
          <ns3:TrackPointExtension>
            <ns3:hr>95</ns3:hr>
          </ns3:TrackPointExtension>
        </extensions>
      </trkpt>
      <trkpt lat="39.97491552494466304779052734375" lon="116.4776242710649967193603515625">
        <ele>37.40000152587890625</ele>
        <time>2026-09-10T09:37:18.000Z</time>
        <extensions>
          <ns3:TrackPointExtension>
            <ns3:hr>96</ns3:hr>
          </ns3:TrackPointExtension>
        </extensions>
      </trkpt>
      <trkpt lat="39.97488685883581638336181640625" lon="116.47761597298085689544677734375">
        <ele>37.40000152587890625</ele>
        <time>2026-09-10T09:37:19.000Z</time>
        <extensions>
          <ns3:TrackPointExtension>
            <ns3:hr>97</ns3:hr>
          </ns3:TrackPointExtension>
        </extensions>
      </trkpt>
      <trkpt lat="39.97486221604049205780029296875" lon="116.4775897376239299774169921875">
        <ele>37.59999847412109375</ele>
        <time>2026-09-10T09:37:20.000Z</time>
        <extensions>
          <ns3:TrackPointExtension>
            <ns3:hr>97</ns3:hr>
          </ns3:TrackPointExtension>
        </extensions>
      </trkpt>
      <trkpt lat="39.97477152384817600250244140625" lon="116.477506421506404876708984375">
        <ele>37.59999847412109375</ele>
        <time>2026-09-10T09:37:23.000Z</time>
        <extensions>
          <ns3:TrackPointExtension>
            <ns3:hr>98</ns3:hr>
          </ns3:TrackPointExtension>
        </extensions>
      </trkpt>
      <trkpt lat="39.974740929901599884033203125" lon="116.47747230716049671173095703125">
        <ele>37.59999847412109375</ele>
        <time>2026-09-10T09:37:24.000Z</time>
        <extensions>
          <ns3:TrackPointExtension>
            <ns3:hr>100</ns3:hr>
          </ns3:TrackPointExtension>
        </extensions>
      </trkpt>
      <trkpt lat="39.9745493195950984954833984375" lon="116.4772648550570011138916015625">
        <ele>37.40000152587890625</ele>
        <time>2026-09-10T09:37:30.000Z</time>
        <extensions>
          <ns3:TrackPointExtension>
            <ns3:hr>101</ns3:hr>
          </ns3:TrackPointExtension>
        </extensions>
      </trkpt>
      <trkpt lat="39.97434966266155242919921875" lon="116.4770469255745410919189453125">
        <ele>37.40000152587890625</ele>
        <time>2026-09-10T09:37:36.000Z</time>
        <extensions>
          <ns3:TrackPointExtension>
            <ns3:hr>102</ns3:hr>
          </ns3:TrackPointExtension>
        </extensions>
      </trkpt>
      <trkpt lat="39.9741020612418651580810546875" lon="116.47675280459225177764892578125">
        <ele>37.40000152587890625</ele>
        <time>2026-09-10T09:37:44.000Z</time>
        <extensions>
          <ns3:TrackPointExtension>
            <ns3:hr>99</ns3:hr>
          </ns3:TrackPointExtension>
        </extensions>
      </trkpt>
      <trkpt lat="39.97399904765188694000244140625" lon="116.476645767688751220703125">
        <ele>37.40000152587890625</ele>
        <time>2026-09-10T09:37:47.000Z</time>
        <extensions>
          <ns3:TrackPointExtension>
            <ns3:hr>98</ns3:hr>
          </ns3:TrackPointExtension>
        </extensions>
      </trkpt>
      <trkpt lat="39.973885975778102874755859375" lon="116.47654057480394840240478515625">
        <ele>37.40000152587890625</ele>
        <time>2026-09-10T09:37:50.000Z</time>
        <extensions>
          <ns3:TrackPointExtension>
            <ns3:hr>98</ns3:hr>
          </ns3:TrackPointExtension>
        </extensions>
      </trkpt>
      <trkpt lat="39.97381456196308135986328125" lon="116.47646932862699031829833984375">
        <ele>37.200000762939453125</ele>
        <time>2026-09-10T09:37:52.000Z</time>
        <extensions>
          <ns3:TrackPointExtension>
            <ns3:hr>97</ns3:hr>
          </ns3:TrackPointExtension>
        </extensions>
      </trkpt>
      <trkpt lat="39.9736450798809528350830078125" lon="116.47629314102232456207275390625">
        <ele>36.799999237060546875</ele>
        <time>2026-09-10T09:37:57.000Z</time>
        <extensions>
          <ns3:TrackPointExtension>
            <ns3:hr>96</ns3:hr>
          </ns3:TrackPointExtension>
        </extensions>
      </trkpt>
      <trkpt lat="39.97360543347895145416259765625" lon="116.47620521485805511474609375">
        <ele>36.799999237060546875</ele>
        <time>2026-09-10T09:37:59.000Z</time>
        <extensions>
          <ns3:TrackPointExtension>
            <ns3:hr>97</ns3:hr>
          </ns3:TrackPointExtension>
        </extensions>
      </trkpt>
      <trkpt lat="39.97356872074306011199951171875" lon="116.476101614534854888916015625">
        <ele>36.799999237060546875</ele>
        <time>2026-09-10T09:38:02.000Z</time>
        <extensions>
          <ns3:TrackPointExtension>
            <ns3:hr>94</ns3:hr>
          </ns3:TrackPointExtension>
        </extensions>
      </trkpt>
      <trkpt lat="39.97354826889932155609130859375" lon="116.476071439683437347412109375">
        <ele>36.799999237060546875</ele>
        <time>2026-09-10T09:38:03.000Z</time>
        <extensions>
          <ns3:TrackPointExtension>
            <ns3:hr>93</ns3:hr>
          </ns3:TrackPointExtension>
        </extensions>
      </trkpt>
      <trkpt lat="39.97351775877177715301513671875" lon="116.47604763507843017578125">
        <ele>37</ele>
        <time>2026-09-10T09:38:04.000Z</time>
        <extensions>
          <ns3:TrackPointExtension>
            <ns3:hr>93</ns3:hr>
          </ns3:TrackPointExtension>
        </extensions>
      </trkpt>
      <trkpt lat="39.9734217859804630279541015625" lon="116.475997008383274078369140625">
        <ele>36.59999847412109375</ele>
        <time>2026-09-10T09:38:07.000Z</time>
        <extensions>
          <ns3:TrackPointExtension>
            <ns3:hr>89</ns3:hr>
          </ns3:TrackPointExtension>
        </extensions>
      </trkpt>
      <trkpt lat="39.9733538925647735595703125" lon="116.475937664508819580078125">
        <ele>36.59999847412109375</ele>
        <time>2026-09-10T09:38:09.000Z</time>
        <extensions>
          <ns3:TrackPointExtension>
            <ns3:hr>88</ns3:hr>
          </ns3:TrackPointExtension>
        </extensions>
      </trkpt>
      <trkpt lat="39.973285496234893798828125" lon="116.4758711121976375579833984375">
        <ele>36.799999237060546875</ele>
        <time>2026-09-10T09:38:11.000Z</time>
        <extensions>
          <ns3:TrackPointExtension>
            <ns3:hr>89</ns3:hr>
          </ns3:TrackPointExtension>
        </extensions>
      </trkpt>
      <trkpt lat="39.97325238771736621856689453125" lon="116.4758343994617462158203125">
        <ele>36.799999237060546875</ele>
        <time>2026-09-10T09:38:12.000Z</time>
        <extensions>
          <ns3:TrackPointExtension>
            <ns3:hr>92</ns3:hr>
          </ns3:TrackPointExtension>
        </extensions>
      </trkpt>
      <trkpt lat="39.973186589777469635009765625" lon="116.475755274295806884765625">
        <ele>36.799999237060546875</ele>
        <time>2026-09-10T09:38:14.000Z</time>
        <extensions>
          <ns3:TrackPointExtension>
            <ns3:hr>95</ns3:hr>
          </ns3:TrackPointExtension>
        </extensions>
      </trkpt>
      <trkpt lat="39.97315029613673686981201171875" lon="116.47571839392185211181640625">
        <ele>36.59999847412109375</ele>
        <time>2026-09-10T09:38:15.000Z</time>
        <extensions>
          <ns3:TrackPointExtension>
            <ns3:hr>97</ns3:hr>
          </ns3:TrackPointExtension>
        </extensions>
      </trkpt>
      <trkpt lat="39.9730848334729671478271484375" lon="116.475642286241054534912109375">
        <ele>36.59999847412109375</ele>
        <time>2026-09-10T09:38:17.000Z</time>
        <extensions>
          <ns3:TrackPointExtension>
            <ns3:hr>100</ns3:hr>
          </ns3:TrackPointExtension>
        </extensions>
      </trkpt>
      <trkpt lat="39.9728769622743129730224609375" lon="116.4754158072173595428466796875">
        <ele>36.59999847412109375</ele>
        <time>2026-09-10T09:38:23.000Z</time>
        <extensions>
          <ns3:TrackPointExtension>
            <ns3:hr>101</ns3:hr>
          </ns3:TrackPointExtension>
        </extensions>
      </trkpt>
      <trkpt lat="39.9728427641093730926513671875" lon="116.47537549026310443878173828125">
        <ele>36.40000152587890625</ele>
        <time>2026-09-10T09:38:24.000Z</time>
        <extensions>
          <ns3:TrackPointExtension>
            <ns3:hr>101</ns3:hr>
          </ns3:TrackPointExtension>
        </extensions>
      </trkpt>
      <trkpt lat="39.97277176938951015472412109375" lon="116.47529728710651397705078125">
        <ele>36.40000152587890625</ele>
        <time>2026-09-10T09:38:26.000Z</time>
        <extensions>
          <ns3:TrackPointExtension>
            <ns3:hr>101</ns3:hr>
          </ns3:TrackPointExtension>
        </extensions>
      </trkpt>
      <trkpt lat="39.97269733808934688568115234375" lon="116.47521656937897205352783203125">
        <ele>36.799999237060546875</ele>
        <time>2026-09-10T09:38:28.000Z</time>
        <extensions>
          <ns3:TrackPointExtension>
            <ns3:hr>101</ns3:hr>
          </ns3:TrackPointExtension>
        </extensions>
      </trkpt>
      <trkpt lat="39.97245660983026027679443359375" lon="116.47498539648950099945068359375">
        <ele>36.59999847412109375</ele>
        <time>2026-09-10T09:38:34.000Z</time>
        <extensions>
          <ns3:TrackPointExtension>
            <ns3:hr>102</ns3:hr>
          </ns3:TrackPointExtension>
        </extensions>
      </trkpt>
      <trkpt lat="39.9721990339457988739013671875" lon="116.47470317780971527099609375">
        <ele>36.40000152587890625</ele>
        <time>2026-09-10T09:38:41.000Z</time>
        <extensions>
          <ns3:TrackPointExtension>
            <ns3:hr>100</ns3:hr>
          </ns3:TrackPointExtension>
        </extensions>
      </trkpt>
      <trkpt lat="39.9720163084566593170166015625" lon="116.47449924610555171966552734375">
        <ele>36.200000762939453125</ele>
        <time>2026-09-10T09:38:46.000Z</time>
        <extensions>
          <ns3:TrackPointExtension>
            <ns3:hr>99</ns3:hr>
          </ns3:TrackPointExtension>
        </extensions>
      </trkpt>
      <trkpt lat="39.971946068108081817626953125" lon="116.47441023029386997222900390625">
        <ele>36.200000762939453125</ele>
        <time>2026-09-10T09:38:48.000Z</time>
        <extensions>
          <ns3:TrackPointExtension>
            <ns3:hr>98</ns3:hr>
          </ns3:TrackPointExtension>
        </extensions>
      </trkpt>
      <trkpt lat="39.9718701280653476715087890625" lon="116.47433278150856494903564453125">
        <ele>36</ele>
        <time>2026-09-10T09:38:50.000Z</time>
        <extensions>
          <ns3:TrackPointExtension>
            <ns3:hr>98</ns3:hr>
          </ns3:TrackPointExtension>
        </extensions>
      </trkpt>
      <trkpt lat="39.97172134928405284881591796875" lon="116.47414988838136196136474609375">
        <ele>36.200000762939453125</ele>
        <time>2026-09-10T09:38:54.000Z</time>
        <extensions>
          <ns3:TrackPointExtension>
            <ns3:hr>99</ns3:hr>
          </ns3:TrackPointExtension>
        </extensions>
      </trkpt>
      <trkpt lat="39.97147039510309696197509765625" lon="116.47384084761142730712890625">
        <ele>36</ele>
        <time>2026-09-10T09:39:01.000Z</time>
        <extensions>
          <ns3:TrackPointExtension>
            <ns3:hr>100</ns3:hr>
          </ns3:TrackPointExtension>
        </extensions>
      </trkpt>
      <trkpt lat="39.97123067267239093780517578125" lon="116.47357120178639888763427734375">
        <ele>35.799999237060546875</ele>
        <time>2026-09-10T09:39:08.000Z</time>
        <extensions>
          <ns3:TrackPointExtension>
            <ns3:hr>100</ns3:hr>
          </ns3:TrackPointExtension>
        </extensions>
      </trkpt>
      <trkpt lat="39.97098357416689395904541015625" lon="116.47332041524350643157958984375">
        <ele>35.59999847412109375</ele>
        <time>2026-09-10T09:39:15.000Z</time>
        <extensions>
          <ns3:TrackPointExtension>
            <ns3:hr>100</ns3:hr>
          </ns3:TrackPointExtension>
        </extensions>
      </trkpt>
      <trkpt lat="39.97095155529677867889404296875" lon="116.47328856401145458221435546875">
        <ele>35.40000152587890625</ele>
        <time>2026-09-10T09:39:16.000Z</time>
        <extensions>
          <ns3:TrackPointExtension>
            <ns3:hr>100</ns3:hr>
          </ns3:TrackPointExtension>
        </extensions>
      </trkpt>
      <trkpt lat="39.97084133327007293701171875" lon="116.47314012050628662109375">
        <ele>35.59999847412109375</ele>
        <time>2026-09-10T09:39:21.000Z</time>
        <extensions>
          <ns3:TrackPointExtension>
            <ns3:hr>101</ns3:hr>
          </ns3:TrackPointExtension>
        </extensions>
      </trkpt>
      <trkpt lat="39.970832280814647674560546875" lon="116.47312377579510211944580078125">
        <ele>35.59999847412109375</ele>
        <time>2026-09-10T09:39:22.000Z</time>
        <extensions>
          <ns3:TrackPointExtension>
            <ns3:hr>100</ns3:hr>
          </ns3:TrackPointExtension>
        </extensions>
      </trkpt>
      <trkpt lat="39.97081719338893890380859375" lon="116.473110280930995941162109375">
        <ele>35.200000762939453125</ele>
        <time>2026-09-10T09:39:36.000Z</time>
        <extensions>
          <ns3:TrackPointExtension>
            <ns3:hr>92</ns3:hr>
          </ns3:TrackPointExtension>
        </extensions>
      </trkpt>
      <trkpt lat="39.97080805711448192596435546875" lon="116.47310181520879268646240234375">
        <ele>35.200000762939453125</ele>
        <time>2026-09-10T09:39:37.000Z</time>
        <extensions>
          <ns3:TrackPointExtension>
            <ns3:hr>91</ns3:hr>
          </ns3:TrackPointExtension>
        </extensions>
      </trkpt>
      <trkpt lat="39.97079573571681976318359375" lon="116.47308488376438617706298828125">
        <ele>35.200000762939453125</ele>
        <time>2026-09-10T09:39:38.000Z</time>
        <extensions>
          <ns3:TrackPointExtension>
            <ns3:hr>92</ns3:hr>
          </ns3:TrackPointExtension>
        </extensions>
      </trkpt>
      <trkpt lat="39.970755837857723236083984375" lon="116.47301263175904750823974609375">
        <ele>35</ele>
        <time>2026-09-10T09:39:41.000Z</time>
        <extensions>
          <ns3:TrackPointExtension>
            <ns3:hr>89</ns3:hr>
          </ns3:TrackPointExtension>
        </extensions>
      </trkpt>
      <trkpt lat="39.97068702243268489837646484375" lon="116.47294037975370883941650390625">
        <ele>35</ele>
        <time>2026-09-10T09:39:44.000Z</time>
        <extensions>
          <ns3:TrackPointExtension>
            <ns3:hr>87</ns3:hr>
          </ns3:TrackPointExtension>
        </extensions>
      </trkpt>
      <trkpt lat="39.970629774034023284912109375" lon="116.4728874899446964263916015625">
        <ele>34.799999237060546875</ele>
        <time>2026-09-10T09:39:46.000Z</time>
        <extensions>
          <ns3:TrackPointExtension>
            <ns3:hr>90</ns3:hr>
          </ns3:TrackPointExtension>
        </extensions>
      </trkpt>
      <trkpt lat="39.97052013874053955078125" lon="116.47275798954069614410400390625">
        <ele>35</ele>
        <time>2026-09-10T09:39:50.000Z</time>
        <extensions>
          <ns3:TrackPointExtension>
            <ns3:hr>92</ns3:hr>
          </ns3:TrackPointExtension>
        </extensions>
      </trkpt>
      <trkpt lat="39.9702567793428897857666015625" lon="116.472450457513332366943359375">
        <ele>35</ele>
        <time>2026-09-10T09:39:59.000Z</time>
        <extensions>
          <ns3:TrackPointExtension>
            <ns3:hr>90</ns3:hr>
          </ns3:TrackPointExtension>
        </extensions>
      </trkpt>
      <trkpt lat="39.970065169036388397216796875" lon="116.47225105203688144683837890625">
        <ele>35.200000762939453125</ele>
        <time>2026-09-10T09:40:05.000Z</time>
        <extensions>
          <ns3:TrackPointExtension>
            <ns3:hr>92</ns3:hr>
          </ns3:TrackPointExtension>
        </extensions>
      </trkpt>
      <trkpt lat="39.969792924821376800537109375" lon="116.47196439094841480255126953125">
        <ele>35.40000152587890625</ele>
        <time>2026-09-10T09:40:13.000Z</time>
        <extensions>
          <ns3:TrackPointExtension>
            <ns3:hr>92</ns3:hr>
          </ns3:TrackPointExtension>
        </extensions>
      </trkpt>
      <trkpt lat="39.96955580078065395355224609375" lon="116.47170354612171649932861328125">
        <ele>35.799999237060546875</ele>
        <time>2026-09-10T09:40:20.000Z</time>
        <extensions>
          <ns3:TrackPointExtension>
            <ns3:hr>94</ns3:hr>
          </ns3:TrackPointExtension>
        </extensions>
      </trkpt>
      <trkpt lat="39.96935245580971240997314453125" lon="116.47148209623992443084716796875">
        <ele>36</ele>
        <time>2026-09-10T09:40:26.000Z</time>
        <extensions>
          <ns3:TrackPointExtension>
            <ns3:hr>95</ns3:hr>
          </ns3:TrackPointExtension>
        </extensions>
      </trkpt>
      <trkpt lat="39.96918263845145702362060546875" lon="116.47130079567432403564453125">
        <ele>35.59999847412109375</ele>
        <time>2026-09-10T09:40:31.000Z</time>
        <extensions>
          <ns3:TrackPointExtension>
            <ns3:hr>98</ns3:hr>
          </ns3:TrackPointExtension>
        </extensions>
      </trkpt>
      <trkpt lat="39.96911256574094295501708984375" lon="116.471244134008884429931640625">
        <ele>35.59999847412109375</ele>
        <time>2026-09-10T09:40:33.000Z</time>
        <extensions>
          <ns3:TrackPointExtension>
            <ns3:hr>99</ns3:hr>
          </ns3:TrackPointExtension>
        </extensions>
      </trkpt>
      <trkpt lat="39.96908222325146198272705078125" lon="116.4712114445865154266357421875">
        <ele>35.59999847412109375</ele>
        <time>2026-09-10T09:40:34.000Z</time>
        <extensions>
          <ns3:TrackPointExtension>
            <ns3:hr>99</ns3:hr>
          </ns3:TrackPointExtension>
        </extensions>
      </trkpt>
      <trkpt lat="39.96892078779637813568115234375" lon="116.47102628834545612335205078125">
        <ele>36.200000762939453125</ele>
        <time>2026-09-10T09:40:39.000Z</time>
        <extensions>
          <ns3:TrackPointExtension>
            <ns3:hr>99</ns3:hr>
          </ns3:TrackPointExtension>
        </extensions>
      </trkpt>
      <trkpt lat="39.96873320080339908599853515625" lon="116.4708081074059009552001953125">
        <ele>36.40000152587890625</ele>
        <time>2026-09-10T09:40:45.000Z</time>
        <extensions>
          <ns3:TrackPointExtension>
            <ns3:hr>98</ns3:hr>
          </ns3:TrackPointExtension>
        </extensions>
      </trkpt>
      <trkpt lat="39.9685354717075824737548828125" lon="116.47058053873479366302490234375">
        <ele>36.40000152587890625</ele>
        <time>2026-09-10T09:40:51.000Z</time>
        <extensions>
          <ns3:TrackPointExtension>
            <ns3:hr>99</ns3:hr>
          </ns3:TrackPointExtension>
        </extensions>
      </trkpt>
      <trkpt lat="39.96829189360141754150390625" lon="116.47031969390809535980224609375">
        <ele>36.200000762939453125</ele>
        <time>2026-09-10T09:40:58.000Z</time>
        <extensions>
          <ns3:TrackPointExtension>
            <ns3:hr>99</ns3:hr>
          </ns3:TrackPointExtension>
        </extensions>
      </trkpt>
      <trkpt lat="39.96801554225385189056396484375" lon="116.4700218848884105682373046875">
        <ele>36.799999237060546875</ele>
        <time>2026-09-10T09:41:06.000Z</time>
        <extensions>
          <ns3:TrackPointExtension>
            <ns3:hr>100</ns3:hr>
          </ns3:TrackPointExtension>
        </extensions>
      </trkpt>
      <trkpt lat="39.96791194193065166473388671875" lon="116.469904370605945587158203125">
        <ele>36.59999847412109375</ele>
        <time>2026-09-10T09:41:09.000Z</time>
        <extensions>
          <ns3:TrackPointExtension>
            <ns3:hr>103</ns3:hr>
          </ns3:TrackPointExtension>
        </extensions>
      </trkpt>
      <trkpt lat="39.96770742349326610565185546875" lon="116.4696768857538700103759765625">
        <ele>36.40000152587890625</ele>
        <time>2026-09-10T09:41:15.000Z</time>
        <extensions>
          <ns3:TrackPointExtension>
            <ns3:hr>100</ns3:hr>
          </ns3:TrackPointExtension>
        </extensions>
      </trkpt>
      <trkpt lat="39.96747189201414585113525390625" lon="116.4694131910800933837890625">
        <ele>36.799999237060546875</ele>
        <time>2026-09-10T09:41:22.000Z</time>
        <extensions>
          <ns3:TrackPointExtension>
            <ns3:hr>99</ns3:hr>
          </ns3:TrackPointExtension>
        </extensions>
      </trkpt>
      <trkpt lat="39.96719545684754848480224609375" lon="116.46912912838160991668701171875">
        <ele>36.59999847412109375</ele>
        <time>2026-09-10T09:41:30.000Z</time>
        <extensions>
          <ns3:TrackPointExtension>
            <ns3:hr>98</ns3:hr>
          </ns3:TrackPointExtension>
        </extensions>
      </trkpt>
      <trkpt lat="39.9669787846505641937255859375" lon="116.4688537828624248504638671875">
        <ele>36.40000152587890625</ele>
        <time>2026-09-10T09:41:38.000Z</time>
        <extensions>
          <ns3:TrackPointExtension>
            <ns3:hr>93</ns3:hr>
          </ns3:TrackPointExtension>
        </extensions>
      </trkpt>
      <trkpt lat="39.96696696616709232330322265625" lon="116.46884146146476268768310546875">
        <ele>36.59999847412109375</ele>
        <time>2026-09-10T09:41:40.000Z</time>
        <extensions>
          <ns3:TrackPointExtension>
            <ns3:hr>91</ns3:hr>
          </ns3:TrackPointExtension>
        </extensions>
      </trkpt>
      <trkpt lat="39.9669533036649227142333984375" lon="116.46884146146476268768310546875">
        <ele>36.59999847412109375</ele>
        <time>2026-09-10T09:42:26.000Z</time>
        <extensions>
          <ns3:TrackPointExtension>
            <ns3:hr>86</ns3:hr>
          </ns3:TrackPointExtension>
        </extensions>
      </trkpt>
      <trkpt lat="39.9669139087200164794921875" lon="116.468826793134212493896484375">
        <ele>36.59999847412109375</ele>
        <time>2026-09-10T09:42:30.000Z</time>
        <extensions>
          <ns3:TrackPointExtension>
            <ns3:hr>81</ns3:hr>
          </ns3:TrackPointExtension>
        </extensions>
      </trkpt>
      <trkpt lat="39.966900832951068878173828125" lon="116.46881329827010631561279296875">
        <ele>36.59999847412109375</ele>
        <time>2026-09-10T09:42:31.000Z</time>
        <extensions>
          <ns3:TrackPointExtension>
            <ns3:hr>80</ns3:hr>
          </ns3:TrackPointExtension>
        </extensions>
      </trkpt>
      <trkpt lat="39.96680192649364471435546875" lon="116.46866141818463802337646484375">
        <ele>36.59999847412109375</ele>
        <time>2026-09-10T09:42:37.000Z</time>
        <extensions>
          <ns3:TrackPointExtension>
            <ns3:hr>78</ns3:hr>
          </ns3:TrackPointExtension>
        </extensions>
      </trkpt>
      <trkpt lat="39.96671768836677074432373046875" lon="116.46856619976460933685302734375">
        <ele>36.59999847412109375</ele>
        <time>2026-09-10T09:42:40.000Z</time>
        <extensions>
          <ns3:TrackPointExtension>
            <ns3:hr>81</ns3:hr>
          </ns3:TrackPointExtension>
        </extensions>
      </trkpt>
      <trkpt lat="39.96660402975976467132568359375" lon="116.46840007044374942779541015625">
        <ele>36.40000152587890625</ele>
        <time>2026-09-10T09:42:44.000Z</time>
        <extensions>
          <ns3:TrackPointExtension>
            <ns3:hr>81</ns3:hr>
          </ns3:TrackPointExtension>
        </extensions>
      </trkpt>
      <trkpt lat="39.9665751121938228607177734375" lon="116.46836201660335063934326171875">
        <ele>36.40000152587890625</ele>
        <time>2026-09-10T09:42:45.000Z</time>
        <extensions>
          <ns3:TrackPointExtension>
            <ns3:hr>78</ns3:hr>
          </ns3:TrackPointExtension>
        </extensions>
      </trkpt>
      <trkpt lat="39.96642733924090862274169921875" lon="116.468167640268802642822265625">
        <ele>36.200000762939453125</ele>
        <time>2026-09-10T09:42:50.000Z</time>
        <extensions>
          <ns3:TrackPointExtension>
            <ns3:hr>77</ns3:hr>
          </ns3:TrackPointExtension>
        </extensions>
      </trkpt>
      <trkpt lat="39.966253750026226043701171875" lon="116.46787771023809909820556640625">
        <ele>36.200000762939453125</ele>
        <time>2026-09-10T09:42:56.000Z</time>
        <extensions>
          <ns3:TrackPointExtension>
            <ns3:hr>76</ns3:hr>
          </ns3:TrackPointExtension>
        </extensions>
      </trkpt>
      <trkpt lat="39.9662311188876628875732421875" lon="116.46782507188618183135986328125">
        <ele>36.200000762939453125</ele>
        <time>2026-09-10T09:42:57.000Z</time>
        <extensions>
          <ns3:TrackPointExtension>
            <ns3:hr>76</ns3:hr>
          </ns3:TrackPointExtension>
        </extensions>
      </trkpt>
      <trkpt lat="39.96612190268933773040771484375" lon="116.46762189455330371856689453125">
        <ele>36.200000762939453125</ele>
        <time>2026-09-10T09:43:01.000Z</time>
        <extensions>
          <ns3:TrackPointExtension>
            <ns3:hr>78</ns3:hr>
          </ns3:TrackPointExtension>
        </extensions>
      </trkpt>
      <trkpt lat="39.96593582443892955780029296875" lon="116.467323414981365203857421875">
        <ele>36.40000152587890625</ele>
        <time>2026-09-10T09:43:07.000Z</time>
        <extensions>
          <ns3:TrackPointExtension>
            <ns3:hr>81</ns3:hr>
          </ns3:TrackPointExtension>
        </extensions>
      </trkpt>
      <trkpt lat="39.96567682363092899322509765625" lon="116.4668945968151092529296875">
        <ele>36.200000762939453125</ele>
        <time>2026-09-10T09:43:15.000Z</time>
        <extensions>
          <ns3:TrackPointExtension>
            <ns3:hr>82</ns3:hr>
          </ns3:TrackPointExtension>
        </extensions>
      </trkpt>
      <trkpt lat="39.96548403985798358917236328125" lon="116.466553620994091033935546875">
        <ele>36</ele>
        <time>2026-09-10T09:43:21.000Z</time>
        <extensions>
          <ns3:TrackPointExtension>
            <ns3:hr>85</ns3:hr>
          </ns3:TrackPointExtension>
        </extensions>
      </trkpt>
      <trkpt lat="39.965415894985198974609375" lon="116.46644608117640018463134765625">
        <ele>35.799999237060546875</ele>
        <time>2026-09-10T09:43:23.000Z</time>
        <extensions>
          <ns3:TrackPointExtension>
            <ns3:hr>87</ns3:hr>
          </ns3:TrackPointExtension>
        </extensions>
      </trkpt>
      <trkpt lat="39.96530952863395214080810546875" lon="116.46628414280712604522705078125">
        <ele>35.799999237060546875</ele>
        <time>2026-09-10T09:43:26.000Z</time>
        <extensions>
          <ns3:TrackPointExtension>
            <ns3:hr>91</ns3:hr>
          </ns3:TrackPointExtension>
        </extensions>
      </trkpt>
      <trkpt lat="39.96523777954280376434326171875" lon="116.4661772735416889190673828125">
        <ele>35.799999237060546875</ele>
        <time>2026-09-10T09:43:28.000Z</time>
        <extensions>
          <ns3:TrackPointExtension>
            <ns3:hr>94</ns3:hr>
          </ns3:TrackPointExtension>
        </extensions>
      </trkpt>
      <trkpt lat="39.96516502462327480316162109375" lon="116.466078199446201324462890625">
        <ele>35.59999847412109375</ele>
        <time>2026-09-10T09:43:30.000Z</time>
        <extensions>
          <ns3:TrackPointExtension>
            <ns3:hr>96</ns3:hr>
          </ns3:TrackPointExtension>
        </extensions>
      </trkpt>
      <trkpt lat="39.96509143151342868804931640625" lon="116.4659838192164897918701171875">
        <ele>35.59999847412109375</ele>
        <time>2026-09-10T09:43:32.000Z</time>
        <extensions>
          <ns3:TrackPointExtension>
            <ns3:hr>101</ns3:hr>
          </ns3:TrackPointExtension>
        </extensions>
      </trkpt>
      <trkpt lat="39.964981041848659515380859375" lon="116.465838812291622161865234375">
        <ele>35.799999237060546875</ele>
        <time>2026-09-10T09:43:35.000Z</time>
        <extensions>
          <ns3:TrackPointExtension>
            <ns3:hr>104</ns3:hr>
          </ns3:TrackPointExtension>
        </extensions>
      </trkpt>
      <trkpt lat="39.96494223363697528839111328125" lon="116.46579614840447902679443359375">
        <ele>35.59999847412109375</ele>
        <time>2026-09-10T09:43:36.000Z</time>
        <extensions>
          <ns3:TrackPointExtension>
            <ns3:hr>105</ns3:hr>
          </ns3:TrackPointExtension>
        </extensions>
      </trkpt>
      <trkpt lat="39.9646737612783908843994140625" lon="116.4654408395290374755859375">
        <ele>35.59999847412109375</ele>
        <time>2026-09-10T09:43:43.000Z</time>
        <extensions>
          <ns3:TrackPointExtension>
            <ns3:hr>107</ns3:hr>
          </ns3:TrackPointExtension>
        </extensions>
      </trkpt>
      <trkpt lat="39.96438416652381420135498046875" lon="116.4651110954582691192626953125">
        <ele>35.799999237060546875</ele>
        <time>2026-09-10T09:43:50.000Z</time>
        <extensions>
          <ns3:TrackPointExtension>
            <ns3:hr>107</ns3:hr>
          </ns3:TrackPointExtension>
        </extensions>
      </trkpt>
      <trkpt lat="39.96412432752549648284912109375" lon="116.46485988982021808624267578125">
        <ele>36.200000762939453125</ele>
        <time>2026-09-10T09:43:56.000Z</time>
        <extensions>
          <ns3:TrackPointExtension>
            <ns3:hr>109</ns3:hr>
          </ns3:TrackPointExtension>
        </extensions>
      </trkpt>
      <trkpt lat="39.96389784850180149078369140625" lon="116.4646497555077075958251953125">
        <ele>36.59999847412109375</ele>
        <time>2026-09-10T09:44:01.000Z</time>
        <extensions>
          <ns3:TrackPointExtension>
            <ns3:hr>112</ns3:hr>
          </ns3:TrackPointExtension>
        </extensions>
      </trkpt>
      <trkpt lat="39.963851161301136016845703125" lon="116.4646105282008647918701171875">
        <ele>36.59999847412109375</ele>
        <time>2026-09-10T09:44:02.000Z</time>
        <extensions>
          <ns3:TrackPointExtension>
            <ns3:hr>112</ns3:hr>
          </ns3:TrackPointExtension>
        </extensions>
      </trkpt>
      <trkpt lat="39.963532984256744384765625" lon="116.46435831673443317413330078125">
        <ele>36.799999237060546875</ele>
        <time>2026-09-10T09:44:09.000Z</time>
        <extensions>
          <ns3:TrackPointExtension>
            <ns3:hr>114</ns3:hr>
          </ns3:TrackPointExtension>
        </extensions>
      </trkpt>
      <trkpt lat="39.9631549604237079620361328125" lon="116.464094035327434539794921875">
        <ele>37.200000762939453125</ele>
        <time>2026-09-10T09:44:17.000Z</time>
        <extensions>
          <ns3:TrackPointExtension>
            <ns3:hr>115</ns3:hr>
          </ns3:TrackPointExtension>
        </extensions>
      </trkpt>
      <trkpt lat="39.9629685468971729278564453125" lon="116.46396151743829250335693359375">
        <ele>37</ele>
        <time>2026-09-10T09:44:21.000Z</time>
        <extensions>
          <ns3:TrackPointExtension>
            <ns3:hr>111</ns3:hr>
          </ns3:TrackPointExtension>
        </extensions>
      </trkpt>
      <trkpt lat="39.96282421052455902099609375" lon="116.46386026404798030853271484375">
        <ele>37.200000762939453125</ele>
        <time>2026-09-10T09:44:24.000Z</time>
        <extensions>
          <ns3:TrackPointExtension>
            <ns3:hr>108</ns3:hr>
          </ns3:TrackPointExtension>
        </extensions>
      </trkpt>
      <trkpt lat="39.9626906029880046844482421875" lon="116.463762111961841583251953125">
        <ele>37.59999847412109375</ele>
        <time>2026-09-10T09:44:27.000Z</time>
        <extensions>
          <ns3:TrackPointExtension>
            <ns3:hr>109</ns3:hr>
          </ns3:TrackPointExtension>
        </extensions>
      </trkpt>
      <trkpt lat="39.9625554867088794708251953125" lon="116.46366546861827373504638671875">
        <ele>37.799999237060546875</ele>
        <time>2026-09-10T09:44:30.000Z</time>
        <extensions>
          <ns3:TrackPointExtension>
            <ns3:hr>110</ns3:hr>
          </ns3:TrackPointExtension>
        </extensions>
      </trkpt>
      <trkpt lat="39.96241793967783451080322265625" lon="116.46357611753046512603759765625">
        <ele>37.799999237060546875</ele>
        <time>2026-09-10T09:44:33.000Z</time>
        <extensions>
          <ns3:TrackPointExtension>
            <ns3:hr>107</ns3:hr>
          </ns3:TrackPointExtension>
        </extensions>
      </trkpt>
      <trkpt lat="39.96228039264678955078125" lon="116.4634935557842254638671875">
        <ele>37.799999237060546875</ele>
        <time>2026-09-10T09:44:36.000Z</time>
        <extensions>
          <ns3:TrackPointExtension>
            <ns3:hr>110</ns3:hr>
          </ns3:TrackPointExtension>
        </extensions>
      </trkpt>
      <trkpt lat="39.96223705820739269256591796875" lon="116.463459692895412445068359375">
        <ele>37.799999237060546875</ele>
        <time>2026-09-10T09:44:37.000Z</time>
        <extensions>
          <ns3:TrackPointExtension>
            <ns3:hr>112</ns3:hr>
          </ns3:TrackPointExtension>
        </extensions>
      </trkpt>
      <trkpt lat="39.9621927179396152496337890625" lon="116.4634266681969165802001953125">
        <ele>38</ele>
        <time>2026-09-10T09:44:38.000Z</time>
        <extensions>
          <ns3:TrackPointExtension>
            <ns3:hr>112</ns3:hr>
          </ns3:TrackPointExtension>
        </extensions>
      </trkpt>
      <trkpt lat="39.96185836382210254669189453125" lon="116.46315517835319042205810546875">
        <ele>37.799999237060546875</ele>
        <time>2026-09-10T09:44:46.000Z</time>
        <extensions>
          <ns3:TrackPointExtension>
            <ns3:hr>115</ns3:hr>
          </ns3:TrackPointExtension>
        </extensions>
      </trkpt>
      <trkpt lat="39.961650408804416656494140625" lon="116.46297144703567028045654296875">
        <ele>38</ele>
        <time>2026-09-10T09:44:51.000Z</time>
        <extensions>
          <ns3:TrackPointExtension>
            <ns3:hr>118</ns3:hr>
          </ns3:TrackPointExtension>
        </extensions>
      </trkpt>
      <trkpt lat="39.96156550012528896331787109375" lon="116.46289265714585781097412109375">
        <ele>37.799999237060546875</ele>
        <time>2026-09-10T09:44:53.000Z</time>
        <extensions>
          <ns3:TrackPointExtension>
            <ns3:hr>118</ns3:hr>
          </ns3:TrackPointExtension>
        </extensions>
      </trkpt>
      <trkpt lat="39.96129225008189678192138671875" lon="116.4625797607004642486572265625">
        <ele>38.40000152587890625</ele>
        <time>2026-09-10T09:45:00.000Z</time>
        <extensions>
          <ns3:TrackPointExtension>
            <ns3:hr>117</ns3:hr>
          </ns3:TrackPointExtension>
        </extensions>
      </trkpt>
      <trkpt lat="39.960963428020477294921875" lon="116.46223451010882854461669921875">
        <ele>38</ele>
        <time>2026-09-10T09:45:08.000Z</time>
        <extensions>
          <ns3:TrackPointExtension>
            <ns3:hr>117</ns3:hr>
          </ns3:TrackPointExtension>
        </extensions>
      </trkpt>
      <trkpt lat="39.96070325374603271484375" lon="116.4619417302310466766357421875">
        <ele>38</ele>
        <time>2026-09-10T09:45:15.000Z</time>
        <extensions>
          <ns3:TrackPointExtension>
            <ns3:hr>116</ns3:hr>
          </ns3:TrackPointExtension>
        </extensions>
      </trkpt>
      <trkpt lat="39.96052530594170093536376953125" lon="116.4617325179278850555419921875">
        <ele>37.799999237060546875</ele>
        <time>2026-09-10T09:45:20.000Z</time>
        <extensions>
          <ns3:TrackPointExtension>
            <ns3:hr>113</ns3:hr>
          </ns3:TrackPointExtension>
        </extensions>
      </trkpt>
      <trkpt lat="39.96045288629829883575439453125" lon="116.4616647921502590179443359375">
        <ele>37.799999237060546875</ele>
        <time>2026-09-10T09:45:22.000Z</time>
        <extensions>
          <ns3:TrackPointExtension>
            <ns3:hr>112</ns3:hr>
          </ns3:TrackPointExtension>
        </extensions>
      </trkpt>
      <trkpt lat="39.96037694625556468963623046875" lon="116.4615709148347377777099609375">
        <ele>38</ele>
        <time>2026-09-10T09:45:25.000Z</time>
        <extensions>
          <ns3:TrackPointExtension>
            <ns3:hr>111</ns3:hr>
          </ns3:TrackPointExtension>
        </extensions>
      </trkpt>
      <trkpt lat="39.9603647924959659576416015625" lon="116.46153696812689304351806640625">
        <ele>38</ele>
        <time>2026-09-10T09:45:26.000Z</time>
        <extensions>
          <ns3:TrackPointExtension>
            <ns3:hr>111</ns3:hr>
          </ns3:TrackPointExtension>
        </extensions>
      </trkpt>
      <trkpt lat="39.960244260728359222412109375" lon="116.46133504807949066162109375">
        <ele>38.200000762939453125</ele>
        <time>2026-09-10T09:45:32.000Z</time>
        <extensions>
          <ns3:TrackPointExtension>
            <ns3:hr>109</ns3:hr>
          </ns3:TrackPointExtension>
        </extensions>
      </trkpt>
      <trkpt lat="39.96015214361250400543212890625" lon="116.46124175749719142913818359375">
        <ele>38.40000152587890625</ele>
        <time>2026-09-10T09:45:36.000Z</time>
        <extensions>
          <ns3:TrackPointExtension>
            <ns3:hr>106</ns3:hr>
          </ns3:TrackPointExtension>
        </extensions>
      </trkpt>
      <trkpt lat="39.9601307697594165802001953125" lon="116.46121711470186710357666015625">
        <ele>38.40000152587890625</ele>
        <time>2026-09-10T09:45:37.000Z</time>
        <extensions>
          <ns3:TrackPointExtension>
            <ns3:hr>105</ns3:hr>
          </ns3:TrackPointExtension>
        </extensions>
      </trkpt>
      <trkpt lat="39.960001520812511444091796875" lon="116.46106540225446224212646484375">
        <ele>38.59999847412109375</ele>
        <time>2026-09-10T09:45:42.000Z</time>
        <extensions>
          <ns3:TrackPointExtension>
            <ns3:hr>101</ns3:hr>
          </ns3:TrackPointExtension>
        </extensions>
      </trkpt>
      <trkpt lat="39.95996975339949131011962890625" lon="116.4610327966511249542236328125">
        <ele>38.59999847412109375</ele>
        <time>2026-09-10T09:45:43.000Z</time>
        <extensions>
          <ns3:TrackPointExtension>
            <ns3:hr>100</ns3:hr>
          </ns3:TrackPointExtension>
        </extensions>
      </trkpt>
      <trkpt lat="39.9597435258328914642333984375" lon="116.460778824985027313232421875">
        <ele>38</ele>
        <time>2026-09-10T09:45:50.000Z</time>
        <extensions>
          <ns3:TrackPointExtension>
            <ns3:hr>98</ns3:hr>
          </ns3:TrackPointExtension>
        </extensions>
      </trkpt>
      <trkpt lat="39.95953808538615703582763671875" lon="116.46052259020507335662841796875">
        <ele>38.799999237060546875</ele>
        <time>2026-09-10T09:45:57.000Z</time>
        <extensions>
          <ns3:TrackPointExtension>
            <ns3:hr>99</ns3:hr>
          </ns3:TrackPointExtension>
        </extensions>
      </trkpt>
      <trkpt lat="39.9593207426369190216064453125" lon="116.46028370596468448638916015625">
        <ele>38.59999847412109375</ele>
        <time>2026-09-10T09:46:04.000Z</time>
        <extensions>
          <ns3:TrackPointExtension>
            <ns3:hr>99</ns3:hr>
          </ns3:TrackPointExtension>
        </extensions>
      </trkpt>
      <trkpt lat="39.9590595625340938568115234375" lon="116.46004532463848590850830078125">
        <ele>38.799999237060546875</ele>
        <time>2026-09-10T09:46:12.000Z</time>
        <extensions>
          <ns3:TrackPointExtension>
            <ns3:hr>102</ns3:hr>
          </ns3:TrackPointExtension>
        </extensions>
      </trkpt>
      <trkpt lat="39.95892704464495182037353515625" lon="116.45998598076403141021728515625">
        <ele>38.59999847412109375</ele>
        <time>2026-09-10T09:46:17.000Z</time>
        <extensions>
          <ns3:TrackPointExtension>
            <ns3:hr>101</ns3:hr>
          </ns3:TrackPointExtension>
        </extensions>
      </trkpt>
      <trkpt lat="39.95886015705764293670654296875" lon="116.4599582366645336151123046875">
        <ele>38.799999237060546875</ele>
        <time>2026-09-10T09:46:22.000Z</time>
        <extensions>
          <ns3:TrackPointExtension>
            <ns3:hr>101</ns3:hr>
          </ns3:TrackPointExtension>
        </extensions>
      </trkpt>
      <trkpt lat="39.95882126502692699432373046875" lon="116.4599729888141155242919921875">
        <ele>38.799999237060546875</ele>
        <time>2026-09-10T09:46:25.000Z</time>
        <extensions>
          <ns3:TrackPointExtension>
            <ns3:hr>103</ns3:hr>
          </ns3:TrackPointExtension>
        </extensions>
      </trkpt>
      <trkpt lat="39.95880492031574249267578125" lon="116.4599927701056003570556640625">
        <ele>38.799999237060546875</ele>
        <time>2026-09-10T09:46:26.000Z</time>
        <extensions>
          <ns3:TrackPointExtension>
            <ns3:hr>104</ns3:hr>
          </ns3:TrackPointExtension>
        </extensions>
      </trkpt>
      <trkpt lat="39.95874549262225627899169921875" lon="116.4601181633770465850830078125">
        <ele>38.799999237060546875</ele>
        <time>2026-09-10T09:46:30.000Z</time>
        <extensions>
          <ns3:TrackPointExtension>
            <ns3:hr>107</ns3:hr>
          </ns3:TrackPointExtension>
        </extensions>
      </trkpt>
      <trkpt lat="39.95870509184896945953369140625" lon="116.46014389581978321075439453125">
        <ele>38.799999237060546875</ele>
        <time>2026-09-10T09:46:32.000Z</time>
        <extensions>
          <ns3:TrackPointExtension>
            <ns3:hr>108</ns3:hr>
          </ns3:TrackPointExtension>
        </extensions>
      </trkpt>
      <trkpt lat="39.958677850663661956787109375" lon="116.4601332508027553558349609375">
        <ele>38.799999237060546875</ele>
        <time>2026-09-10T09:46:35.000Z</time>
        <extensions>
          <ns3:TrackPointExtension>
            <ns3:hr>108</ns3:hr>
          </ns3:TrackPointExtension>
        </extensions>
      </trkpt>
      <trkpt lat="39.95868329890072345733642578125" lon="116.46014171652495861053466796875">
        <ele>38.40000152587890625</ele>
        <time>2026-09-10T09:46:49.000Z</time>
        <extensions>
          <ns3:TrackPointExtension>
            <ns3:hr>99</ns3:hr>
          </ns3:TrackPointExtension>
        </extensions>
      </trkpt>
      <trkpt lat="39.95868464000523090362548828125" lon="116.4601433090865612030029296875">
        <ele>38.40000152587890625</ele>
        <time>2026-09-10T09:46:50.000Z</time>
        <extensions>
          <ns3:TrackPointExtension>
            <ns3:hr>99</ns3:hr>
          </ns3:TrackPointExtension>
        </extensions>
      </trkpt>
      <trkpt lat="39.95860886760056018829345703125" lon="116.46005588583648204803466796875">
        <ele>38.40000152587890625</ele>
        <time>2026-09-10T09:46:54.000Z</time>
        <extensions>
          <ns3:TrackPointExtension>
            <ns3:hr>97</ns3:hr>
          </ns3:TrackPointExtension>
        </extensions>
      </trkpt>
      <trkpt lat="39.95844977907836437225341796875" lon="116.4598660357296466827392578125">
        <ele>38.40000152587890625</ele>
        <time>2026-09-10T09:47:01.000Z</time>
        <extensions>
          <ns3:TrackPointExtension>
            <ns3:hr>96</ns3:hr>
          </ns3:TrackPointExtension>
        </extensions>
      </trkpt>
      <trkpt lat="39.95833008550107479095458984375" lon="116.45970636047422885894775390625">
        <ele>38.200000762939453125</ele>
        <time>2026-09-10T09:47:06.000Z</time>
        <extensions>
          <ns3:TrackPointExtension>
            <ns3:hr>95</ns3:hr>
          </ns3:TrackPointExtension>
        </extensions>
      </trkpt>
      <trkpt lat="39.95824433863162994384765625" lon="116.45960980094969272613525390625">
        <ele>38.200000762939453125</ele>
        <time>2026-09-10T09:47:09.000Z</time>
        <extensions>
          <ns3:TrackPointExtension>
            <ns3:hr>92</ns3:hr>
          </ns3:TrackPointExtension>
        </extensions>
      </trkpt>
      <trkpt lat="39.958207793533802032470703125" lon="116.45958197303116321563720703125">
        <ele>38.200000762939453125</ele>
        <time>2026-09-10T09:47:10.000Z</time>
        <extensions>
          <ns3:TrackPointExtension>
            <ns3:hr>88</ns3:hr>
          </ns3:TrackPointExtension>
        </extensions>
      </trkpt>
      <trkpt lat="39.958140067756175994873046875" lon="116.45952581427991390228271484375">
        <ele>38.200000762939453125</ele>
        <time>2026-09-10T09:47:12.000Z</time>
        <extensions>
          <ns3:TrackPointExtension>
            <ns3:hr>85</ns3:hr>
          </ns3:TrackPointExtension>
        </extensions>
      </trkpt>
      <trkpt lat="39.95804845355451107025146484375" lon="116.45943696610629558563232421875">
        <ele>38.40000152587890625</ele>
        <time>2026-09-10T09:47:15.000Z</time>
        <extensions>
          <ns3:TrackPointExtension>
            <ns3:hr>88</ns3:hr>
          </ns3:TrackPointExtension>
        </extensions>
      </trkpt>
      <trkpt lat="39.95798927731812000274658203125" lon="116.45937795750796794891357421875">
        <ele>38.40000152587890625</ele>
        <time>2026-09-10T09:47:17.000Z</time>
        <extensions>
          <ns3:TrackPointExtension>
            <ns3:hr>92</ns3:hr>
          </ns3:TrackPointExtension>
        </extensions>
      </trkpt>
      <trkpt lat="39.95793295092880725860595703125" lon="116.45930687896907329559326171875">
        <ele>38.40000152587890625</ele>
        <time>2026-09-10T09:47:19.000Z</time>
        <extensions>
          <ns3:TrackPointExtension>
            <ns3:hr>93</ns3:hr>
          </ns3:TrackPointExtension>
        </extensions>
      </trkpt>
      <trkpt lat="39.957863129675388336181640625" lon="116.45921383984386920928955078125">
        <ele>38</ele>
        <time>2026-09-10T09:47:22.000Z</time>
        <extensions>
          <ns3:TrackPointExtension>
            <ns3:hr>90</ns3:hr>
          </ns3:TrackPointExtension>
        </extensions>
      </trkpt>
      <trkpt lat="39.95778073556721210479736328125" lon="116.45911820232868194580078125">
        <ele>38</ele>
        <time>2026-09-10T09:47:25.000Z</time>
        <extensions>
          <ns3:TrackPointExtension>
            <ns3:hr>90</ns3:hr>
          </ns3:TrackPointExtension>
        </extensions>
      </trkpt>
      <trkpt lat="39.9576463736593723297119140625" lon="116.4589628018438816070556640625">
        <ele>38</ele>
        <time>2026-09-10T09:47:30.000Z</time>
        <extensions>
          <ns3:TrackPointExtension>
            <ns3:hr>92</ns3:hr>
          </ns3:TrackPointExtension>
        </extensions>
      </trkpt>
      <trkpt lat="39.957606308162212371826171875" lon="116.4589383266866207122802734375">
        <ele>37.799999237060546875</ele>
        <time>2026-09-10T09:47:34.000Z</time>
        <extensions>
          <ns3:TrackPointExtension>
            <ns3:hr>92</ns3:hr>
          </ns3:TrackPointExtension>
        </extensions>
      </trkpt>
      <trkpt lat="39.95756062678992748260498046875" lon="116.4589225687086582183837890625">
        <ele>37.799999237060546875</ele>
        <time>2026-09-10T09:47:38.000Z</time>
        <extensions>
          <ns3:TrackPointExtension>
            <ns3:hr>91</ns3:hr>
          </ns3:TrackPointExtension>
        </extensions>
      </trkpt>
      <trkpt lat="39.9574579484760761260986328125" lon="116.4587753824889659881591796875">
        <ele>37.799999237060546875</ele>
        <time>2026-09-10T09:47:43.000Z</time>
        <extensions>
          <ns3:TrackPointExtension>
            <ns3:hr>91</ns3:hr>
          </ns3:TrackPointExtension>
        </extensions>
      </trkpt>
      <trkpt lat="39.95743095874786376953125" lon="116.45874529145658016204833984375">
        <ele>37.59999847412109375</ele>
        <time>2026-09-10T09:47:44.000Z</time>
        <extensions>
          <ns3:TrackPointExtension>
            <ns3:hr>91</ns3:hr>
          </ns3:TrackPointExtension>
        </extensions>
      </trkpt>
      <trkpt lat="39.95733951218426227569580078125" lon="116.458618640899658203125">
        <ele>37.59999847412109375</ele>
        <time>2026-09-10T09:47:48.000Z</time>
        <extensions>
          <ns3:TrackPointExtension>
            <ns3:hr>93</ns3:hr>
          </ns3:TrackPointExtension>
        </extensions>
      </trkpt>
      <trkpt lat="39.95729525573551654815673828125" lon="116.45856156013906002044677734375">
        <ele>37.59999847412109375</ele>
        <time>2026-09-10T09:47:50.000Z</time>
        <extensions>
          <ns3:TrackPointExtension>
            <ns3:hr>97</ns3:hr>
          </ns3:TrackPointExtension>
        </extensions>
      </trkpt>
      <trkpt lat="39.957190565764904022216796875" lon="116.458445973694324493408203125">
        <ele>37.59999847412109375</ele>
        <time>2026-09-10T09:47:54.000Z</time>
        <extensions>
          <ns3:TrackPointExtension>
            <ns3:hr>96</ns3:hr>
          </ns3:TrackPointExtension>
        </extensions>
      </trkpt>
      <trkpt lat="39.957034997642040252685546875" lon="116.45829400978982448577880859375">
        <ele>37.40000152587890625</ele>
        <time>2026-09-10T09:48:00.000Z</time>
        <extensions>
          <ns3:TrackPointExtension>
            <ns3:hr>91</ns3:hr>
          </ns3:TrackPointExtension>
        </extensions>
      </trkpt>
      <trkpt lat="39.95693684555590152740478515625" lon="116.45817917771637439727783203125">
        <ele>37.40000152587890625</ele>
        <time>2026-09-10T09:48:05.000Z</time>
        <extensions>
          <ns3:TrackPointExtension>
            <ns3:hr>92</ns3:hr>
          </ns3:TrackPointExtension>
        </extensions>
      </trkpt>
      <trkpt lat="39.95690080337226390838623046875" lon="116.4581269584596157073974609375">
        <ele>37.59999847412109375</ele>
        <time>2026-09-10T09:48:07.000Z</time>
        <extensions>
          <ns3:TrackPointExtension>
            <ns3:hr>92</ns3:hr>
          </ns3:TrackPointExtension>
        </extensions>
      </trkpt>
    </trkseg>
  </trk>
</gpx>
