<?xml version="1.0" encoding="UTF-8"?>
<gpx creator="Garmin Connect" version="1.1"
  xsi:schemaLocation="http://www.topografix.com/GPX/1/1 http://www.topografix.com/GPX/11.xsd"
  xmlns:ns3="http://www.garmin.com/xmlschemas/TrackPointExtension/v1"
  xmlns="http://www.topografix.com/GPX/1/1"
  xmlns:xsi="http://www.w3.org/2001/XMLSchema-instance" xmlns:ns2="http://www.garmin.com/xmlschemas/GpxExtensions/v3">
  <metadata>
    <link href="connect.garmin.com">
      <text>Garmin Connect</text>
    </link>
    <time>2026-09-19T09:47:49.000Z</time>
  </metadata>
  <trk>
    <name>厦门市 骑行</name>
    <type>cycling</type>
    <trkseg>
      <trkpt lat="24.5011101476848125457763671875" lon="118.14520633779466152191162109375">
        <ele>16.200000762939453125</ele>
        <time>2026-09-19T09:47:49.000Z</time>
        <extensions>
          <ns3:TrackPointExtension>
            <ns3:hr>98</ns3:hr>
          </ns3:TrackPointExtension>
        </extensions>
      </trkpt>
      <trkpt lat="24.50105122290551662445068359375" lon="118.14511715434491634368896484375">
        <ele>16</ele>
        <time>2026-09-19T09:47:54.000Z</time>
        <extensions>
          <ns3:TrackPointExtension>
            <ns3:hr>97</ns3:hr>
          </ns3:TrackPointExtension>
        </extensions>
      </trkpt>
      <trkpt lat="24.50102590955793857574462890625" lon="118.144970722496509552001953125">
        <ele>16.200000762939453125</ele>
        <time>2026-09-19T09:47:59.000Z</time>
        <extensions>
          <ns3:TrackPointExtension>
            <ns3:hr>95</ns3:hr>
          </ns3:TrackPointExtension>
        </extensions>
      </trkpt>
      <trkpt lat="24.5010233111679553985595703125" lon="118.14474734477698802947998046875">
        <ele>16</ele>
        <time>2026-09-19T09:48:05.000Z</time>
        <extensions>
          <ns3:TrackPointExtension>
            <ns3:hr>95</ns3:hr>
          </ns3:TrackPointExtension>
        </extensions>
      </trkpt>
      <trkpt lat="24.5010035298764705657958984375" lon="118.14450611360371112823486328125">
        <ele>15.80000019073486328125</ele>
        <time>2026-09-19T09:48:11.000Z</time>
        <extensions>
          <ns3:TrackPointExtension>
            <ns3:hr>96</ns3:hr>
          </ns3:TrackPointExtension>
        </extensions>
      </trkpt>
      <trkpt lat="24.5009817369282245635986328125" lon="118.14420838840305805206298828125">
        <ele>15.80000019073486328125</ele>
        <time>2026-09-19T09:48:18.000Z</time>
        <extensions>
          <ns3:TrackPointExtension>
            <ns3:hr>97</ns3:hr>
          </ns3:TrackPointExtension>
        </extensions>
      </trkpt>
      <trkpt lat="24.5010499656200408935546875" lon="118.1440981663763523101806640625">
        <ele>15.6000003814697265625</ele>
        <time>2026-09-19T09:48:23.000Z</time>
        <extensions>
          <ns3:TrackPointExtension>
            <ns3:hr>94</ns3:hr>
          </ns3:TrackPointExtension>
        </extensions>
      </trkpt>
      <trkpt lat="24.5010668970644474029541015625" lon="118.1440793909132480621337890625">
        <ele>15.6000003814697265625</ele>
        <time>2026-09-19T09:48:25.000Z</time>
        <extensions>
          <ns3:TrackPointExtension>
            <ns3:hr>93</ns3:hr>
          </ns3:TrackPointExtension>
        </extensions>
      </trkpt>
      <trkpt lat="24.5010796375572681427001953125" lon="118.144062794744968414306640625">
        <ele>15.6000003814697265625</ele>
        <time>2026-09-19T09:48:26.000Z</time>
        <extensions>
          <ns3:TrackPointExtension>
            <ns3:hr>93</ns3:hr>
          </ns3:TrackPointExtension>
        </extensions>
      </trkpt>
      <trkpt lat="24.5010987482964992523193359375" lon="118.1440503895282745361328125">
        <ele>15.3999996185302734375</ele>
        <time>2026-09-19T09:48:27.000Z</time>
        <extensions>
          <ns3:TrackPointExtension>
            <ns3:hr>93</ns3:hr>
          </ns3:TrackPointExtension>
        </extensions>
      </trkpt>
      <trkpt lat="24.50118667446076869964599609375" lon="118.14399381168186664581298828125">
        <ele>15.6000003814697265625</ele>
        <time>2026-09-19T09:48:31.000Z</time>
        <extensions>
          <ns3:TrackPointExtension>
            <ns3:hr>93</ns3:hr>
          </ns3:TrackPointExtension>
        </extensions>
      </trkpt>
      <trkpt lat="24.50132279656827449798583984375" lon="118.143960535526275634765625">
        <ele>15.80000019073486328125</ele>
        <time>2026-09-19T09:48:37.000Z</time>
        <extensions>
          <ns3:TrackPointExtension>
            <ns3:hr>91</ns3:hr>
          </ns3:TrackPointExtension>
        </extensions>
      </trkpt>
      <trkpt lat="24.5014430768787860870361328125" lon="118.1439781375229358673095703125">
        <ele>15.6000003814697265625</ele>
        <time>2026-09-19T09:48:42.000Z</time>
        <extensions>
          <ns3:TrackPointExtension>
            <ns3:hr>89</ns3:hr>
          </ns3:TrackPointExtension>
        </extensions>
      </trkpt>
      <trkpt lat="24.501692019402980804443359375" lon="118.1439630500972270965576171875">
        <ele>15.80000019073486328125</ele>
        <time>2026-09-19T09:48:49.000Z</time>
        <extensions>
          <ns3:TrackPointExtension>
            <ns3:hr>89</ns3:hr>
          </ns3:TrackPointExtension>
        </extensions>
      </trkpt>
      <trkpt lat="24.5017220266163349151611328125" lon="118.1439824961125850677490234375">
        <ele>15.80000019073486328125</ele>
        <time>2026-09-19T09:48:50.000Z</time>
        <extensions>
          <ns3:TrackPointExtension>
            <ns3:hr>89</ns3:hr>
          </ns3:TrackPointExtension>
        </extensions>
      </trkpt>
      <trkpt lat="24.50172982178628444671630859375" lon="118.14403287135064601898193359375">
        <ele>15.80000019073486328125</ele>
        <time>2026-09-19T09:48:52.000Z</time>
        <extensions>
          <ns3:TrackPointExtension>
            <ns3:hr>89</ns3:hr>
          </ns3:TrackPointExtension>
        </extensions>
      </trkpt>
      <trkpt lat="24.50182118453085422515869140625" lon="118.14415155909955501556396484375">
        <ele>16.3999996185302734375</ele>
        <time>2026-09-19T09:48:56.000Z</time>
        <extensions>
          <ns3:TrackPointExtension>
            <ns3:hr>89</ns3:hr>
          </ns3:TrackPointExtension>
        </extensions>
      </trkpt>
      <trkpt lat="24.50195998884737491607666015625" lon="118.144159018993377685546875">
        <ele>16</ele>
        <time>2026-09-19T09:49:00.000Z</time>
        <extensions>
          <ns3:TrackPointExtension>
            <ns3:hr>90</ns3:hr>
          </ns3:TrackPointExtension>
        </extensions>
      </trkpt>
      <trkpt lat="24.502063505351543426513671875" lon="118.14413110725581645965576171875">
        <ele>16.6000003814697265625</ele>
        <time>2026-09-19T09:49:03.000Z</time>
        <extensions>
          <ns3:TrackPointExtension>
            <ns3:hr>93</ns3:hr>
          </ns3:TrackPointExtension>
        </extensions>
      </trkpt>
      <trkpt lat="24.50209644623100757598876953125" lon="118.14412423409521579742431640625">
        <ele>16.799999237060546875</ele>
        <time>2026-09-19T09:49:04.000Z</time>
        <extensions>
          <ns3:TrackPointExtension>
            <ns3:hr>99</ns3:hr>
          </ns3:TrackPointExtension>
        </extensions>
      </trkpt>
      <trkpt lat="24.502127878367900848388671875" lon="118.14411451108753681182861328125">
        <ele>17</ele>
        <time>2026-09-19T09:49:05.000Z</time>
        <extensions>
          <ns3:TrackPointExtension>
            <ns3:hr>107</ns3:hr>
          </ns3:TrackPointExtension>
        </extensions>
      </trkpt>
      <trkpt lat="24.50216115452349185943603515625" lon="118.14410545863211154937744140625">
        <ele>17</ele>
        <time>2026-09-19T09:49:06.000Z</time>
        <extensions>
          <ns3:TrackPointExtension>
            <ns3:hr>110</ns3:hr>
          </ns3:TrackPointExtension>
        </extensions>
      </trkpt>
      <trkpt lat="24.50219535268843173980712890625" lon="118.144098334014415740966796875">
        <ele>17</ele>
        <time>2026-09-19T09:49:07.000Z</time>
        <extensions>
          <ns3:TrackPointExtension>
            <ns3:hr>112</ns3:hr>
          </ns3:TrackPointExtension>
        </extensions>
      </trkpt>
      <trkpt lat="24.5024043135344982147216796875" lon="118.14403362572193145751953125">
        <ele>16.799999237060546875</ele>
        <time>2026-09-19T09:49:13.000Z</time>
        <extensions>
          <ns3:TrackPointExtension>
            <ns3:hr>114</ns3:hr>
          </ns3:TrackPointExtension>
        </extensions>
      </trkpt>
      <trkpt lat="24.50263917446136474609375" lon="118.144024908542633056640625">
        <ele>16.6000003814697265625</ele>
        <time>2026-09-19T09:49:19.000Z</time>
        <extensions>
          <ns3:TrackPointExtension>
            <ns3:hr>111</ns3:hr>
          </ns3:TrackPointExtension>
        </extensions>
      </trkpt>
      <trkpt lat="24.502677060663700103759765625" lon="118.14402616582810878753662109375">
        <ele>16.6000003814697265625</ele>
        <time>2026-09-19T09:49:20.000Z</time>
        <extensions>
          <ns3:TrackPointExtension>
            <ns3:hr>110</ns3:hr>
          </ns3:TrackPointExtension>
        </extensions>
      </trkpt>
      <trkpt lat="24.5028354786336421966552734375" lon="118.14403706230223178863525390625">
        <ele>16.799999237060546875</ele>
        <time>2026-09-19T09:49:24.000Z</time>
        <extensions>
          <ns3:TrackPointExtension>
            <ns3:hr>107</ns3:hr>
          </ns3:TrackPointExtension>
        </extensions>
      </trkpt>
      <trkpt lat="24.502962045371532440185546875" lon="118.1440477073192596435546875">
        <ele>16.6000003814697265625</ele>
        <time>2026-09-19T09:49:27.000Z</time>
        <extensions>
          <ns3:TrackPointExtension>
            <ns3:hr>106</ns3:hr>
          </ns3:TrackPointExtension>
        </extensions>
      </trkpt>
      <trkpt lat="24.50325733982026576995849609375" lon="118.14406472258269786834716796875">
        <ele>16.799999237060546875</ele>
        <time>2026-09-19T09:49:34.000Z</time>
        <extensions>
          <ns3:TrackPointExtension>
            <ns3:hr>106</ns3:hr>
          </ns3:TrackPointExtension>
        </extensions>
      </trkpt>
      <trkpt lat="24.50348633341491222381591796875" lon="118.1440706737339496612548828125">
        <ele>16.200000762939453125</ele>
        <time>2026-09-19T09:49:39.000Z</time>
        <extensions>
          <ns3:TrackPointExtension>
            <ns3:hr>102</ns3:hr>
          </ns3:TrackPointExtension>
        </extensions>
      </trkpt>
      <trkpt lat="24.50363201089203357696533203125" lon="118.14406857825815677642822265625">
        <ele>16.200000762939453125</ele>
        <time>2026-09-19T09:49:42.000Z</time>
        <extensions>
          <ns3:TrackPointExtension>
            <ns3:hr>100</ns3:hr>
          </ns3:TrackPointExtension>
        </extensions>
      </trkpt>
      <trkpt lat="24.50409737415611743927001953125" lon="118.14410478807985782623291015625">
        <ele>15.3999996185302734375</ele>
        <time>2026-09-19T09:49:51.000Z</time>
        <extensions>
          <ns3:TrackPointExtension>
            <ns3:hr>103</ns3:hr>
          </ns3:TrackPointExtension>
        </extensions>
      </trkpt>
      <trkpt lat="24.50415085069835186004638671875" lon="118.14410679973661899566650390625">
        <ele>15.19999980926513671875</ele>
        <time>2026-09-19T09:49:52.000Z</time>
        <extensions>
          <ns3:TrackPointExtension>
            <ns3:hr>102</ns3:hr>
          </ns3:TrackPointExtension>
        </extensions>
      </trkpt>
      <trkpt lat="24.50420063920319080352783203125" lon="118.14411853440105915069580078125">
        <ele>15.19999980926513671875</ele>
        <time>2026-09-19T09:49:53.000Z</time>
        <extensions>
          <ns3:TrackPointExtension>
            <ns3:hr>102</ns3:hr>
          </ns3:TrackPointExtension>
        </extensions>
      </trkpt>
      <trkpt lat="24.50428068637847900390625" lon="118.14416647888720035552978515625">
        <ele>15</ele>
        <time>2026-09-19T09:49:55.000Z</time>
        <extensions>
          <ns3:TrackPointExtension>
            <ns3:hr>102</ns3:hr>
          </ns3:TrackPointExtension>
        </extensions>
      </trkpt>
      <trkpt lat="24.50430759228765964508056640625" lon="118.1442000903189182281494140625">
        <ele>14.80000019073486328125</ele>
        <time>2026-09-19T09:49:56.000Z</time>
        <extensions>
          <ns3:TrackPointExtension>
            <ns3:hr>102</ns3:hr>
          </ns3:TrackPointExtension>
        </extensions>
      </trkpt>
      <trkpt lat="24.504322595894336700439453125" lon="118.1442373059689998626708984375">
        <ele>14.80000019073486328125</ele>
        <time>2026-09-19T09:49:57.000Z</time>
        <extensions>
          <ns3:TrackPointExtension>
            <ns3:hr>102</ns3:hr>
          </ns3:TrackPointExtension>
        </extensions>
      </trkpt>
      <trkpt lat="24.50432234443724155426025390625" lon="118.1443181075155735015869140625">
        <ele>14.80000019073486328125</ele>
        <time>2026-09-19T09:49:59.000Z</time>
        <extensions>
          <ns3:TrackPointExtension>
            <ns3:hr>102</ns3:hr>
          </ns3:TrackPointExtension>
        </extensions>
      </trkpt>
      <trkpt lat="24.5043160580098628997802734375" lon="118.14451617188751697540283203125">
        <ele>15</ele>
        <time>2026-09-19T09:50:04.000Z</time>
        <extensions>
          <ns3:TrackPointExtension>
            <ns3:hr>99</ns3:hr>
          </ns3:TrackPointExtension>
        </extensions>
      </trkpt>
      <trkpt lat="24.50431354343891143798828125" lon="118.14460569061338901519775390625">
        <ele>15</ele>
        <time>2026-09-19T09:50:06.000Z</time>
        <extensions>
          <ns3:TrackPointExtension>
            <ns3:hr>99</ns3:hr>
          </ns3:TrackPointExtension>
        </extensions>
      </trkpt>
      <trkpt lat="24.50435637496411800384521484375" lon="118.14492437057197093963623046875">
        <ele>15.19999980926513671875</ele>
        <time>2026-09-19T09:50:13.000Z</time>
        <extensions>
          <ns3:TrackPointExtension>
            <ns3:hr>97</ns3:hr>
          </ns3:TrackPointExtension>
        </extensions>
      </trkpt>
      <trkpt lat="24.50448210351169109344482421875" lon="118.1450587324798107147216796875">
        <ele>15.3999996185302734375</ele>
        <time>2026-09-19T09:50:18.000Z</time>
        <extensions>
          <ns3:TrackPointExtension>
            <ns3:hr>98</ns3:hr>
          </ns3:TrackPointExtension>
        </extensions>
      </trkpt>
      <trkpt lat="24.50452602468430995941162109375" lon="118.145065605640411376953125">
        <ele>15.19999980926513671875</ele>
        <time>2026-09-19T09:50:19.000Z</time>
        <extensions>
          <ns3:TrackPointExtension>
            <ns3:hr>97</ns3:hr>
          </ns3:TrackPointExtension>
        </extensions>
      </trkpt>
      <trkpt lat="24.5046144537627696990966796875" lon="118.145081363618373870849609375">
        <ele>15.19999980926513671875</ele>
        <time>2026-09-19T09:50:21.000Z</time>
        <extensions>
          <ns3:TrackPointExtension>
            <ns3:hr>97</ns3:hr>
          </ns3:TrackPointExtension>
        </extensions>
      </trkpt>
      <trkpt lat="24.50470003299415111541748046875" lon="118.1450910866260528564453125">
        <ele>15.19999980926513671875</ele>
        <time>2026-09-19T09:50:23.000Z</time>
        <extensions>
          <ns3:TrackPointExtension>
            <ns3:hr>97</ns3:hr>
          </ns3:TrackPointExtension>
        </extensions>
      </trkpt>
      <trkpt lat="24.5050191320478916168212890625" lon="118.14510106109082698822021484375">
        <ele>14.80000019073486328125</ele>
        <time>2026-09-19T09:50:31.000Z</time>
        <extensions>
          <ns3:TrackPointExtension>
            <ns3:hr>95</ns3:hr>
          </ns3:TrackPointExtension>
        </extensions>
      </trkpt>
      <trkpt lat="24.50505995191633701324462890625" lon="118.14511246047914028167724609375">
        <ele>14.6000003814697265625</ele>
        <time>2026-09-19T09:50:32.000Z</time>
        <extensions>
          <ns3:TrackPointExtension>
            <ns3:hr>94</ns3:hr>
          </ns3:TrackPointExtension>
        </extensions>
      </trkpt>
      <trkpt lat="24.505184255540370941162109375" lon="118.145176582038402557373046875">
        <ele>14</ele>
        <time>2026-09-19T09:50:35.000Z</time>
        <extensions>
          <ns3:TrackPointExtension>
            <ns3:hr>93</ns3:hr>
          </ns3:TrackPointExtension>
        </extensions>
      </trkpt>
      <trkpt lat="24.50530327856540679931640625" lon="118.14525000751018524169921875">
        <ele>14</ele>
        <time>2026-09-19T09:50:38.000Z</time>
        <extensions>
          <ns3:TrackPointExtension>
            <ns3:hr>93</ns3:hr>
          </ns3:TrackPointExtension>
        </extensions>
      </trkpt>
      <trkpt lat="24.50539824552834033966064453125" lon="118.145367018878459930419921875">
        <ele>14.19999980926513671875</ele>
        <time>2026-09-19T09:50:41.000Z</time>
        <extensions>
          <ns3:TrackPointExtension>
            <ns3:hr>93</ns3:hr>
          </ns3:TrackPointExtension>
        </extensions>
      </trkpt>
      <trkpt lat="24.50546496547758579254150390625" lon="118.14553457312285900115966796875">
        <ele>13.6000003814697265625</ele>
        <time>2026-09-19T09:50:44.000Z</time>
        <extensions>
          <ns3:TrackPointExtension>
            <ns3:hr>90</ns3:hr>
          </ns3:TrackPointExtension>
        </extensions>
      </trkpt>
      <trkpt lat="24.50550586916506290435791015625" lon="118.14558134414255619049072265625">
        <ele>13.3999996185302734375</ele>
        <time>2026-09-19T09:50:45.000Z</time>
        <extensions>
          <ns3:TrackPointExtension>
            <ns3:hr>87</ns3:hr>
          </ns3:TrackPointExtension>
        </extensions>
      </trkpt>
      <trkpt lat="24.50555113144218921661376953125" lon="118.14562308602035045623779296875">
        <ele>13.19999980926513671875</ele>
        <time>2026-09-19T09:50:46.000Z</time>
        <extensions>
          <ns3:TrackPointExtension>
            <ns3:hr>87</ns3:hr>
          </ns3:TrackPointExtension>
        </extensions>
      </trkpt>
      <trkpt lat="24.505648277699947357177734375" lon="118.14567874185740947723388671875">
        <ele>13.3999996185302734375</ele>
        <time>2026-09-19T09:50:48.000Z</time>
        <extensions>
          <ns3:TrackPointExtension>
            <ns3:hr>86</ns3:hr>
          </ns3:TrackPointExtension>
        </extensions>
      </trkpt>
      <trkpt lat="24.505697228014469146728515625" lon="118.14569056034088134765625">
        <ele>13.19999980926513671875</ele>
        <time>2026-09-19T09:50:49.000Z</time>
        <extensions>
          <ns3:TrackPointExtension>
            <ns3:hr>86</ns3:hr>
          </ns3:TrackPointExtension>
        </extensions>
      </trkpt>
      <trkpt lat="24.5058033429086208343505859375" lon="118.14569952897727489471435546875">
        <ele>13</ele>
        <time>2026-09-19T09:50:51.000Z</time>
        <extensions>
          <ns3:TrackPointExtension>
            <ns3:hr>85</ns3:hr>
          </ns3:TrackPointExtension>
        </extensions>
      </trkpt>
      <trkpt lat="24.50585472397506237030029296875" lon="118.14570070244371891021728515625">
        <ele>13</ele>
        <time>2026-09-19T09:50:52.000Z</time>
        <extensions>
          <ns3:TrackPointExtension>
            <ns3:hr>85</ns3:hr>
          </ns3:TrackPointExtension>
        </extensions>
      </trkpt>
      <trkpt lat="24.50590216554701328277587890625" lon="118.1457068212330341339111328125">
        <ele>13</ele>
        <time>2026-09-19T09:50:53.000Z</time>
        <extensions>
          <ns3:TrackPointExtension>
            <ns3:hr>86</ns3:hr>
          </ns3:TrackPointExtension>
        </extensions>
      </trkpt>
      <trkpt lat="24.5061785168945789337158203125" lon="118.14571863971650600433349609375">
        <ele>13</ele>
        <time>2026-09-19T09:50:59.000Z</time>
        <extensions>
          <ns3:TrackPointExtension>
            <ns3:hr>85</ns3:hr>
          </ns3:TrackPointExtension>
        </extensions>
      </trkpt>
      <trkpt lat="24.5064232684671878814697265625" lon="118.14572266303002834320068359375">
        <ele>13.19999980926513671875</ele>
        <time>2026-09-19T09:51:05.000Z</time>
        <extensions>
          <ns3:TrackPointExtension>
            <ns3:hr>86</ns3:hr>
          </ns3:TrackPointExtension>
        </extensions>
      </trkpt>
      <trkpt lat="24.50645050965249538421630859375" lon="118.14574244432151317596435546875">
        <ele>13.19999980926513671875</ele>
        <time>2026-09-19T09:51:06.000Z</time>
        <extensions>
          <ns3:TrackPointExtension>
            <ns3:hr>85</ns3:hr>
          </ns3:TrackPointExtension>
        </extensions>
      </trkpt>
      <trkpt lat="24.5064628310501575469970703125" lon="118.14581503160297870635986328125">
        <ele>13</ele>
        <time>2026-09-19T09:51:08.000Z</time>
        <extensions>
          <ns3:TrackPointExtension>
            <ns3:hr>86</ns3:hr>
          </ns3:TrackPointExtension>
        </extensions>
      </trkpt>
      <trkpt lat="24.5064990408718585968017578125" lon="118.1460192985832691192626953125">
        <ele>12.80000019073486328125</ele>
        <time>2026-09-19T09:51:13.000Z</time>
        <extensions>
          <ns3:TrackPointExtension>
            <ns3:hr>87</ns3:hr>
          </ns3:TrackPointExtension>
        </extensions>
      </trkpt>
      <trkpt lat="24.5065028965473175048828125" lon="118.1460682488977909088134765625">
        <ele>12.80000019073486328125</ele>
        <time>2026-09-19T09:51:14.000Z</time>
        <extensions>
          <ns3:TrackPointExtension>
            <ns3:hr>87</ns3:hr>
          </ns3:TrackPointExtension>
        </extensions>
      </trkpt>
      <trkpt lat="24.50650130398571491241455078125" lon="118.1462647207081317901611328125">
        <ele>12.6000003814697265625</ele>
        <time>2026-09-19T09:51:18.000Z</time>
        <extensions>
          <ns3:TrackPointExtension>
            <ns3:hr>92</ns3:hr>
          </ns3:TrackPointExtension>
        </extensions>
      </trkpt>
      <trkpt lat="24.50649141333997249603271484375" lon="118.14652045257389545440673828125">
        <ele>12.6000003814697265625</ele>
        <time>2026-09-19T09:51:23.000Z</time>
        <extensions>
          <ns3:TrackPointExtension>
            <ns3:hr>95</ns3:hr>
          </ns3:TrackPointExtension>
        </extensions>
      </trkpt>
      <trkpt lat="24.50648076832294464111328125" lon="118.1467258930206298828125">
        <ele>12.19999980926513671875</ele>
        <time>2026-09-19T09:51:27.000Z</time>
        <extensions>
          <ns3:TrackPointExtension>
            <ns3:hr>98</ns3:hr>
          </ns3:TrackPointExtension>
        </extensions>
      </trkpt>
      <trkpt lat="24.506477415561676025390625" lon="118.1468881666660308837890625">
        <ele>12.19999980926513671875</ele>
        <time>2026-09-19T09:51:30.000Z</time>
        <extensions>
          <ns3:TrackPointExtension>
            <ns3:hr>98</ns3:hr>
          </ns3:TrackPointExtension>
        </extensions>
      </trkpt>
      <trkpt lat="24.50647464953362941741943359375" lon="118.14709595404565334320068359375">
        <ele>12</ele>
        <time>2026-09-19T09:51:34.000Z</time>
        <extensions>
          <ns3:TrackPointExtension>
            <ns3:hr>98</ns3:hr>
          </ns3:TrackPointExtension>
        </extensions>
      </trkpt>
      <trkpt lat="24.50647532008588314056396484375" lon="118.14720039255917072296142578125">
        <ele>12</ele>
        <time>2026-09-19T09:51:36.000Z</time>
        <extensions>
          <ns3:TrackPointExtension>
            <ns3:hr>98</ns3:hr>
          </ns3:TrackPointExtension>
        </extensions>
      </trkpt>
      <trkpt lat="24.5064460672438144683837890625" lon="118.147635497152805328369140625">
        <ele>11.80000019073486328125</ele>
        <time>2026-09-19T09:51:44.000Z</time>
        <extensions>
          <ns3:TrackPointExtension>
            <ns3:hr>100</ns3:hr>
          </ns3:TrackPointExtension>
        </extensions>
      </trkpt>
      <trkpt lat="24.50643944554030895233154296875" lon="118.1479610502719879150390625">
        <ele>11.80000019073486328125</ele>
        <time>2026-09-19T09:51:50.000Z</time>
        <extensions>
          <ns3:TrackPointExtension>
            <ns3:hr>100</ns3:hr>
          </ns3:TrackPointExtension>
        </extensions>
      </trkpt>
      <trkpt lat="24.50642553158104419708251953125" lon="118.1483226455748081207275390625">
        <ele>11.3999996185302734375</ele>
        <time>2026-09-19T09:51:57.000Z</time>
        <extensions>
          <ns3:TrackPointExtension>
            <ns3:hr>101</ns3:hr>
          </ns3:TrackPointExtension>
        </extensions>
      </trkpt>
      <trkpt lat="24.50641580857336521148681640625" lon="118.148543424904346466064453125">
        <ele>11.3999996185302734375</ele>
        <time>2026-09-19T09:52:02.000Z</time>
        <extensions>
          <ns3:TrackPointExtension>
            <ns3:hr>101</ns3:hr>
          </ns3:TrackPointExtension>
        </extensions>
      </trkpt>
      <trkpt lat="24.50639518909156322479248046875" lon="118.14891650341451168060302734375">
        <ele>11.3999996185302734375</ele>
        <time>2026-09-19T09:52:09.000Z</time>
        <extensions>
          <ns3:TrackPointExtension>
            <ns3:hr>103</ns3:hr>
          </ns3:TrackPointExtension>
        </extensions>
      </trkpt>
      <trkpt lat="24.5064008049666881561279296875" lon="118.1490770168602466583251953125">
        <ele>11.19999980926513671875</ele>
        <time>2026-09-19T09:52:12.000Z</time>
        <extensions>
          <ns3:TrackPointExtension>
            <ns3:hr>106</ns3:hr>
          </ns3:TrackPointExtension>
        </extensions>
      </trkpt>
      <trkpt lat="24.50639066286385059356689453125" lon="118.1492999754846096038818359375">
        <ele>11</ele>
        <time>2026-09-19T09:52:16.000Z</time>
        <extensions>
          <ns3:TrackPointExtension>
            <ns3:hr>108</ns3:hr>
          </ns3:TrackPointExtension>
        </extensions>
      </trkpt>
      <trkpt lat="24.50638915412127971649169921875" lon="118.1494149751961231231689453125">
        <ele>11</ele>
        <time>2026-09-19T09:52:18.000Z</time>
        <extensions>
          <ns3:TrackPointExtension>
            <ns3:hr>107</ns3:hr>
          </ns3:TrackPointExtension>
        </extensions>
      </trkpt>
      <trkpt lat="24.50639552436769008636474609375" lon="118.14970423467457294464111328125">
        <ele>10.80000019073486328125</ele>
        <time>2026-09-19T09:52:23.000Z</time>
        <extensions>
          <ns3:TrackPointExtension>
            <ns3:hr>107</ns3:hr>
          </ns3:TrackPointExtension>
        </extensions>
      </trkpt>
      <trkpt lat="24.5063820295035839080810546875" lon="118.15009717829525470733642578125">
        <ele>10.80000019073486328125</ele>
        <time>2026-09-19T09:52:30.000Z</time>
        <extensions>
          <ns3:TrackPointExtension>
            <ns3:hr>110</ns3:hr>
          </ns3:TrackPointExtension>
        </extensions>
      </trkpt>
      <trkpt lat="24.5063800178468227386474609375" lon="118.1504662334918975830078125">
        <ele>10.6000003814697265625</ele>
        <time>2026-09-19T09:52:37.000Z</time>
        <extensions>
          <ns3:TrackPointExtension>
            <ns3:hr>111</ns3:hr>
          </ns3:TrackPointExtension>
        </extensions>
      </trkpt>
      <trkpt lat="24.506393261253833770751953125" lon="118.15073453821241855621337890625">
        <ele>10.6000003814697265625</ele>
        <time>2026-09-19T09:52:43.000Z</time>
        <extensions>
          <ns3:TrackPointExtension>
            <ns3:hr>111</ns3:hr>
          </ns3:TrackPointExtension>
        </extensions>
      </trkpt>
      <trkpt lat="24.50641144998371601104736328125" lon="118.15076286904513835906982421875">
        <ele>10.6000003814697265625</ele>
        <time>2026-09-19T09:52:44.000Z</time>
        <extensions>
          <ns3:TrackPointExtension>
            <ns3:hr>111</ns3:hr>
          </ns3:TrackPointExtension>
        </extensions>
      </trkpt>
      <trkpt lat="24.50646710582077503204345703125" lon="118.15083696506917476654052734375">
        <ele>10.3999996185302734375</ele>
        <time>2026-09-19T09:52:47.000Z</time>
        <extensions>
          <ns3:TrackPointExtension>
            <ns3:hr>113</ns3:hr>
          </ns3:TrackPointExtension>
        </extensions>
      </trkpt>
      <trkpt lat="24.50655628927052021026611328125" lon="118.15094140358269214630126953125">
        <ele>10.3999996185302734375</ele>
        <time>2026-09-19T09:52:52.000Z</time>
        <extensions>
          <ns3:TrackPointExtension>
            <ns3:hr>111</ns3:hr>
          </ns3:TrackPointExtension>
        </extensions>
      </trkpt>
      <trkpt lat="24.50658210553228855133056640625" lon="118.1509651243686676025390625">
        <ele>10.19999980926513671875</ele>
        <time>2026-09-19T09:52:54.000Z</time>
        <extensions>
          <ns3:TrackPointExtension>
            <ns3:hr>111</ns3:hr>
          </ns3:TrackPointExtension>
        </extensions>
      </trkpt>
      <trkpt lat="24.5066277869045734405517578125" lon="118.1509736739099025726318359375">
        <ele>10</ele>
        <time>2026-09-19T09:52:56.000Z</time>
        <extensions>
          <ns3:TrackPointExtension>
            <ns3:hr>110</ns3:hr>
          </ns3:TrackPointExtension>
        </extensions>
      </trkpt>
      <trkpt lat="24.506654106080532073974609375" lon="118.15098465420305728912353515625">
        <ele>10</ele>
        <time>2026-09-19T09:52:57.000Z</time>
        <extensions>
          <ns3:TrackPointExtension>
            <ns3:hr>110</ns3:hr>
          </ns3:TrackPointExtension>
        </extensions>
      </trkpt>
      <trkpt lat="24.50679148547351360321044921875" lon="118.151036202907562255859375">
        <ele>9.80000019073486328125</ele>
        <time>2026-09-19T09:53:01.000Z</time>
        <extensions>
          <ns3:TrackPointExtension>
            <ns3:hr>109</ns3:hr>
          </ns3:TrackPointExtension>
        </extensions>
      </trkpt>
      <trkpt lat="24.50694638304412364959716796875" lon="118.15109009854495525360107421875">
        <ele>9.3999996185302734375</ele>
        <time>2026-09-19T09:53:05.000Z</time>
        <extensions>
          <ns3:TrackPointExtension>
            <ns3:hr>106</ns3:hr>
          </ns3:TrackPointExtension>
        </extensions>
      </trkpt>
      <trkpt lat="24.50708954595029354095458984375" lon="118.15115396864712238311767578125">
        <ele>9</ele>
        <time>2026-09-19T09:53:09.000Z</time>
        <extensions>
          <ns3:TrackPointExtension>
            <ns3:hr>105</ns3:hr>
          </ns3:TrackPointExtension>
        </extensions>
      </trkpt>
      <trkpt lat="24.50712089426815509796142578125" lon="118.15117609687149524688720703125">
        <ele>8.80000019073486328125</ele>
        <time>2026-09-19T09:53:10.000Z</time>
        <extensions>
          <ns3:TrackPointExtension>
            <ns3:hr>105</ns3:hr>
          </ns3:TrackPointExtension>
        </extensions>
      </trkpt>
      <trkpt lat="24.5072011090815067291259765625" lon="118.15128053538501262664794921875">
        <ele>8.3999996185302734375</ele>
        <time>2026-09-19T09:53:13.000Z</time>
        <extensions>
          <ns3:TrackPointExtension>
            <ns3:hr>104</ns3:hr>
          </ns3:TrackPointExtension>
        </extensions>
      </trkpt>
      <trkpt lat="24.50723581016063690185546875" lon="118.1513200141489505767822265625">
        <ele>8.3999996185302734375</ele>
        <time>2026-09-19T09:53:14.000Z</time>
        <extensions>
          <ns3:TrackPointExtension>
            <ns3:hr>104</ns3:hr>
          </ns3:TrackPointExtension>
        </extensions>
      </trkpt>
      <trkpt lat="24.50731535442173480987548828125" lon="118.1513790227472782135009765625">
        <ele>8.6000003814697265625</ele>
        <time>2026-09-19T09:53:16.000Z</time>
        <extensions>
          <ns3:TrackPointExtension>
            <ns3:hr>102</ns3:hr>
          </ns3:TrackPointExtension>
        </extensions>
      </trkpt>
      <trkpt lat="24.507360197603702545166015625" lon="118.15139939077198505401611328125">
        <ele>8.6000003814697265625</ele>
        <time>2026-09-19T09:53:17.000Z</time>
        <extensions>
          <ns3:TrackPointExtension>
            <ns3:hr>102</ns3:hr>
          </ns3:TrackPointExtension>
        </extensions>
      </trkpt>
      <trkpt lat="24.50740705244243144989013671875" lon="118.15141431055963039398193359375">
        <ele>8.3999996185302734375</ele>
        <time>2026-09-19T09:53:18.000Z</time>
        <extensions>
          <ns3:TrackPointExtension>
            <ns3:hr>102</ns3:hr>
          </ns3:TrackPointExtension>
        </extensions>
      </trkpt>
      <trkpt lat="24.50760117731988430023193359375" lon="118.15145269967615604400634765625">
        <ele>8</ele>
        <time>2026-09-19T09:53:22.000Z</time>
        <extensions>
          <ns3:TrackPointExtension>
            <ns3:hr>102</ns3:hr>
          </ns3:TrackPointExtension>
        </extensions>
      </trkpt>
      <trkpt lat="24.50785347260534763336181640625" lon="118.15148589201271533966064453125">
        <ele>8.19999980926513671875</ele>
        <time>2026-09-19T09:53:28.000Z</time>
        <extensions>
          <ns3:TrackPointExtension>
            <ns3:hr>101</ns3:hr>
          </ns3:TrackPointExtension>
        </extensions>
      </trkpt>
      <trkpt lat="24.50809118337929248809814453125" lon="118.15151757560670375823974609375">
        <ele>7.599999904632568359375</ele>
        <time>2026-09-19T09:53:34.000Z</time>
        <extensions>
          <ns3:TrackPointExtension>
            <ns3:hr>101</ns3:hr>
          </ns3:TrackPointExtension>
        </extensions>
      </trkpt>
      <trkpt lat="24.50813560746610164642333984375" lon="118.151519335806369781494140625">
        <ele>7.599999904632568359375</ele>
        <time>2026-09-19T09:53:35.000Z</time>
        <extensions>
          <ns3:TrackPointExtension>
            <ns3:hr>101</ns3:hr>
          </ns3:TrackPointExtension>
        </extensions>
      </trkpt>
      <trkpt lat="24.5084620825946331024169921875" lon="118.15152746625244617462158203125">
        <ele>7</ele>
        <time>2026-09-19T09:53:42.000Z</time>
        <extensions>
          <ns3:TrackPointExtension>
            <ns3:hr>98</ns3:hr>
          </ns3:TrackPointExtension>
        </extensions>
      </trkpt>
      <trkpt lat="24.50865176506340503692626953125" lon="118.1515245325863361358642578125">
        <ele>6.80000019073486328125</ele>
        <time>2026-09-19T09:53:46.000Z</time>
        <extensions>
          <ns3:TrackPointExtension>
            <ns3:hr>96</ns3:hr>
          </ns3:TrackPointExtension>
        </extensions>
      </trkpt>
      <trkpt lat="24.50873038731515407562255859375" lon="118.151515983045101165771484375">
        <ele>6.599999904632568359375</ele>
        <time>2026-09-19T09:53:48.000Z</time>
        <extensions>
          <ns3:TrackPointExtension>
            <ns3:hr>94</ns3:hr>
          </ns3:TrackPointExtension>
        </extensions>
      </trkpt>
      <trkpt lat="24.50877129100263118743896484375" lon="118.15150148235261440277099609375">
        <ele>6.400000095367431640625</ele>
        <time>2026-09-19T09:53:49.000Z</time>
        <extensions>
          <ns3:TrackPointExtension>
            <ns3:hr>92</ns3:hr>
          </ns3:TrackPointExtension>
        </extensions>
      </trkpt>
      <trkpt lat="24.5088168047368526458740234375" lon="118.15149745903909206390380859375">
        <ele>6.400000095367431640625</ele>
        <time>2026-09-19T09:53:50.000Z</time>
        <extensions>
          <ns3:TrackPointExtension>
            <ns3:hr>89</ns3:hr>
          </ns3:TrackPointExtension>
        </extensions>
      </trkpt>
      <trkpt lat="24.50886416248977184295654296875" lon="118.151499219238758087158203125">
        <ele>6.19999980926513671875</ele>
        <time>2026-09-19T09:53:51.000Z</time>
        <extensions>
          <ns3:TrackPointExtension>
            <ns3:hr>88</ns3:hr>
          </ns3:TrackPointExtension>
        </extensions>
      </trkpt>
      <trkpt lat="24.50891017913818359375" lon="118.1514956988394260406494140625">
        <ele>6.19999980926513671875</ele>
        <time>2026-09-19T09:53:52.000Z</time>
        <extensions>
          <ns3:TrackPointExtension>
            <ns3:hr>87</ns3:hr>
          </ns3:TrackPointExtension>
        </extensions>
      </trkpt>
      <trkpt lat="24.5091768912971019744873046875" lon="118.15146259032189846038818359375">
        <ele>5.400000095367431640625</ele>
        <time>2026-09-19T09:53:58.000Z</time>
        <extensions>
          <ns3:TrackPointExtension>
            <ns3:hr>85</ns3:hr>
          </ns3:TrackPointExtension>
        </extensions>
      </trkpt>
      <trkpt lat="24.509468413889408111572265625" lon="118.15139234997332096099853515625">
        <ele>5.19999980926513671875</ele>
        <time>2026-09-19T09:54:04.000Z</time>
        <extensions>
          <ns3:TrackPointExtension>
            <ns3:hr>88</ns3:hr>
          </ns3:TrackPointExtension>
        </extensions>
      </trkpt>
      <trkpt lat="24.50973294675350189208984375" lon="118.151302076876163482666015625">
        <ele>4.80000019073486328125</ele>
        <time>2026-09-19T09:54:10.000Z</time>
        <extensions>
          <ns3:TrackPointExtension>
            <ns3:hr>89</ns3:hr>
          </ns3:TrackPointExtension>
        </extensions>
      </trkpt>
      <trkpt lat="24.50978114269673824310302734375" lon="118.15128841437399387359619140625">
        <ele>4.80000019073486328125</ele>
        <time>2026-09-19T09:54:11.000Z</time>
        <extensions>
          <ns3:TrackPointExtension>
            <ns3:hr>89</ns3:hr>
          </ns3:TrackPointExtension>
        </extensions>
      </trkpt>
      <trkpt lat="24.50991508550941944122314453125" lon="118.151247762143611907958984375">
        <ele>4.80000019073486328125</ele>
        <time>2026-09-19T09:54:14.000Z</time>
        <extensions>
          <ns3:TrackPointExtension>
            <ns3:hr>89</ns3:hr>
          </ns3:TrackPointExtension>
        </extensions>
      </trkpt>
      <trkpt lat="24.50999488122761249542236328125" lon="118.15126896835863590240478515625">
        <ele>4.599999904632568359375</ele>
        <time>2026-09-19T09:54:16.000Z</time>
        <extensions>
          <ns3:TrackPointExtension>
            <ns3:hr>89</ns3:hr>
          </ns3:TrackPointExtension>
        </extensions>
      </trkpt>
      <trkpt lat="24.51003980822861194610595703125" lon="118.15134624950587749481201171875">
        <ele>4.599999904632568359375</ele>
        <time>2026-09-19T09:54:18.000Z</time>
        <extensions>
          <ns3:TrackPointExtension>
            <ns3:hr>90</ns3:hr>
          </ns3:TrackPointExtension>
        </extensions>
      </trkpt>
      <trkpt lat="24.51004768721759319305419921875" lon="118.15139084123075008392333984375">
        <ele>4.400000095367431640625</ele>
        <time>2026-09-19T09:54:19.000Z</time>
        <extensions>
          <ns3:TrackPointExtension>
            <ns3:hr>90</ns3:hr>
          </ns3:TrackPointExtension>
        </extensions>
      </trkpt>
      <trkpt lat="24.510061182081699371337890625" lon="118.15147751010954380035400390625">
        <ele>4.400000095367431640625</ele>
        <time>2026-09-19T09:54:21.000Z</time>
        <extensions>
          <ns3:TrackPointExtension>
            <ns3:hr>90</ns3:hr>
          </ns3:TrackPointExtension>
        </extensions>
      </trkpt>
      <trkpt lat="24.510073922574520111083984375" lon="118.1515651009976863861083984375">
        <ele>4</ele>
        <time>2026-09-19T09:54:23.000Z</time>
        <extensions>
          <ns3:TrackPointExtension>
            <ns3:hr>91</ns3:hr>
          </ns3:TrackPointExtension>
        </extensions>
      </trkpt>
      <trkpt lat="24.51011784374713897705078125" lon="118.15188168548047542572021484375">
        <ele>4.80000019073486328125</ele>
        <time>2026-09-19T09:54:30.000Z</time>
        <extensions>
          <ns3:TrackPointExtension>
            <ns3:hr>91</ns3:hr>
          </ns3:TrackPointExtension>
        </extensions>
      </trkpt>
      <trkpt lat="24.51015916652977466583251953125" lon="118.1521615572273731231689453125">
        <ele>4.80000019073486328125</ele>
        <time>2026-09-19T09:54:36.000Z</time>
        <extensions>
          <ns3:TrackPointExtension>
            <ns3:hr>92</ns3:hr>
          </ns3:TrackPointExtension>
        </extensions>
      </trkpt>
      <trkpt lat="24.51016687788069248199462890625" lon="118.152185194194316864013671875">
        <ele>4.80000019073486328125</ele>
        <time>2026-09-19T09:54:37.000Z</time>
        <extensions>
          <ns3:TrackPointExtension>
            <ns3:hr>92</ns3:hr>
          </ns3:TrackPointExtension>
        </extensions>
      </trkpt>
    </trkseg>
  </trk>
</gpx>
