<?xml version="1.0" encoding="UTF-8"?>
<gpx creator="Garmin Connect" version="1.1"
  xsi:schemaLocation="http://www.topografix.com/GPX/1/1 http://www.topografix.com/GPX/11.xsd"
  xmlns:ns3="http://www.garmin.com/xmlschemas/TrackPointExtension/v1"
  xmlns="http://www.topografix.com/GPX/1/1"
  xmlns:xsi="http://www.w3.org/2001/XMLSchema-instance" xmlns:ns2="http://www.garmin.com/xmlschemas/GpxExtensions/v3">
  <metadata>
    <link href="connect.garmin.com">
      <text>Garmin Connect</text>
    </link>
    <time>2026-09-24T14:34:56.000Z</time>
  </metadata>
  <trk>
    <name>厦门市 骑行</name>
    <type>cycling</type>
    <trkseg>
      <trkpt lat="24.4931573979556560516357421875" lon="118.14126583747565746307373046875">
        <ele>19</ele>
        <time>2026-09-24T14:34:56.000Z</time>
        <extensions>
          <ns3:TrackPointExtension>
            <ns3:hr>78</ns3:hr>
          </ns3:TrackPointExtension>
        </extensions>
      </trkpt>
      <trkpt lat="24.4931439869105815887451171875" lon="118.14127053134143352508544921875">
        <ele>19</ele>
        <time>2026-09-24T14:34:57.000Z</time>
        <extensions>
          <ns3:TrackPointExtension>
            <ns3:hr>79</ns3:hr>
          </ns3:TrackPointExtension>
        </extensions>
      </trkpt>
      <trkpt lat="24.49315010569989681243896484375" lon="118.1412835232913494110107421875">
        <ele>19</ele>
        <time>2026-09-24T14:34:58.000Z</time>
        <extensions>
          <ns3:TrackPointExtension>
            <ns3:hr>79</ns3:hr>
          </ns3:TrackPointExtension>
        </extensions>
      </trkpt>
      <trkpt lat="24.49321095831692218780517578125" lon="118.1413261033594608306884765625">
        <ele>19.200000762939453125</ele>
        <time>2026-09-24T14:35:01.000Z</time>
        <extensions>
          <ns3:TrackPointExtension>
            <ns3:hr>80</ns3:hr>
          </ns3:TrackPointExtension>
        </extensions>
      </trkpt>
      <trkpt lat="24.49340499937534332275390625" lon="118.14136373810470104217529296875">
        <ele>18.799999237060546875</ele>
        <time>2026-09-24T14:35:06.000Z</time>
        <extensions>
          <ns3:TrackPointExtension>
            <ns3:hr>82</ns3:hr>
          </ns3:TrackPointExtension>
        </extensions>
      </trkpt>
      <trkpt lat="24.4935650937259197235107421875" lon="118.14140296541154384613037109375">
        <ele>18.6000003814697265625</ele>
        <time>2026-09-24T14:35:10.000Z</time>
        <extensions>
          <ns3:TrackPointExtension>
            <ns3:hr>85</ns3:hr>
          </ns3:TrackPointExtension>
        </extensions>
      </trkpt>
      <trkpt lat="24.4936026446521282196044921875" lon="118.14140900038182735443115234375">
        <ele>18.6000003814697265625</ele>
        <time>2026-09-24T14:35:11.000Z</time>
        <extensions>
          <ns3:TrackPointExtension>
            <ns3:hr>86</ns3:hr>
          </ns3:TrackPointExtension>
        </extensions>
      </trkpt>
      <trkpt lat="24.49381009675562381744384765625" lon="118.1414729543030261993408203125">
        <ele>18.3999996185302734375</ele>
        <time>2026-09-24T14:35:16.000Z</time>
        <extensions>
          <ns3:TrackPointExtension>
            <ns3:hr>89</ns3:hr>
          </ns3:TrackPointExtension>
        </extensions>
      </trkpt>
      <trkpt lat="24.49385770596563816070556640625" lon="118.1414769776165485382080078125">
        <ele>18.3999996185302734375</ele>
        <time>2026-09-24T14:35:17.000Z</time>
        <extensions>
          <ns3:TrackPointExtension>
            <ns3:hr>89</ns3:hr>
          </ns3:TrackPointExtension>
        </extensions>
      </trkpt>
      <trkpt lat="24.49406482279300689697265625" lon="118.14152936451137065887451171875">
        <ele>18.200000762939453125</ele>
        <time>2026-09-24T14:35:22.000Z</time>
        <extensions>
          <ns3:TrackPointExtension>
            <ns3:hr>87</ns3:hr>
          </ns3:TrackPointExtension>
        </extensions>
      </trkpt>
      <trkpt lat="24.494149982929229736328125" lon="118.14155098982155323028564453125">
        <ele>18.200000762939453125</ele>
        <time>2026-09-24T14:35:24.000Z</time>
        <extensions>
          <ns3:TrackPointExtension>
            <ns3:hr>84</ns3:hr>
          </ns3:TrackPointExtension>
        </extensions>
      </trkpt>
      <trkpt lat="24.49418627656996250152587890625" lon="118.1415604613721370697021484375">
        <ele>18</ele>
        <time>2026-09-24T14:35:25.000Z</time>
        <extensions>
          <ns3:TrackPointExtension>
            <ns3:hr>83</ns3:hr>
          </ns3:TrackPointExtension>
        </extensions>
      </trkpt>
      <trkpt lat="24.49427210725843906402587890625" lon="118.1415805779397487640380859375">
        <ele>18</ele>
        <time>2026-09-24T14:35:27.000Z</time>
        <extensions>
          <ns3:TrackPointExtension>
            <ns3:hr>83</ns3:hr>
          </ns3:TrackPointExtension>
        </extensions>
      </trkpt>
      <trkpt lat="24.494314603507518768310546875" lon="118.14159549772739410400390625">
        <ele>18</ele>
        <time>2026-09-24T14:35:28.000Z</time>
        <extensions>
          <ns3:TrackPointExtension>
            <ns3:hr>83</ns3:hr>
          </ns3:TrackPointExtension>
        </extensions>
      </trkpt>
      <trkpt lat="24.494528509676456451416015625" lon="118.14169096760451793670654296875">
        <ele>18</ele>
        <time>2026-09-24T14:35:33.000Z</time>
        <extensions>
          <ns3:TrackPointExtension>
            <ns3:hr>83</ns3:hr>
          </ns3:TrackPointExtension>
        </extensions>
      </trkpt>
      <trkpt lat="24.49464007280766963958740234375" lon="118.141721226274967193603515625">
        <ele>17.799999237060546875</ele>
        <time>2026-09-24T14:35:36.000Z</time>
        <extensions>
          <ns3:TrackPointExtension>
            <ns3:hr>86</ns3:hr>
          </ns3:TrackPointExtension>
        </extensions>
      </trkpt>
      <trkpt lat="24.4946932978928089141845703125" lon="118.14172700978815555572509765625">
        <ele>17.799999237060546875</ele>
        <time>2026-09-24T14:35:38.000Z</time>
        <extensions>
          <ns3:TrackPointExtension>
            <ns3:hr>90</ns3:hr>
          </ns3:TrackPointExtension>
        </extensions>
      </trkpt>
      <trkpt lat="24.49471802450716495513916015625" lon="118.1417431868612766265869140625">
        <ele>17.799999237060546875</ele>
        <time>2026-09-24T14:35:39.000Z</time>
        <extensions>
          <ns3:TrackPointExtension>
            <ns3:hr>91</ns3:hr>
          </ns3:TrackPointExtension>
        </extensions>
      </trkpt>
      <trkpt lat="24.49482967145740985870361328125" lon="118.14178886823356151580810546875">
        <ele>17.6000003814697265625</ele>
        <time>2026-09-24T14:35:43.000Z</time>
        <extensions>
          <ns3:TrackPointExtension>
            <ns3:hr>91</ns3:hr>
          </ns3:TrackPointExtension>
        </extensions>
      </trkpt>
      <trkpt lat="24.49505589902400970458984375" lon="118.14186933450400829315185546875">
        <ele>17.200000762939453125</ele>
        <time>2026-09-24T14:35:49.000Z</time>
        <extensions>
          <ns3:TrackPointExtension>
            <ns3:hr>91</ns3:hr>
          </ns3:TrackPointExtension>
        </extensions>
      </trkpt>
      <trkpt lat="24.4952119700610637664794921875" lon="118.14192599616944789886474609375">
        <ele>17.200000762939453125</ele>
        <time>2026-09-24T14:35:53.000Z</time>
        <extensions>
          <ns3:TrackPointExtension>
            <ns3:hr>91</ns3:hr>
          </ns3:TrackPointExtension>
        </extensions>
      </trkpt>
      <trkpt lat="24.4953336752951145172119140625" lon="118.1419622898101806640625">
        <ele>17</ele>
        <time>2026-09-24T14:35:56.000Z</time>
        <extensions>
          <ns3:TrackPointExtension>
            <ns3:hr>92</ns3:hr>
          </ns3:TrackPointExtension>
        </extensions>
      </trkpt>
      <trkpt lat="24.49546183459460735321044921875" lon="118.14200461842119693756103515625">
        <ele>16.799999237060546875</ele>
        <time>2026-09-24T14:35:59.000Z</time>
        <extensions>
          <ns3:TrackPointExtension>
            <ns3:hr>92</ns3:hr>
          </ns3:TrackPointExtension>
        </extensions>
      </trkpt>
      <trkpt lat="24.4957128725945949554443359375" lon="118.1420989148318767547607421875">
        <ele>16.799999237060546875</ele>
        <time>2026-09-24T14:36:05.000Z</time>
        <extensions>
          <ns3:TrackPointExtension>
            <ns3:hr>92</ns3:hr>
          </ns3:TrackPointExtension>
        </extensions>
      </trkpt>
      <trkpt lat="24.4957527704536914825439453125" lon="118.1421089731156826019287109375">
        <ele>16.799999237060546875</ele>
        <time>2026-09-24T14:36:06.000Z</time>
        <extensions>
          <ns3:TrackPointExtension>
            <ns3:hr>91</ns3:hr>
          </ns3:TrackPointExtension>
        </extensions>
      </trkpt>
      <trkpt lat="24.49597279541194438934326171875" lon="118.1421649642288684844970703125">
        <ele>16.3999996185302734375</ele>
        <time>2026-09-24T14:36:11.000Z</time>
        <extensions>
          <ns3:TrackPointExtension>
            <ns3:hr>92</ns3:hr>
          </ns3:TrackPointExtension>
        </extensions>
      </trkpt>
      <trkpt lat="24.4960169680416584014892578125" lon="118.142183907330036163330078125">
        <ele>16.200000762939453125</ele>
        <time>2026-09-24T14:36:12.000Z</time>
        <extensions>
          <ns3:TrackPointExtension>
            <ns3:hr>92</ns3:hr>
          </ns3:TrackPointExtension>
        </extensions>
      </trkpt>
      <trkpt lat="24.49615166522562503814697265625" lon="118.14222003333270549774169921875">
        <ele>16.3999996185302734375</ele>
        <time>2026-09-24T14:36:15.000Z</time>
        <extensions>
          <ns3:TrackPointExtension>
            <ns3:hr>92</ns3:hr>
          </ns3:TrackPointExtension>
        </extensions>
      </trkpt>
      <trkpt lat="24.49619843624532222747802734375" lon="118.14223227091133594512939453125">
        <ele>16.3999996185302734375</ele>
        <time>2026-09-24T14:36:16.000Z</time>
        <extensions>
          <ns3:TrackPointExtension>
            <ns3:hr>93</ns3:hr>
          </ns3:TrackPointExtension>
        </extensions>
      </trkpt>
      <trkpt lat="24.4963438622653484344482421875" lon="118.14225423149764537811279296875">
        <ele>16.3999996185302734375</ele>
        <time>2026-09-24T14:36:19.000Z</time>
        <extensions>
          <ns3:TrackPointExtension>
            <ns3:hr>94</ns3:hr>
          </ns3:TrackPointExtension>
        </extensions>
      </trkpt>
      <trkpt lat="24.4964317046105861663818359375" lon="118.1423004157841205596923828125">
        <ele>16.200000762939453125</ele>
        <time>2026-09-24T14:36:21.000Z</time>
        <extensions>
          <ns3:TrackPointExtension>
            <ns3:hr>93</ns3:hr>
          </ns3:TrackPointExtension>
        </extensions>
      </trkpt>
      <trkpt lat="24.49648149311542510986328125" lon="118.14236587844789028167724609375">
        <ele>16.200000762939453125</ele>
        <time>2026-09-24T14:36:23.000Z</time>
        <extensions>
          <ns3:TrackPointExtension>
            <ns3:hr>92</ns3:hr>
          </ns3:TrackPointExtension>
        </extensions>
      </trkpt>
      <trkpt lat="24.49652264825999736785888671875" lon="118.14241415821015834808349609375">
        <ele>16.200000762939453125</ele>
        <time>2026-09-24T14:36:25.000Z</time>
        <extensions>
          <ns3:TrackPointExtension>
            <ns3:hr>91</ns3:hr>
          </ns3:TrackPointExtension>
        </extensions>
      </trkpt>
      <trkpt lat="24.496633373200893402099609375" lon="118.142403177917003631591796875">
        <ele>16.200000762939453125</ele>
        <time>2026-09-24T14:36:28.000Z</time>
        <extensions>
          <ns3:TrackPointExtension>
            <ns3:hr>91</ns3:hr>
          </ns3:TrackPointExtension>
        </extensions>
      </trkpt>
      <trkpt lat="24.4968402385711669921875" lon="118.1424432434141635894775390625">
        <ele>16.200000762939453125</ele>
        <time>2026-09-24T14:36:33.000Z</time>
        <extensions>
          <ns3:TrackPointExtension>
            <ns3:hr>90</ns3:hr>
          </ns3:TrackPointExtension>
        </extensions>
      </trkpt>
      <trkpt lat="24.49706546030938625335693359375" lon="118.14252831973135471343994140625">
        <ele>16.200000762939453125</ele>
        <time>2026-09-24T14:36:39.000Z</time>
        <extensions>
          <ns3:TrackPointExtension>
            <ns3:hr>93</ns3:hr>
          </ns3:TrackPointExtension>
        </extensions>
      </trkpt>
      <trkpt lat="24.4972843118011951446533203125" lon="118.14263812266290187835693359375">
        <ele>16.3999996185302734375</ele>
        <time>2026-09-24T14:36:45.000Z</time>
        <extensions>
          <ns3:TrackPointExtension>
            <ns3:hr>94</ns3:hr>
          </ns3:TrackPointExtension>
        </extensions>
      </trkpt>
      <trkpt lat="24.4974841363728046417236328125" lon="118.1427057646214962005615234375">
        <ele>16.3999996185302734375</ele>
        <time>2026-09-24T14:36:50.000Z</time>
        <extensions>
          <ns3:TrackPointExtension>
            <ns3:hr>93</ns3:hr>
          </ns3:TrackPointExtension>
        </extensions>
      </trkpt>
      <trkpt lat="24.497741125524044036865234375" lon="118.14277357421815395355224609375">
        <ele>16.3999996185302734375</ele>
        <time>2026-09-24T14:36:56.000Z</time>
        <extensions>
          <ns3:TrackPointExtension>
            <ns3:hr>95</ns3:hr>
          </ns3:TrackPointExtension>
        </extensions>
      </trkpt>
      <trkpt lat="24.49778211303055286407470703125" lon="118.14279310405254364013671875">
        <ele>16.3999996185302734375</ele>
        <time>2026-09-24T14:36:57.000Z</time>
        <extensions>
          <ns3:TrackPointExtension>
            <ns3:hr>95</ns3:hr>
          </ns3:TrackPointExtension>
        </extensions>
      </trkpt>
      <trkpt lat="24.4979129545390605926513671875" lon="118.14283006824553012847900390625">
        <ele>16.3999996185302734375</ele>
        <time>2026-09-24T14:37:00.000Z</time>
        <extensions>
          <ns3:TrackPointExtension>
            <ns3:hr>98</ns3:hr>
          </ns3:TrackPointExtension>
        </extensions>
      </trkpt>
      <trkpt lat="24.4979585520923137664794921875" lon="118.14285303466022014617919921875">
        <ele>16.6000003814697265625</ele>
        <time>2026-09-24T14:37:01.000Z</time>
        <extensions>
          <ns3:TrackPointExtension>
            <ns3:hr>98</ns3:hr>
          </ns3:TrackPointExtension>
        </extensions>
      </trkpt>
      <trkpt lat="24.49800054542720317840576171875" lon="118.14287088811397552490234375">
        <ele>16.6000003814697265625</ele>
        <time>2026-09-24T14:37:02.000Z</time>
        <extensions>
          <ns3:TrackPointExtension>
            <ns3:hr>99</ns3:hr>
          </ns3:TrackPointExtension>
        </extensions>
      </trkpt>
      <trkpt lat="24.49808084405958652496337890625" lon="118.14290533773601055145263671875">
        <ele>16.6000003814697265625</ele>
        <time>2026-09-24T14:37:04.000Z</time>
        <extensions>
          <ns3:TrackPointExtension>
            <ns3:hr>99</ns3:hr>
          </ns3:TrackPointExtension>
        </extensions>
      </trkpt>
      <trkpt lat="24.49819919653236865997314453125" lon="118.14294121228158473968505859375">
        <ele>16.6000003814697265625</ele>
        <time>2026-09-24T14:37:07.000Z</time>
        <extensions>
          <ns3:TrackPointExtension>
            <ns3:hr>100</ns3:hr>
          </ns3:TrackPointExtension>
        </extensions>
      </trkpt>
      <trkpt lat="24.49839751236140727996826171875" lon="118.14301145263016223907470703125">
        <ele>16.799999237060546875</ele>
        <time>2026-09-24T14:37:12.000Z</time>
        <extensions>
          <ns3:TrackPointExtension>
            <ns3:hr>100</ns3:hr>
          </ns3:TrackPointExtension>
        </extensions>
      </trkpt>
      <trkpt lat="24.49847814626991748809814453125" lon="118.1430403701961040496826171875">
        <ele>16.799999237060546875</ele>
        <time>2026-09-24T14:37:14.000Z</time>
        <extensions>
          <ns3:TrackPointExtension>
            <ns3:hr>101</ns3:hr>
          </ns3:TrackPointExtension>
        </extensions>
      </trkpt>
      <trkpt lat="24.498679228127002716064453125" lon="118.14311840571463108062744140625">
        <ele>17</ele>
        <time>2026-09-24T14:37:19.000Z</time>
        <extensions>
          <ns3:TrackPointExtension>
            <ns3:hr>103</ns3:hr>
          </ns3:TrackPointExtension>
        </extensions>
      </trkpt>
      <trkpt lat="24.49890528805553913116455078125" lon="118.14322234131395816802978515625">
        <ele>17</ele>
        <time>2026-09-24T14:37:25.000Z</time>
        <extensions>
          <ns3:TrackPointExtension>
            <ns3:hr>102</ns3:hr>
          </ns3:TrackPointExtension>
        </extensions>
      </trkpt>
      <trkpt lat="24.49915791861712932586669921875" lon="118.14327011816203594207763671875">
        <ele>17.200000762939453125</ele>
        <time>2026-09-24T14:37:31.000Z</time>
        <extensions>
          <ns3:TrackPointExtension>
            <ns3:hr>102</ns3:hr>
          </ns3:TrackPointExtension>
        </extensions>
      </trkpt>
      <trkpt lat="24.49943435378372669219970703125" lon="118.143332563340663909912109375">
        <ele>17.200000762939453125</ele>
        <time>2026-09-24T14:37:38.000Z</time>
        <extensions>
          <ns3:TrackPointExtension>
            <ns3:hr>101</ns3:hr>
          </ns3:TrackPointExtension>
        </extensions>
      </trkpt>
      <trkpt lat="24.49965530075132846832275390625" lon="118.14340607263147830963134765625">
        <ele>17.200000762939453125</ele>
        <time>2026-09-24T14:37:43.000Z</time>
        <extensions>
          <ns3:TrackPointExtension>
            <ns3:hr>101</ns3:hr>
          </ns3:TrackPointExtension>
        </extensions>
      </trkpt>
      <trkpt lat="24.4998927600681781768798828125" lon="118.14347463659942150115966796875">
        <ele>17.3999996185302734375</ele>
        <time>2026-09-24T14:37:49.000Z</time>
        <extensions>
          <ns3:TrackPointExtension>
            <ns3:hr>101</ns3:hr>
          </ns3:TrackPointExtension>
        </extensions>
      </trkpt>
      <trkpt lat="24.5001184009015560150146484375" lon="118.14356616698205471038818359375">
        <ele>17.3999996185302734375</ele>
        <time>2026-09-24T14:37:55.000Z</time>
        <extensions>
          <ns3:TrackPointExtension>
            <ns3:hr>103</ns3:hr>
          </ns3:TrackPointExtension>
        </extensions>
      </trkpt>
      <trkpt lat="24.500393159687519073486328125" lon="118.14366473816335201263427734375">
        <ele>17.6000003814697265625</ele>
        <time>2026-09-24T14:38:02.000Z</time>
        <extensions>
          <ns3:TrackPointExtension>
            <ns3:hr>104</ns3:hr>
          </ns3:TrackPointExtension>
        </extensions>
      </trkpt>
      <trkpt lat="24.50064201839268207550048828125" lon="118.14376867376267910003662109375">
        <ele>17.799999237060546875</ele>
        <time>2026-09-24T14:38:08.000Z</time>
        <extensions>
          <ns3:TrackPointExtension>
            <ns3:hr>104</ns3:hr>
          </ns3:TrackPointExtension>
        </extensions>
      </trkpt>
      <trkpt lat="24.5006793178617954254150390625" lon="118.14379834569990634918212890625">
        <ele>18</ele>
        <time>2026-09-24T14:38:09.000Z</time>
        <extensions>
          <ns3:TrackPointExtension>
            <ns3:hr>104</ns3:hr>
          </ns3:TrackPointExtension>
        </extensions>
      </trkpt>
      <trkpt lat="24.5007151924073696136474609375" lon="118.1438319571316242218017578125">
        <ele>18</ele>
        <time>2026-09-24T14:38:10.000Z</time>
        <extensions>
          <ns3:TrackPointExtension>
            <ns3:hr>104</ns3:hr>
          </ns3:TrackPointExtension>
        </extensions>
      </trkpt>
      <trkpt lat="24.50085693039000034332275390625" lon="118.14401744864881038665771484375">
        <ele>18.3999996185302734375</ele>
        <time>2026-09-24T14:38:15.000Z</time>
        <extensions>
          <ns3:TrackPointExtension>
            <ns3:hr>106</ns3:hr>
          </ns3:TrackPointExtension>
        </extensions>
      </trkpt>
      <trkpt lat="24.50087495148181915283203125" lon="118.1440609507262706756591796875">
        <ele>18.200000762939453125</ele>
        <time>2026-09-24T14:38:16.000Z</time>
        <extensions>
          <ns3:TrackPointExtension>
            <ns3:hr>106</ns3:hr>
          </ns3:TrackPointExtension>
        </extensions>
      </trkpt>
      <trkpt lat="24.50090286321938037872314453125" lon="118.144147954881191253662109375">
        <ele>18.200000762939453125</ele>
        <time>2026-09-24T14:38:18.000Z</time>
        <extensions>
          <ns3:TrackPointExtension>
            <ns3:hr>106</ns3:hr>
          </ns3:TrackPointExtension>
        </extensions>
      </trkpt>
      <trkpt lat="24.50092717073857784271240234375" lon="118.144237808883190155029296875">
        <ele>18.3999996185302734375</ele>
        <time>2026-09-24T14:38:20.000Z</time>
        <extensions>
          <ns3:TrackPointExtension>
            <ns3:hr>106</ns3:hr>
          </ns3:TrackPointExtension>
        </extensions>
      </trkpt>
      <trkpt lat="24.50093320570886135101318359375" lon="118.14428416080772876739501953125">
        <ele>18.3999996185302734375</ele>
        <time>2026-09-24T14:38:21.000Z</time>
        <extensions>
          <ns3:TrackPointExtension>
            <ns3:hr>106</ns3:hr>
          </ns3:TrackPointExtension>
        </extensions>
      </trkpt>
      <trkpt lat="24.50093924067914485931396484375" lon="118.14444928430020809173583984375">
        <ele>18.3999996185302734375</ele>
        <time>2026-09-24T14:38:25.000Z</time>
        <extensions>
          <ns3:TrackPointExtension>
            <ns3:hr>105</ns3:hr>
          </ns3:TrackPointExtension>
        </extensions>
      </trkpt>
      <trkpt lat="24.50095064006745815277099609375" lon="118.1446557305753231048583984375">
        <ele>18.6000003814697265625</ele>
        <time>2026-09-24T14:38:30.000Z</time>
        <extensions>
          <ns3:TrackPointExtension>
            <ns3:hr>104</ns3:hr>
          </ns3:TrackPointExtension>
        </extensions>
      </trkpt>
      <trkpt lat="24.50095164589583873748779296875" lon="118.14474097453057765960693359375">
        <ele>18.6000003814697265625</ele>
        <time>2026-09-24T14:38:32.000Z</time>
        <extensions>
          <ns3:TrackPointExtension>
            <ns3:hr>109</ns3:hr>
          </ns3:TrackPointExtension>
        </extensions>
      </trkpt>
      <trkpt lat="24.5009601116180419921875" lon="118.14492470584809780120849609375">
        <ele>18.799999237060546875</ele>
        <time>2026-09-24T14:38:36.000Z</time>
        <extensions>
          <ns3:TrackPointExtension>
            <ns3:hr>110</ns3:hr>
          </ns3:TrackPointExtension>
        </extensions>
      </trkpt>
      <trkpt lat="24.50095801614224910736083984375" lon="118.1451522745192050933837890625">
        <ele>18.799999237060546875</ele>
        <time>2026-09-24T14:38:41.000Z</time>
        <extensions>
          <ns3:TrackPointExtension>
            <ns3:hr>109</ns3:hr>
          </ns3:TrackPointExtension>
        </extensions>
      </trkpt>
      <trkpt lat="24.5009963214397430419921875" lon="118.1452357582747936248779296875">
        <ele>19</ele>
        <time>2026-09-24T14:38:45.000Z</time>
        <extensions>
          <ns3:TrackPointExtension>
            <ns3:hr>109</ns3:hr>
          </ns3:TrackPointExtension>
        </extensions>
      </trkpt>
      <trkpt lat="24.50098693370819091796875" lon="118.14527406357228755950927734375">
        <ele>19</ele>
        <time>2026-09-24T14:38:49.000Z</time>
        <extensions>
          <ns3:TrackPointExtension>
            <ns3:hr>108</ns3:hr>
          </ns3:TrackPointExtension>
        </extensions>
      </trkpt>
    </trkseg>
  </trk>
</gpx>
