<?xml version="1.0" encoding="UTF-8"?>
<gpx creator="Garmin Connect" version="1.1"
  xsi:schemaLocation="http://www.topografix.com/GPX/1/1 http://www.topografix.com/GPX/11.xsd"
  xmlns:ns3="http://www.garmin.com/xmlschemas/TrackPointExtension/v1"
  xmlns="http://www.topografix.com/GPX/1/1"
  xmlns:xsi="http://www.w3.org/2001/XMLSchema-instance" xmlns:ns2="http://www.garmin.com/xmlschemas/GpxExtensions/v3">
  <metadata>
    <link href="connect.garmin.com">
      <text>Garmin Connect</text>
    </link>
    <time>2026-09-28T03:49:45.000Z</time>
  </metadata>
  <trk>
    <name>厦门市 骑行</name>
    <type>cycling</type>
    <trkseg>
      <trkpt lat="24.47937838733196258544921875" lon="118.14547556452453136444091796875">
        <ele>41.59999847412109375</ele>
        <time>2026-09-28T03:49:45.000Z</time>
        <extensions>
          <ns3:TrackPointExtension>
            <ns3:hr>107</ns3:hr>
          </ns3:TrackPointExtension>
        </extensions>
      </trkpt>
      <trkpt lat="24.47935081087052822113037109375" lon="118.14543499611318111419677734375">
        <ele>41.59999847412109375</ele>
        <time>2026-09-28T03:49:46.000Z</time>
        <extensions>
          <ns3:TrackPointExtension>
            <ns3:hr>108</ns3:hr>
          </ns3:TrackPointExtension>
        </extensions>
      </trkpt>
      <trkpt lat="24.47935047559440135955810546875" lon="118.145358972251415252685546875">
        <ele>41.40000152587890625</ele>
        <time>2026-09-28T03:49:50.000Z</time>
        <extensions>
          <ns3:TrackPointExtension>
            <ns3:hr>111</ns3:hr>
          </ns3:TrackPointExtension>
        </extensions>
      </trkpt>
      <trkpt lat="24.47936388663947582244873046875" lon="118.1452471576631069183349609375">
        <ele>41.40000152587890625</ele>
        <time>2026-09-28T03:49:55.000Z</time>
        <extensions>
          <ns3:TrackPointExtension>
            <ns3:hr>113</ns3:hr>
          </ns3:TrackPointExtension>
        </extensions>
      </trkpt>
      <trkpt lat="24.479369334876537322998046875" lon="118.145113885402679443359375">
        <ele>41.59999847412109375</ele>
        <time>2026-09-28T03:50:00.000Z</time>
        <extensions>
          <ns3:TrackPointExtension>
            <ns3:hr>111</ns3:hr>
          </ns3:TrackPointExtension>
        </extensions>
      </trkpt>
      <trkpt lat="24.47937260381877422332763671875" lon="118.14482890069484710693359375">
        <ele>42</ele>
        <time>2026-09-28T03:50:08.000Z</time>
        <extensions>
          <ns3:TrackPointExtension>
            <ns3:hr>109</ns3:hr>
          </ns3:TrackPointExtension>
        </extensions>
      </trkpt>
      <trkpt lat="24.47936321608722209930419921875" lon="118.1446198560297489166259765625">
        <ele>42.40000152587890625</ele>
        <time>2026-09-28T03:50:14.000Z</time>
        <extensions>
          <ns3:TrackPointExtension>
            <ns3:hr>110</ns3:hr>
          </ns3:TrackPointExtension>
        </extensions>
      </trkpt>
      <trkpt lat="24.47936304844915866851806640625" lon="118.1443633697926998138427734375">
        <ele>42.59999847412109375</ele>
        <time>2026-09-28T03:50:21.000Z</time>
        <extensions>
          <ns3:TrackPointExtension>
            <ns3:hr>112</ns3:hr>
          </ns3:TrackPointExtension>
        </extensions>
      </trkpt>
      <trkpt lat="24.4793594442307949066162109375" lon="118.14433109946548938751220703125">
        <ele>42.59999847412109375</ele>
        <time>2026-09-28T03:50:22.000Z</time>
        <extensions>
          <ns3:TrackPointExtension>
            <ns3:hr>112</ns3:hr>
          </ns3:TrackPointExtension>
        </extensions>
      </trkpt>
      <trkpt lat="24.47936707176268100738525390625" lon="118.144196569919586181640625">
        <ele>42.59999847412109375</ele>
        <time>2026-09-28T03:50:26.000Z</time>
        <extensions>
          <ns3:TrackPointExtension>
            <ns3:hr>114</ns3:hr>
          </ns3:TrackPointExtension>
        </extensions>
      </trkpt>
      <trkpt lat="24.47939137928187847137451171875" lon="118.14401309005916118621826171875">
        <ele>42.59999847412109375</ele>
        <time>2026-09-28T03:50:31.000Z</time>
        <extensions>
          <ns3:TrackPointExtension>
            <ns3:hr>117</ns3:hr>
          </ns3:TrackPointExtension>
        </extensions>
      </trkpt>
      <trkpt lat="24.47939959354698657989501953125" lon="118.1439352221786975860595703125">
        <ele>43</ele>
        <time>2026-09-28T03:50:33.000Z</time>
        <extensions>
          <ns3:TrackPointExtension>
            <ns3:hr>118</ns3:hr>
          </ns3:TrackPointExtension>
        </extensions>
      </trkpt>
      <trkpt lat="24.47944569401443004608154296875" lon="118.14374662935733795166015625">
        <ele>43.799999237060546875</ele>
        <time>2026-09-28T03:50:38.000Z</time>
        <extensions>
          <ns3:TrackPointExtension>
            <ns3:hr>120</ns3:hr>
          </ns3:TrackPointExtension>
        </extensions>
      </trkpt>
      <trkpt lat="24.47945080697536468505859375" lon="118.14371821470558643341064453125">
        <ele>44</ele>
        <time>2026-09-28T03:50:39.000Z</time>
        <extensions>
          <ns3:TrackPointExtension>
            <ns3:hr>120</ns3:hr>
          </ns3:TrackPointExtension>
        </extensions>
      </trkpt>
      <trkpt lat="24.47950788773596286773681640625" lon="118.1434718705713748931884765625">
        <ele>44.59999847412109375</ele>
        <time>2026-09-28T03:50:47.000Z</time>
        <extensions>
          <ns3:TrackPointExtension>
            <ns3:hr>121</ns3:hr>
          </ns3:TrackPointExtension>
        </extensions>
      </trkpt>
      <trkpt lat="24.47953403927385807037353515625" lon="118.14334656111896038055419921875">
        <ele>44.799999237060546875</ele>
        <time>2026-09-28T03:50:51.000Z</time>
        <extensions>
          <ns3:TrackPointExtension>
            <ns3:hr>123</ns3:hr>
          </ns3:TrackPointExtension>
        </extensions>
      </trkpt>
      <trkpt lat="24.47954728268086910247802734375" lon="118.14327648840844631195068359375">
        <ele>45</ele>
        <time>2026-09-28T03:50:53.000Z</time>
        <extensions>
          <ns3:TrackPointExtension>
            <ns3:hr>124</ns3:hr>
          </ns3:TrackPointExtension>
        </extensions>
      </trkpt>
      <trkpt lat="24.47956739924848079681396484375" lon="118.14306509681046009063720703125">
        <ele>45.200000762939453125</ele>
        <time>2026-09-28T03:50:59.000Z</time>
        <extensions>
          <ns3:TrackPointExtension>
            <ns3:hr>123</ns3:hr>
          </ns3:TrackPointExtension>
        </extensions>
      </trkpt>
      <trkpt lat="24.4795938022434711456298828125" lon="118.142866529524326324462890625">
        <ele>45.799999237060546875</ele>
        <time>2026-09-28T03:51:05.000Z</time>
        <extensions>
          <ns3:TrackPointExtension>
            <ns3:hr>124</ns3:hr>
          </ns3:TrackPointExtension>
        </extensions>
      </trkpt>
      <trkpt lat="24.47959774173796176910400390625" lon="118.14283627085387706756591796875">
        <ele>45.799999237060546875</ele>
        <time>2026-09-28T03:51:06.000Z</time>
        <extensions>
          <ns3:TrackPointExtension>
            <ns3:hr>123</ns3:hr>
          </ns3:TrackPointExtension>
        </extensions>
      </trkpt>
      <trkpt lat="24.4796477816998958587646484375" lon="118.14258431084454059600830078125">
        <ele>46.200000762939453125</ele>
        <time>2026-09-28T03:51:13.000Z</time>
        <extensions>
          <ns3:TrackPointExtension>
            <ns3:hr>125</ns3:hr>
          </ns3:TrackPointExtension>
        </extensions>
      </trkpt>
      <trkpt lat="24.47966630570590496063232421875" lon="118.1423470191657543182373046875">
        <ele>46.59999847412109375</ele>
        <time>2026-09-28T03:51:20.000Z</time>
        <extensions>
          <ns3:TrackPointExtension>
            <ns3:hr>124</ns3:hr>
          </ns3:TrackPointExtension>
        </extensions>
      </trkpt>
      <trkpt lat="24.479699917137622833251953125" lon="118.14214342273771762847900390625">
        <ele>46.799999237060546875</ele>
        <time>2026-09-28T03:51:25.000Z</time>
        <extensions>
          <ns3:TrackPointExtension>
            <ns3:hr>124</ns3:hr>
          </ns3:TrackPointExtension>
        </extensions>
      </trkpt>
      <trkpt lat="24.479728080332279205322265625" lon="118.1419622898101806640625">
        <ele>47.200000762939453125</ele>
        <time>2026-09-28T03:51:29.000Z</time>
        <extensions>
          <ns3:TrackPointExtension>
            <ns3:hr>125</ns3:hr>
          </ns3:TrackPointExtension>
        </extensions>
      </trkpt>
      <trkpt lat="24.47978214360773563385009765625" lon="118.14161201007664203643798828125">
        <ele>47.799999237060546875</ele>
        <time>2026-09-28T03:51:39.000Z</time>
        <extensions>
          <ns3:TrackPointExtension>
            <ns3:hr>123</ns3:hr>
          </ns3:TrackPointExtension>
        </extensions>
      </trkpt>
      <trkpt lat="24.4797882623970508575439453125" lon="118.141530118882656097412109375">
        <ele>48</ele>
        <time>2026-09-28T03:51:41.000Z</time>
        <extensions>
          <ns3:TrackPointExtension>
            <ns3:hr>123</ns3:hr>
          </ns3:TrackPointExtension>
        </extensions>
      </trkpt>
      <trkpt lat="24.47980997152626514434814453125" lon="118.141348063945770263671875">
        <ele>48.200000762939453125</ele>
        <time>2026-09-28T03:51:46.000Z</time>
        <extensions>
          <ns3:TrackPointExtension>
            <ns3:hr>122</ns3:hr>
          </ns3:TrackPointExtension>
        </extensions>
      </trkpt>
      <trkpt lat="24.47984903119504451751708984375" lon="118.14111328683793544769287109375">
        <ele>48</ele>
        <time>2026-09-28T03:51:52.000Z</time>
        <extensions>
          <ns3:TrackPointExtension>
            <ns3:hr>122</ns3:hr>
          </ns3:TrackPointExtension>
        </extensions>
      </trkpt>
      <trkpt lat="24.479852132499217987060546875" lon="118.1410216726362705230712890625">
        <ele>48.200000762939453125</ele>
        <time>2026-09-28T03:51:55.000Z</time>
        <extensions>
          <ns3:TrackPointExtension>
            <ns3:hr>122</ns3:hr>
          </ns3:TrackPointExtension>
        </extensions>
      </trkpt>
      <trkpt lat="24.4798578321933746337890625" lon="118.1409951858222484588623046875">
        <ele>48.40000152587890625</ele>
        <time>2026-09-28T03:51:56.000Z</time>
        <extensions>
          <ns3:TrackPointExtension>
            <ns3:hr>122</ns3:hr>
          </ns3:TrackPointExtension>
        </extensions>
      </trkpt>
      <trkpt lat="24.4798792898654937744140625" lon="118.14083400182425975799560546875">
        <ele>48.59999847412109375</ele>
        <time>2026-09-28T03:52:02.000Z</time>
        <extensions>
          <ns3:TrackPointExtension>
            <ns3:hr>121</ns3:hr>
          </ns3:TrackPointExtension>
        </extensions>
      </trkpt>
      <trkpt lat="24.47991105727851390838623046875" lon="118.1406649388372898101806640625">
        <ele>48.59999847412109375</ele>
        <time>2026-09-28T03:52:07.000Z</time>
        <extensions>
          <ns3:TrackPointExtension>
            <ns3:hr>120</ns3:hr>
          </ns3:TrackPointExtension>
        </extensions>
      </trkpt>
      <trkpt lat="24.47992178611457347869873046875" lon="118.1404691375792026519775390625">
        <ele>48.799999237060546875</ele>
        <time>2026-09-28T03:52:12.000Z</time>
        <extensions>
          <ns3:TrackPointExtension>
            <ns3:hr>121</ns3:hr>
          </ns3:TrackPointExtension>
        </extensions>
      </trkpt>
      <trkpt lat="24.47995162568986415863037109375" lon="118.140372075140476226806640625">
        <ele>48.59999847412109375</ele>
        <time>2026-09-28T03:52:15.000Z</time>
        <extensions>
          <ns3:TrackPointExtension>
            <ns3:hr>120</ns3:hr>
          </ns3:TrackPointExtension>
        </extensions>
      </trkpt>
      <trkpt lat="24.479974843561649322509765625" lon="118.1403489410877227783203125">
        <ele>48.799999237060546875</ele>
        <time>2026-09-28T03:52:16.000Z</time>
        <extensions>
          <ns3:TrackPointExtension>
            <ns3:hr>119</ns3:hr>
          </ns3:TrackPointExtension>
        </extensions>
      </trkpt>
      <trkpt lat="24.48009093292057514190673828125" lon="118.1403293274343013763427734375">
        <ele>48.40000152587890625</ele>
        <time>2026-09-28T03:52:20.000Z</time>
        <extensions>
          <ns3:TrackPointExtension>
            <ns3:hr>119</ns3:hr>
          </ns3:TrackPointExtension>
        </extensions>
      </trkpt>
      <trkpt lat="24.4802113808691501617431640625" lon="118.14032169990241527557373046875">
        <ele>48.799999237060546875</ele>
        <time>2026-09-28T03:52:26.000Z</time>
        <extensions>
          <ns3:TrackPointExtension>
            <ns3:hr>118</ns3:hr>
          </ns3:TrackPointExtension>
        </extensions>
      </trkpt>
      <trkpt lat="24.48033786378800868988037109375" lon="118.14017836935818195343017578125">
        <ele>49</ele>
        <time>2026-09-28T03:52:31.000Z</time>
        <extensions>
          <ns3:TrackPointExtension>
            <ns3:hr>119</ns3:hr>
          </ns3:TrackPointExtension>
        </extensions>
      </trkpt>
      <trkpt lat="24.48035144247114658355712890625" lon="118.1401352025568485260009765625">
        <ele>49</ele>
        <time>2026-09-28T03:52:32.000Z</time>
        <extensions>
          <ns3:TrackPointExtension>
            <ns3:hr>118</ns3:hr>
          </ns3:TrackPointExtension>
        </extensions>
      </trkpt>
      <trkpt lat="24.4803773425519466400146484375" lon="118.13997410237789154052734375">
        <ele>48.59999847412109375</ele>
        <time>2026-09-28T03:52:36.000Z</time>
        <extensions>
          <ns3:TrackPointExtension>
            <ns3:hr>118</ns3:hr>
          </ns3:TrackPointExtension>
        </extensions>
      </trkpt>
      <trkpt lat="24.48042620904743671417236328125" lon="118.13966422341763973236083984375">
        <ele>48.59999847412109375</ele>
        <time>2026-09-28T03:52:43.000Z</time>
        <extensions>
          <ns3:TrackPointExtension>
            <ns3:hr>117</ns3:hr>
          </ns3:TrackPointExtension>
        </extensions>
      </trkpt>
      <trkpt lat="24.48045990429818630218505859375" lon="118.13939281739294528961181640625">
        <ele>48.200000762939453125</ele>
        <time>2026-09-28T03:52:49.000Z</time>
        <extensions>
          <ns3:TrackPointExtension>
            <ns3:hr>114</ns3:hr>
          </ns3:TrackPointExtension>
        </extensions>
      </trkpt>
      <trkpt lat="24.48046334087848663330078125" lon="118.139347471296787261962890625">
        <ele>48.200000762939453125</ele>
        <time>2026-09-28T03:52:50.000Z</time>
        <extensions>
          <ns3:TrackPointExtension>
            <ns3:hr>114</ns3:hr>
          </ns3:TrackPointExtension>
        </extensions>
      </trkpt>
      <trkpt lat="24.48050893843173980712890625" lon="118.139045722782611846923828125">
        <ele>48.200000762939453125</ele>
        <time>2026-09-28T03:52:57.000Z</time>
        <extensions>
          <ns3:TrackPointExtension>
            <ns3:hr>111</ns3:hr>
          </ns3:TrackPointExtension>
        </extensions>
      </trkpt>
      <trkpt lat="24.4805164821445941925048828125" lon="118.13896299339830875396728515625">
        <ele>48.200000762939453125</ele>
        <time>2026-09-28T03:52:59.000Z</time>
        <extensions>
          <ns3:TrackPointExtension>
            <ns3:hr>108</ns3:hr>
          </ns3:TrackPointExtension>
        </extensions>
      </trkpt>
      <trkpt lat="24.480556882917881011962890625" lon="118.13883240334689617156982421875">
        <ele>48</ele>
        <time>2026-09-28T03:53:02.000Z</time>
        <extensions>
          <ns3:TrackPointExtension>
            <ns3:hr>108</ns3:hr>
          </ns3:TrackPointExtension>
        </extensions>
      </trkpt>
      <trkpt lat="24.48057188652455806732177734375" lon="118.13879401423037052154541015625">
        <ele>48</ele>
        <time>2026-09-28T03:53:03.000Z</time>
        <extensions>
          <ns3:TrackPointExtension>
            <ns3:hr>108</ns3:hr>
          </ns3:TrackPointExtension>
        </extensions>
      </trkpt>
      <trkpt lat="24.48061966337263584136962890625" lon="118.138695694506168365478515625">
        <ele>48</ele>
        <time>2026-09-28T03:53:07.000Z</time>
        <extensions>
          <ns3:TrackPointExtension>
            <ns3:hr>109</ns3:hr>
          </ns3:TrackPointExtension>
        </extensions>
      </trkpt>
      <trkpt lat="24.48063366115093231201171875" lon="118.1386831216514110565185546875">
        <ele>48</ele>
        <time>2026-09-28T03:53:09.000Z</time>
        <extensions>
          <ns3:TrackPointExtension>
            <ns3:hr>109</ns3:hr>
          </ns3:TrackPointExtension>
        </extensions>
      </trkpt>
      <trkpt lat="24.48067431338131427764892578125" lon="118.13865981996059417724609375">
        <ele>47.799999237060546875</ele>
        <time>2026-09-28T03:53:11.000Z</time>
        <extensions>
          <ns3:TrackPointExtension>
            <ns3:hr>109</ns3:hr>
          </ns3:TrackPointExtension>
        </extensions>
      </trkpt>
      <trkpt lat="24.48085653595626354217529296875" lon="118.1385925970971584320068359375">
        <ele>47.40000152587890625</ele>
        <time>2026-09-28T03:53:17.000Z</time>
        <extensions>
          <ns3:TrackPointExtension>
            <ns3:hr>108</ns3:hr>
          </ns3:TrackPointExtension>
        </extensions>
      </trkpt>
      <trkpt lat="24.48096818290650844573974609375" lon="118.138601481914520263671875">
        <ele>47.200000762939453125</ele>
        <time>2026-09-28T03:53:20.000Z</time>
        <extensions>
          <ns3:TrackPointExtension>
            <ns3:hr>111</ns3:hr>
          </ns3:TrackPointExtension>
        </extensions>
      </trkpt>
      <trkpt lat="24.48107345961034297943115234375" lon="118.1386200897395610809326171875">
        <ele>47</ele>
        <time>2026-09-28T03:53:23.000Z</time>
        <extensions>
          <ns3:TrackPointExtension>
            <ns3:hr>112</ns3:hr>
          </ns3:TrackPointExtension>
        </extensions>
      </trkpt>
      <trkpt lat="24.48118485510349273681640625" lon="118.13863970339298248291015625">
        <ele>46.799999237060546875</ele>
        <time>2026-09-28T03:53:26.000Z</time>
        <extensions>
          <ns3:TrackPointExtension>
            <ns3:hr>111</ns3:hr>
          </ns3:TrackPointExtension>
        </extensions>
      </trkpt>
      <trkpt lat="24.48134436272084712982177734375" lon="118.1386834569275379180908203125">
        <ele>46.59999847412109375</ele>
        <time>2026-09-28T03:53:30.000Z</time>
        <extensions>
          <ns3:TrackPointExtension>
            <ns3:hr>109</ns3:hr>
          </ns3:TrackPointExtension>
        </extensions>
      </trkpt>
      <trkpt lat="24.481613673269748687744140625" lon="118.138765431940555572509765625">
        <ele>46.40000152587890625</ele>
        <time>2026-09-28T03:53:37.000Z</time>
        <extensions>
          <ns3:TrackPointExtension>
            <ns3:hr>110</ns3:hr>
          </ns3:TrackPointExtension>
        </extensions>
      </trkpt>
      <trkpt lat="24.481861777603626251220703125" lon="118.13882117159664630889892578125">
        <ele>46.200000762939453125</ele>
        <time>2026-09-28T03:53:43.000Z</time>
        <extensions>
          <ns3:TrackPointExtension>
            <ns3:hr>110</ns3:hr>
          </ns3:TrackPointExtension>
        </extensions>
      </trkpt>
      <trkpt lat="24.4819058664143085479736328125" lon="118.13882754184305667877197265625">
        <ele>46.200000762939453125</ele>
        <time>2026-09-28T03:53:44.000Z</time>
        <extensions>
          <ns3:TrackPointExtension>
            <ns3:hr>110</ns3:hr>
          </ns3:TrackPointExtension>
        </extensions>
      </trkpt>
      <trkpt lat="24.4821248017251491546630859375" lon="118.1388883106410503387451171875">
        <ele>46.200000762939453125</ele>
        <time>2026-09-28T03:53:49.000Z</time>
        <extensions>
          <ns3:TrackPointExtension>
            <ns3:hr>110</ns3:hr>
          </ns3:TrackPointExtension>
        </extensions>
      </trkpt>
      <trkpt lat="24.482293613255023956298828125" lon="118.13893164508044719696044921875">
        <ele>45.799999237060546875</ele>
        <time>2026-09-28T03:53:53.000Z</time>
        <extensions>
          <ns3:TrackPointExtension>
            <ns3:hr>109</ns3:hr>
          </ns3:TrackPointExtension>
        </extensions>
      </trkpt>
      <trkpt lat="24.48250894434750080108642578125" lon="118.13899534754455089569091796875">
        <ele>45.40000152587890625</ele>
        <time>2026-09-28T03:53:58.000Z</time>
        <extensions>
          <ns3:TrackPointExtension>
            <ns3:hr>108</ns3:hr>
          </ns3:TrackPointExtension>
        </extensions>
      </trkpt>
      <trkpt lat="24.4827326573431491851806640625" lon="118.13906106166541576385498046875">
        <ele>45</ele>
        <time>2026-09-28T03:54:03.000Z</time>
        <extensions>
          <ns3:TrackPointExtension>
            <ns3:hr>111</ns3:hr>
          </ns3:TrackPointExtension>
        </extensions>
      </trkpt>
      <trkpt lat="24.482779763638973236083984375" lon="118.13907698728144168853759765625">
        <ele>44.799999237060546875</ele>
        <time>2026-09-28T03:54:04.000Z</time>
        <extensions>
          <ns3:TrackPointExtension>
            <ns3:hr>111</ns3:hr>
          </ns3:TrackPointExtension>
        </extensions>
      </trkpt>
      <trkpt lat="24.48288529179990291595458984375" lon="118.13909743912518024444580078125">
        <ele>44.40000152587890625</ele>
        <time>2026-09-28T03:54:06.000Z</time>
        <extensions>
          <ns3:TrackPointExtension>
            <ns3:hr>112</ns3:hr>
          </ns3:TrackPointExtension>
        </extensions>
      </trkpt>
      <trkpt lat="24.48309735395014286041259765625" lon="118.13915007747709751129150390625">
        <ele>43.799999237060546875</ele>
        <time>2026-09-28T03:54:10.000Z</time>
        <extensions>
          <ns3:TrackPointExtension>
            <ns3:hr>112</ns3:hr>
          </ns3:TrackPointExtension>
        </extensions>
      </trkpt>
      <trkpt lat="24.48325761593878269195556640625" lon="118.1392009556293487548828125">
        <ele>43.40000152587890625</ele>
        <time>2026-09-28T03:54:13.000Z</time>
        <extensions>
          <ns3:TrackPointExtension>
            <ns3:hr>112</ns3:hr>
          </ns3:TrackPointExtension>
        </extensions>
      </trkpt>
      <trkpt lat="24.4835889525711536407470703125" lon="118.139283768832683563232421875">
        <ele>42.59999847412109375</ele>
        <time>2026-09-28T03:54:19.000Z</time>
        <extensions>
          <ns3:TrackPointExtension>
            <ns3:hr>113</ns3:hr>
          </ns3:TrackPointExtension>
        </extensions>
      </trkpt>
      <trkpt lat="24.4836437702178955078125" lon="118.13929592259228229522705078125">
        <ele>42.40000152587890625</ele>
        <time>2026-09-28T03:54:20.000Z</time>
        <extensions>
          <ns3:TrackPointExtension>
            <ns3:hr>113</ns3:hr>
          </ns3:TrackPointExtension>
        </extensions>
      </trkpt>
      <trkpt lat="24.483802020549774169921875" lon="118.13933850266039371490478515625">
        <ele>41.59999847412109375</ele>
        <time>2026-09-28T03:54:23.000Z</time>
        <extensions>
          <ns3:TrackPointExtension>
            <ns3:hr>114</ns3:hr>
          </ns3:TrackPointExtension>
        </extensions>
      </trkpt>
      <trkpt lat="24.48397762142121791839599609375" lon="118.1393747963011264801025390625">
        <ele>41.40000152587890625</ele>
        <time>2026-09-28T03:54:27.000Z</time>
        <extensions>
          <ns3:TrackPointExtension>
            <ns3:hr>114</ns3:hr>
          </ns3:TrackPointExtension>
        </extensions>
      </trkpt>
      <trkpt lat="24.4840184412896633148193359375" lon="118.1393875367939472198486328125">
        <ele>41.40000152587890625</ele>
        <time>2026-09-28T03:54:28.000Z</time>
        <extensions>
          <ns3:TrackPointExtension>
            <ns3:hr>114</ns3:hr>
          </ns3:TrackPointExtension>
        </extensions>
      </trkpt>
      <trkpt lat="24.48414877988398075103759765625" lon="118.1394260935485363006591796875">
        <ele>41.40000152587890625</ele>
        <time>2026-09-28T03:54:32.000Z</time>
        <extensions>
          <ns3:TrackPointExtension>
            <ns3:hr>112</ns3:hr>
          </ns3:TrackPointExtension>
        </extensions>
      </trkpt>
      <trkpt lat="24.48438942432403564453125" lon="118.1394884549081325531005859375">
        <ele>40.799999237060546875</ele>
        <time>2026-09-28T03:54:38.000Z</time>
        <extensions>
          <ns3:TrackPointExtension>
            <ns3:hr>111</ns3:hr>
          </ns3:TrackPointExtension>
        </extensions>
      </trkpt>
      <trkpt lat="24.48443477042019367218017578125" lon="118.1394988484680652618408203125">
        <ele>40.59999847412109375</ele>
        <time>2026-09-28T03:54:39.000Z</time>
        <extensions>
          <ns3:TrackPointExtension>
            <ns3:hr>108</ns3:hr>
          </ns3:TrackPointExtension>
        </extensions>
      </trkpt>
      <trkpt lat="24.48448128998279571533203125" lon="118.1395132653415203094482421875">
        <ele>40.40000152587890625</ele>
        <time>2026-09-28T03:54:40.000Z</time>
        <extensions>
          <ns3:TrackPointExtension>
            <ns3:hr>109</ns3:hr>
          </ns3:TrackPointExtension>
        </extensions>
      </trkpt>
      <trkpt lat="24.48476870544254779815673828125" lon="118.1395967490971088409423828125">
        <ele>39.40000152587890625</ele>
        <time>2026-09-28T03:54:46.000Z</time>
        <extensions>
          <ns3:TrackPointExtension>
            <ns3:hr>109</ns3:hr>
          </ns3:TrackPointExtension>
        </extensions>
      </trkpt>
      <trkpt lat="24.4848180748522281646728515625" lon="118.13960990868508815765380859375">
        <ele>39.200000762939453125</ele>
        <time>2026-09-28T03:54:47.000Z</time>
        <extensions>
          <ns3:TrackPointExtension>
            <ns3:hr>108</ns3:hr>
          </ns3:TrackPointExtension>
        </extensions>
      </trkpt>
      <trkpt lat="24.48519148863852024078369140625" lon="118.13969724811613559722900390625">
        <ele>38.200000762939453125</ele>
        <time>2026-09-28T03:54:54.000Z</time>
        <extensions>
          <ns3:TrackPointExtension>
            <ns3:hr>108</ns3:hr>
          </ns3:TrackPointExtension>
        </extensions>
      </trkpt>
      <trkpt lat="24.48547865264117717742919921875" lon="118.13976262696087360382080078125">
        <ele>37.59999847412109375</ele>
        <time>2026-09-28T03:54:59.000Z</time>
        <extensions>
          <ns3:TrackPointExtension>
            <ns3:hr>105</ns3:hr>
          </ns3:TrackPointExtension>
        </extensions>
      </trkpt>
      <trkpt lat="24.48559851385653018951416015625" lon="118.13979900442063808441162109375">
        <ele>37.200000762939453125</ele>
        <time>2026-09-28T03:55:01.000Z</time>
        <extensions>
          <ns3:TrackPointExtension>
            <ns3:hr>104</ns3:hr>
          </ns3:TrackPointExtension>
        </extensions>
      </trkpt>
      <trkpt lat="24.48565551079809665679931640625" lon="118.13981325365602970123291015625">
        <ele>37.200000762939453125</ele>
        <time>2026-09-28T03:55:02.000Z</time>
        <extensions>
          <ns3:TrackPointExtension>
            <ns3:hr>103</ns3:hr>
          </ns3:TrackPointExtension>
        </extensions>
      </trkpt>
      <trkpt lat="24.4857132621109485626220703125" lon="118.139818869531154632568359375">
        <ele>37</ele>
        <time>2026-09-28T03:55:03.000Z</time>
        <extensions>
          <ns3:TrackPointExtension>
            <ns3:hr>104</ns3:hr>
          </ns3:TrackPointExtension>
        </extensions>
      </trkpt>
      <trkpt lat="24.4859395734965801239013671875" lon="118.13988282345235347747802734375">
        <ele>36.200000762939453125</ele>
        <time>2026-09-28T03:55:07.000Z</time>
        <extensions>
          <ns3:TrackPointExtension>
            <ns3:hr>105</ns3:hr>
          </ns3:TrackPointExtension>
        </extensions>
      </trkpt>
      <trkpt lat="24.4859834946691989898681640625" lon="118.139922805130481719970703125">
        <ele>36</ele>
        <time>2026-09-28T03:55:08.000Z</time>
        <extensions>
          <ns3:TrackPointExtension>
            <ns3:hr>105</ns3:hr>
          </ns3:TrackPointExtension>
        </extensions>
      </trkpt>
      <trkpt lat="24.4860215485095977783203125" lon="118.1399689055979251861572265625">
        <ele>36</ele>
        <time>2026-09-28T03:55:09.000Z</time>
        <extensions>
          <ns3:TrackPointExtension>
            <ns3:hr>105</ns3:hr>
          </ns3:TrackPointExtension>
        </extensions>
      </trkpt>
      <trkpt lat="24.48605750687420368194580078125" lon="118.14000771380960941314697265625">
        <ele>36</ele>
        <time>2026-09-28T03:55:10.000Z</time>
        <extensions>
          <ns3:TrackPointExtension>
            <ns3:hr>104</ns3:hr>
          </ns3:TrackPointExtension>
        </extensions>
      </trkpt>
      <trkpt lat="24.48610000312328338623046875" lon="118.140032105147838592529296875">
        <ele>36.200000762939453125</ele>
        <time>2026-09-28T03:55:11.000Z</time>
        <extensions>
          <ns3:TrackPointExtension>
            <ns3:hr>105</ns3:hr>
          </ns3:TrackPointExtension>
        </extensions>
      </trkpt>
      <trkpt lat="24.486189521849155426025390625" lon="118.14005632884800434112548828125">
        <ele>36.200000762939453125</ele>
        <time>2026-09-28T03:55:13.000Z</time>
        <extensions>
          <ns3:TrackPointExtension>
            <ns3:hr>104</ns3:hr>
          </ns3:TrackPointExtension>
        </extensions>
      </trkpt>
      <trkpt lat="24.48628532700240612030029296875" lon="118.14004945568740367889404296875">
        <ele>36.200000762939453125</ele>
        <time>2026-09-28T03:55:15.000Z</time>
        <extensions>
          <ns3:TrackPointExtension>
            <ns3:hr>105</ns3:hr>
          </ns3:TrackPointExtension>
        </extensions>
      </trkpt>
      <trkpt lat="24.48644064366817474365234375" lon="118.1400098092854022979736328125">
        <ele>35.799999237060546875</ele>
        <time>2026-09-28T03:55:18.000Z</time>
        <extensions>
          <ns3:TrackPointExtension>
            <ns3:hr>106</ns3:hr>
          </ns3:TrackPointExtension>
        </extensions>
      </trkpt>
      <trkpt lat="24.48649453930556774139404296875" lon="118.14001894555985927581787109375">
        <ele>35.59999847412109375</ele>
        <time>2026-09-28T03:55:19.000Z</time>
        <extensions>
          <ns3:TrackPointExtension>
            <ns3:hr>109</ns3:hr>
          </ns3:TrackPointExtension>
        </extensions>
      </trkpt>
      <trkpt lat="24.486544914543628692626953125" lon="118.14003311097621917724609375">
        <ele>35.40000152587890625</ele>
        <time>2026-09-28T03:55:20.000Z</time>
        <extensions>
          <ns3:TrackPointExtension>
            <ns3:hr>111</ns3:hr>
          </ns3:TrackPointExtension>
        </extensions>
      </trkpt>
      <trkpt lat="24.4865930266678333282470703125" lon="118.14005197025835514068603515625">
        <ele>35.200000762939453125</ele>
        <time>2026-09-28T03:55:21.000Z</time>
        <extensions>
          <ns3:TrackPointExtension>
            <ns3:hr>113</ns3:hr>
          </ns3:TrackPointExtension>
        </extensions>
      </trkpt>
      <trkpt lat="24.48673903942108154296875" lon="118.14009019173681735992431640625">
        <ele>34.799999237060546875</ele>
        <time>2026-09-28T03:55:24.000Z</time>
        <extensions>
          <ns3:TrackPointExtension>
            <ns3:hr>114</ns3:hr>
          </ns3:TrackPointExtension>
        </extensions>
      </trkpt>
      <trkpt lat="24.4868910871446132659912109375" lon="118.14013511873781681060791015625">
        <ele>34.59999847412109375</ele>
        <time>2026-09-28T03:55:27.000Z</time>
        <extensions>
          <ns3:TrackPointExtension>
            <ns3:hr>115</ns3:hr>
          </ns3:TrackPointExtension>
        </extensions>
      </trkpt>
      <trkpt lat="24.48728813789784908294677734375" lon="118.14023570157587528228759765625">
        <ele>33.799999237060546875</ele>
        <time>2026-09-28T03:55:35.000Z</time>
        <extensions>
          <ns3:TrackPointExtension>
            <ns3:hr>116</ns3:hr>
          </ns3:TrackPointExtension>
        </extensions>
      </trkpt>
      <trkpt lat="24.48757865466177463531494140625" lon="118.140313737094402313232421875">
        <ele>33.59999847412109375</ele>
        <time>2026-09-28T03:55:41.000Z</time>
        <extensions>
          <ns3:TrackPointExtension>
            <ns3:hr>110</ns3:hr>
          </ns3:TrackPointExtension>
        </extensions>
      </trkpt>
      <trkpt lat="24.4876253418624401092529296875" lon="118.1403253041207790374755859375">
        <ele>33.59999847412109375</ele>
        <time>2026-09-28T03:55:42.000Z</time>
        <extensions>
          <ns3:TrackPointExtension>
            <ns3:hr>105</ns3:hr>
          </ns3:TrackPointExtension>
        </extensions>
      </trkpt>
      <trkpt lat="24.4876752980053424835205078125" lon="118.140335865318775177001953125">
        <ele>33.59999847412109375</ele>
        <time>2026-09-28T03:55:43.000Z</time>
        <extensions>
          <ns3:TrackPointExtension>
            <ns3:hr>103</ns3:hr>
          </ns3:TrackPointExtension>
        </extensions>
      </trkpt>
      <trkpt lat="24.48781929910182952880859375" lon="118.140366710722446441650390625">
        <ele>33.200000762939453125</ele>
        <time>2026-09-28T03:55:46.000Z</time>
        <extensions>
          <ns3:TrackPointExtension>
            <ns3:hr>100</ns3:hr>
          </ns3:TrackPointExtension>
        </extensions>
      </trkpt>
      <trkpt lat="24.4880105741322040557861328125" lon="118.14040954224765300750732421875">
        <ele>32.799999237060546875</ele>
        <time>2026-09-28T03:55:50.000Z</time>
        <extensions>
          <ns3:TrackPointExtension>
            <ns3:hr>97</ns3:hr>
          </ns3:TrackPointExtension>
        </extensions>
      </trkpt>
      <trkpt lat="24.48805893771350383758544921875" lon="118.140423707664012908935546875">
        <ele>32.59999847412109375</ele>
        <time>2026-09-28T03:55:51.000Z</time>
        <extensions>
          <ns3:TrackPointExtension>
            <ns3:hr>98</ns3:hr>
          </ns3:TrackPointExtension>
        </extensions>
      </trkpt>
      <trkpt lat="24.4881466962397098541259765625" lon="118.14045019447803497314453125">
        <ele>32.40000152587890625</ele>
        <time>2026-09-28T03:55:53.000Z</time>
        <extensions>
          <ns3:TrackPointExtension>
            <ns3:hr>101</ns3:hr>
          </ns3:TrackPointExtension>
        </extensions>
      </trkpt>
      <trkpt lat="24.48840879835188388824462890625" lon="118.14050258137285709381103515625">
        <ele>32.200000762939453125</ele>
        <time>2026-09-28T03:55:59.000Z</time>
        <extensions>
          <ns3:TrackPointExtension>
            <ns3:hr>102</ns3:hr>
          </ns3:TrackPointExtension>
        </extensions>
      </trkpt>
      <trkpt lat="24.48857559822499752044677734375" lon="118.1405475921928882598876953125">
        <ele>32.200000762939453125</ele>
        <time>2026-09-28T03:56:03.000Z</time>
        <extensions>
          <ns3:TrackPointExtension>
            <ns3:hr>105</ns3:hr>
          </ns3:TrackPointExtension>
        </extensions>
      </trkpt>
      <trkpt lat="24.4887273944914340972900390625" lon="118.1405744142830371856689453125">
        <ele>31.6000003814697265625</ele>
        <time>2026-09-28T03:56:06.000Z</time>
        <extensions>
          <ns3:TrackPointExtension>
            <ns3:hr>106</ns3:hr>
          </ns3:TrackPointExtension>
        </extensions>
      </trkpt>
      <trkpt lat="24.4890137203037738800048828125" lon="118.14060517586767673492431640625">
        <ele>32</ele>
        <time>2026-09-28T03:56:12.000Z</time>
        <extensions>
          <ns3:TrackPointExtension>
            <ns3:hr>111</ns3:hr>
          </ns3:TrackPointExtension>
        </extensions>
      </trkpt>
      <trkpt lat="24.4891069270670413970947265625" lon="118.14061724580824375152587890625">
        <ele>31.799999237060546875</ele>
        <time>2026-09-28T03:56:14.000Z</time>
        <extensions>
          <ns3:TrackPointExtension>
            <ns3:hr>113</ns3:hr>
          </ns3:TrackPointExtension>
        </extensions>
      </trkpt>
      <trkpt lat="24.4895196519792079925537109375" lon="118.140684552490711212158203125">
        <ele>31</ele>
        <time>2026-09-28T03:56:23.000Z</time>
        <extensions>
          <ns3:TrackPointExtension>
            <ns3:hr>114</ns3:hr>
          </ns3:TrackPointExtension>
        </extensions>
      </trkpt>
      <trkpt lat="24.48985417373478412628173828125" lon="118.14072621054947376251220703125">
        <ele>30.6000003814697265625</ele>
        <time>2026-09-28T03:56:30.000Z</time>
        <extensions>
          <ns3:TrackPointExtension>
            <ns3:hr>110</ns3:hr>
          </ns3:TrackPointExtension>
        </extensions>
      </trkpt>
      <trkpt lat="24.48990195058286190032958984375" lon="118.140729479491710662841796875">
        <ele>30.6000003814697265625</ele>
        <time>2026-09-28T03:56:31.000Z</time>
        <extensions>
          <ns3:TrackPointExtension>
            <ns3:hr>108</ns3:hr>
          </ns3:TrackPointExtension>
        </extensions>
      </trkpt>
      <trkpt lat="24.49009515345096588134765625" lon="118.14074716530740261077880859375">
        <ele>30.3999996185302734375</ele>
        <time>2026-09-28T03:56:35.000Z</time>
        <extensions>
          <ns3:TrackPointExtension>
            <ns3:hr>105</ns3:hr>
          </ns3:TrackPointExtension>
        </extensions>
      </trkpt>
      <trkpt lat="24.49018794111907482147216796875" lon="118.14075739122927188873291015625">
        <ele>30.200000762939453125</ele>
        <time>2026-09-28T03:56:37.000Z</time>
        <extensions>
          <ns3:TrackPointExtension>
            <ns3:hr>105</ns3:hr>
          </ns3:TrackPointExtension>
        </extensions>
      </trkpt>
      <trkpt lat="24.49052003212273120880126953125" lon="118.14080181531608104705810546875">
        <ele>30</ele>
        <time>2026-09-28T03:56:44.000Z</time>
        <extensions>
          <ns3:TrackPointExtension>
            <ns3:hr>106</ns3:hr>
          </ns3:TrackPointExtension>
        </extensions>
      </trkpt>
      <trkpt lat="24.4906108081340789794921875" lon="118.140809945762157440185546875">
        <ele>29.799999237060546875</ele>
        <time>2026-09-28T03:56:46.000Z</time>
        <extensions>
          <ns3:TrackPointExtension>
            <ns3:hr>109</ns3:hr>
          </ns3:TrackPointExtension>
        </extensions>
      </trkpt>
      <trkpt lat="24.490797221660614013671875" lon="118.14083039760589599609375">
        <ele>29.6000003814697265625</ele>
        <time>2026-09-28T03:56:50.000Z</time>
        <extensions>
          <ns3:TrackPointExtension>
            <ns3:hr>112</ns3:hr>
          </ns3:TrackPointExtension>
        </extensions>
      </trkpt>
      <trkpt lat="24.49088598601520061492919921875" lon="118.140844814479351043701171875">
        <ele>29.6000003814697265625</ele>
        <time>2026-09-28T03:56:52.000Z</time>
        <extensions>
          <ns3:TrackPointExtension>
            <ns3:hr>112</ns3:hr>
          </ns3:TrackPointExtension>
        </extensions>
      </trkpt>
      <trkpt lat="24.49112084694206714630126953125" lon="118.1408677808940410614013671875">
        <ele>29.3999996185302734375</ele>
        <time>2026-09-28T03:56:57.000Z</time>
        <extensions>
          <ns3:TrackPointExtension>
            <ns3:hr>111</ns3:hr>
          </ns3:TrackPointExtension>
        </extensions>
      </trkpt>
      <trkpt lat="24.49140164069831371307373046875" lon="118.14089066348969936370849609375">
        <ele>29.3999996185302734375</ele>
        <time>2026-09-28T03:57:03.000Z</time>
        <extensions>
          <ns3:TrackPointExtension>
            <ns3:hr>109</ns3:hr>
          </ns3:TrackPointExtension>
        </extensions>
      </trkpt>
      <trkpt lat="24.49149451218545436859130859375" lon="118.1409056670963764190673828125">
        <ele>29.200000762939453125</ele>
        <time>2026-09-28T03:57:05.000Z</time>
        <extensions>
          <ns3:TrackPointExtension>
            <ns3:hr>109</ns3:hr>
          </ns3:TrackPointExtension>
        </extensions>
      </trkpt>
      <trkpt lat="24.49158336035907268524169921875" lon="118.14093207009136676788330078125">
        <ele>29</ele>
        <time>2026-09-28T03:57:07.000Z</time>
        <extensions>
          <ns3:TrackPointExtension>
            <ns3:hr>108</ns3:hr>
          </ns3:TrackPointExtension>
        </extensions>
      </trkpt>
      <trkpt lat="24.49176172725856304168701171875" lon="118.140986971557140350341796875">
        <ele>29</ele>
        <time>2026-09-28T03:57:11.000Z</time>
        <extensions>
          <ns3:TrackPointExtension>
            <ns3:hr>109</ns3:hr>
          </ns3:TrackPointExtension>
        </extensions>
      </trkpt>
      <trkpt lat="24.4920271821320056915283203125" lon="118.1410248577594757080078125">
        <ele>28.6000003814697265625</ele>
        <time>2026-09-28T03:57:17.000Z</time>
        <extensions>
          <ns3:TrackPointExtension>
            <ns3:hr>108</ns3:hr>
          </ns3:TrackPointExtension>
        </extensions>
      </trkpt>
      <trkpt lat="24.492105133831501007080078125" lon="118.1410624086856842041015625">
        <ele>28.6000003814697265625</ele>
        <time>2026-09-28T03:57:19.000Z</time>
        <extensions>
          <ns3:TrackPointExtension>
            <ns3:hr>108</ns3:hr>
          </ns3:TrackPointExtension>
        </extensions>
      </trkpt>
      <trkpt lat="24.49216808192431926727294921875" lon="118.14109333790838718414306640625">
        <ele>28.3999996185302734375</ele>
        <time>2026-09-28T03:57:21.000Z</time>
        <extensions>
          <ns3:TrackPointExtension>
            <ns3:hr>108</ns3:hr>
          </ns3:TrackPointExtension>
        </extensions>
      </trkpt>
      <trkpt lat="24.492194317281246185302734375" lon="118.1410883925855159759521484375">
        <ele>28.200000762939453125</ele>
        <time>2026-09-28T03:57:22.000Z</time>
        <extensions>
          <ns3:TrackPointExtension>
            <ns3:hr>108</ns3:hr>
          </ns3:TrackPointExtension>
        </extensions>
      </trkpt>
      <trkpt lat="24.492248632013797760009765625" lon="118.14106442034244537353515625">
        <ele>28</ele>
        <time>2026-09-28T03:57:24.000Z</time>
        <extensions>
          <ns3:TrackPointExtension>
            <ns3:hr>111</ns3:hr>
          </ns3:TrackPointExtension>
        </extensions>
      </trkpt>
      <trkpt lat="24.49227587319910526275634765625" lon="118.14106173813343048095703125">
        <ele>28</ele>
        <time>2026-09-28T03:57:25.000Z</time>
        <extensions>
          <ns3:TrackPointExtension>
            <ns3:hr>112</ns3:hr>
          </ns3:TrackPointExtension>
        </extensions>
      </trkpt>
      <trkpt lat="24.49241970665752887725830078125" lon="118.141095601022243499755859375">
        <ele>27.799999237060546875</ele>
        <time>2026-09-28T03:57:30.000Z</time>
        <extensions>
          <ns3:TrackPointExtension>
            <ns3:hr>110</ns3:hr>
          </ns3:TrackPointExtension>
        </extensions>
      </trkpt>
      <trkpt lat="24.4926424138247966766357421875" lon="118.14115687273442745208740234375">
        <ele>27.6000003814697265625</ele>
        <time>2026-09-28T03:57:37.000Z</time>
        <extensions>
          <ns3:TrackPointExtension>
            <ns3:hr>110</ns3:hr>
          </ns3:TrackPointExtension>
        </extensions>
      </trkpt>
      <trkpt lat="24.4927480258047580718994140625" lon="118.1411561183631420135498046875">
        <ele>27.6000003814697265625</ele>
        <time>2026-09-28T03:57:40.000Z</time>
        <extensions>
          <ns3:TrackPointExtension>
            <ns3:hr>107</ns3:hr>
          </ns3:TrackPointExtension>
        </extensions>
      </trkpt>
      <trkpt lat="24.49282723478972911834716796875" lon="118.14114396460354328155517578125">
        <ele>27.799999237060546875</ele>
        <time>2026-09-28T03:57:42.000Z</time>
        <extensions>
          <ns3:TrackPointExtension>
            <ns3:hr>103</ns3:hr>
          </ns3:TrackPointExtension>
        </extensions>
      </trkpt>
      <trkpt lat="24.49286713264882564544677734375" lon="118.14115016721189022064208984375">
        <ele>27.799999237060546875</ele>
        <time>2026-09-28T03:57:43.000Z</time>
        <extensions>
          <ns3:TrackPointExtension>
            <ns3:hr>103</ns3:hr>
          </ns3:TrackPointExtension>
        </extensions>
      </trkpt>
      <trkpt lat="24.4930274784564971923828125" lon="118.14120657742023468017578125">
        <ele>27.799999237060546875</ele>
        <time>2026-09-28T03:57:47.000Z</time>
        <extensions>
          <ns3:TrackPointExtension>
            <ns3:hr>104</ns3:hr>
          </ns3:TrackPointExtension>
        </extensions>
      </trkpt>
      <trkpt lat="24.4932016544044017791748046875" lon="118.14125846140086650848388671875">
        <ele>27.6000003814697265625</ele>
        <time>2026-09-28T03:57:51.000Z</time>
        <extensions>
          <ns3:TrackPointExtension>
            <ns3:hr>105</ns3:hr>
          </ns3:TrackPointExtension>
        </extensions>
      </trkpt>
      <trkpt lat="24.4932697154581546783447265625" lon="118.1412989459931850433349609375">
        <ele>27.3999996185302734375</ele>
        <time>2026-09-28T03:57:53.000Z</time>
        <extensions>
          <ns3:TrackPointExtension>
            <ns3:hr>105</ns3:hr>
          </ns3:TrackPointExtension>
        </extensions>
      </trkpt>
      <trkpt lat="24.49347901158034801483154296875" lon="118.1413948349654674530029296875">
        <ele>27.200000762939453125</ele>
        <time>2026-09-28T03:57:59.000Z</time>
        <extensions>
          <ns3:TrackPointExtension>
            <ns3:hr>104</ns3:hr>
          </ns3:TrackPointExtension>
        </extensions>
      </trkpt>
      <trkpt lat="24.4936733879148960113525390625" lon="118.14146281220018863677978515625">
        <ele>27.200000762939453125</ele>
        <time>2026-09-28T03:58:04.000Z</time>
        <extensions>
          <ns3:TrackPointExtension>
            <ns3:hr>107</ns3:hr>
          </ns3:TrackPointExtension>
        </extensions>
      </trkpt>
      <trkpt lat="24.4937543570995330810546875" lon="118.14148594625294208526611328125">
        <ele>27</ele>
        <time>2026-09-28T03:58:06.000Z</time>
        <extensions>
          <ns3:TrackPointExtension>
            <ns3:hr>109</ns3:hr>
          </ns3:TrackPointExtension>
        </extensions>
      </trkpt>
      <trkpt lat="24.49396432377398014068603515625" lon="118.14152584411203861236572265625">
        <ele>27</ele>
        <time>2026-09-28T03:58:11.000Z</time>
        <extensions>
          <ns3:TrackPointExtension>
            <ns3:hr>108</ns3:hr>
          </ns3:TrackPointExtension>
        </extensions>
      </trkpt>
      <trkpt lat="24.494005143642425537109375" lon="118.14153640531003475189208984375">
        <ele>26.799999237060546875</ele>
        <time>2026-09-28T03:58:12.000Z</time>
        <extensions>
          <ns3:TrackPointExtension>
            <ns3:hr>109</ns3:hr>
          </ns3:TrackPointExtension>
        </extensions>
      </trkpt>
      <trkpt lat="24.49432432651519775390625" lon="118.1416643969714641571044921875">
        <ele>27</ele>
        <time>2026-09-28T03:58:20.000Z</time>
        <extensions>
          <ns3:TrackPointExtension>
            <ns3:hr>111</ns3:hr>
          </ns3:TrackPointExtension>
        </extensions>
      </trkpt>
      <trkpt lat="24.49458307586610317230224609375" lon="118.14170085825026035308837890625">
        <ele>27</ele>
        <time>2026-09-28T03:58:26.000Z</time>
        <extensions>
          <ns3:TrackPointExtension>
            <ns3:hr>111</ns3:hr>
          </ns3:TrackPointExtension>
        </extensions>
      </trkpt>
      <trkpt lat="24.49477049522101879119873046875" lon="118.141784928739070892333984375">
        <ele>26.799999237060546875</ele>
        <time>2026-09-28T03:58:31.000Z</time>
        <extensions>
          <ns3:TrackPointExtension>
            <ns3:hr>112</ns3:hr>
          </ns3:TrackPointExtension>
        </extensions>
      </trkpt>
      <trkpt lat="24.494811482727527618408203125" lon="118.14179800450801849365234375">
        <ele>26.6000003814697265625</ele>
        <time>2026-09-28T03:58:32.000Z</time>
        <extensions>
          <ns3:TrackPointExtension>
            <ns3:hr>113</ns3:hr>
          </ns3:TrackPointExtension>
        </extensions>
      </trkpt>
      <trkpt lat="24.49488599784672260284423828125" lon="118.1418335437774658203125">
        <ele>26.3999996185302734375</ele>
        <time>2026-09-28T03:58:34.000Z</time>
        <extensions>
          <ns3:TrackPointExtension>
            <ns3:hr>113</ns3:hr>
          </ns3:TrackPointExtension>
        </extensions>
      </trkpt>
      <trkpt lat="24.4949264824390411376953125" lon="118.1418407522141933441162109375">
        <ele>26.200000762939453125</ele>
        <time>2026-09-28T03:58:35.000Z</time>
        <extensions>
          <ns3:TrackPointExtension>
            <ns3:hr>113</ns3:hr>
          </ns3:TrackPointExtension>
        </extensions>
      </trkpt>
      <trkpt lat="24.49497132562100887298583984375" lon="118.14185508526861667633056640625">
        <ele>26.200000762939453125</ele>
        <time>2026-09-28T03:58:36.000Z</time>
        <extensions>
          <ns3:TrackPointExtension>
            <ns3:hr>113</ns3:hr>
          </ns3:TrackPointExtension>
        </extensions>
      </trkpt>
      <trkpt lat="24.495109207928180694580078125" lon="118.14190017990767955780029296875">
        <ele>26</ele>
        <time>2026-09-28T03:58:39.000Z</time>
        <extensions>
          <ns3:TrackPointExtension>
            <ns3:hr>114</ns3:hr>
          </ns3:TrackPointExtension>
        </extensions>
      </trkpt>
      <trkpt lat="24.4952832162380218505859375" lon="118.1419636309146881103515625">
        <ele>26.200000762939453125</ele>
        <time>2026-09-28T03:58:43.000Z</time>
        <extensions>
          <ns3:TrackPointExtension>
            <ns3:hr>114</ns3:hr>
          </ns3:TrackPointExtension>
        </extensions>
      </trkpt>
      <trkpt lat="24.49556778185069561004638671875" lon="118.14205725677311420440673828125">
        <ele>25.3999996185302734375</ele>
        <time>2026-09-28T03:58:50.000Z</time>
        <extensions>
          <ns3:TrackPointExtension>
            <ns3:hr>112</ns3:hr>
          </ns3:TrackPointExtension>
        </extensions>
      </trkpt>
      <trkpt lat="24.4958074204623699188232421875" lon="118.14212917350232601165771484375">
        <ele>26</ele>
        <time>2026-09-28T03:58:56.000Z</time>
        <extensions>
          <ns3:TrackPointExtension>
            <ns3:hr>111</ns3:hr>
          </ns3:TrackPointExtension>
        </extensions>
      </trkpt>
      <trkpt lat="24.4960203208029270172119140625" lon="118.1421974860131740570068359375">
        <ele>25.799999237060546875</ele>
        <time>2026-09-28T03:59:01.000Z</time>
        <extensions>
          <ns3:TrackPointExtension>
            <ns3:hr>110</ns3:hr>
          </ns3:TrackPointExtension>
        </extensions>
      </trkpt>
      <trkpt lat="24.4961011223495006561279296875" lon="118.142226152122020721435546875">
        <ele>25.799999237060546875</ele>
        <time>2026-09-28T03:59:03.000Z</time>
        <extensions>
          <ns3:TrackPointExtension>
            <ns3:hr>110</ns3:hr>
          </ns3:TrackPointExtension>
        </extensions>
      </trkpt>
      <trkpt lat="24.4963851012289524078369140625" lon="118.14231944270431995391845703125">
        <ele>25.6000003814697265625</ele>
        <time>2026-09-28T03:59:10.000Z</time>
        <extensions>
          <ns3:TrackPointExtension>
            <ns3:hr>110</ns3:hr>
          </ns3:TrackPointExtension>
        </extensions>
      </trkpt>
      <trkpt lat="24.49648040346801280975341796875" lon="118.14244684763252735137939453125">
        <ele>25.3999996185302734375</ele>
        <time>2026-09-28T03:59:14.000Z</time>
        <extensions>
          <ns3:TrackPointExtension>
            <ns3:hr>109</ns3:hr>
          </ns3:TrackPointExtension>
        </extensions>
      </trkpt>
      <trkpt lat="24.49651309289038181304931640625" lon="118.142464868724346160888671875">
        <ele>25.3999996185302734375</ele>
        <time>2026-09-28T03:59:15.000Z</time>
        <extensions>
          <ns3:TrackPointExtension>
            <ns3:hr>110</ns3:hr>
          </ns3:TrackPointExtension>
        </extensions>
      </trkpt>
      <trkpt lat="24.49658836238086223602294921875" lon="118.142474927008152008056640625">
        <ele>25.6000003814697265625</ele>
        <time>2026-09-28T03:59:17.000Z</time>
        <extensions>
          <ns3:TrackPointExtension>
            <ns3:hr>109</ns3:hr>
          </ns3:TrackPointExtension>
        </extensions>
      </trkpt>
      <trkpt lat="24.49670487083494663238525390625" lon="118.14246377907693386077880859375">
        <ele>25.6000003814697265625</ele>
        <time>2026-09-28T03:59:20.000Z</time>
        <extensions>
          <ns3:TrackPointExtension>
            <ns3:hr>112</ns3:hr>
          </ns3:TrackPointExtension>
        </extensions>
      </trkpt>
      <trkpt lat="24.49678198434412479400634765625" lon="118.14246847294270992279052734375">
        <ele>25.6000003814697265625</ele>
        <time>2026-09-28T03:59:22.000Z</time>
        <extensions>
          <ns3:TrackPointExtension>
            <ns3:hr>113</ns3:hr>
          </ns3:TrackPointExtension>
        </extensions>
      </trkpt>
      <trkpt lat="24.49692598544061183929443359375" lon="118.1425210274755954742431640625">
        <ele>26</ele>
        <time>2026-09-28T03:59:26.000Z</time>
        <extensions>
          <ns3:TrackPointExtension>
            <ns3:hr>115</ns3:hr>
          </ns3:TrackPointExtension>
        </extensions>
      </trkpt>
      <trkpt lat="24.4970479421317577362060546875" lon="118.14254256896674633026123046875">
        <ele>26.6000003814697265625</ele>
        <time>2026-09-28T03:59:29.000Z</time>
        <extensions>
          <ns3:TrackPointExtension>
            <ns3:hr>115</ns3:hr>
          </ns3:TrackPointExtension>
        </extensions>
      </trkpt>
      <trkpt lat="24.49716067872941493988037109375" lon="118.14259571023285388946533203125">
        <ele>26.3999996185302734375</ele>
        <time>2026-09-28T03:59:32.000Z</time>
        <extensions>
          <ns3:TrackPointExtension>
            <ns3:hr>115</ns3:hr>
          </ns3:TrackPointExtension>
        </extensions>
      </trkpt>
      <trkpt lat="24.49741423130035400390625" lon="118.142701573669910430908203125">
        <ele>26.3999996185302734375</ele>
        <time>2026-09-28T03:59:39.000Z</time>
        <extensions>
          <ns3:TrackPointExtension>
            <ns3:hr>114</ns3:hr>
          </ns3:TrackPointExtension>
        </extensions>
      </trkpt>
      <trkpt lat="24.497759230434894561767578125" lon="118.14279469661414623260498046875">
        <ele>26.6000003814697265625</ele>
        <time>2026-09-28T03:59:48.000Z</time>
        <extensions>
          <ns3:TrackPointExtension>
            <ns3:hr>111</ns3:hr>
          </ns3:TrackPointExtension>
        </extensions>
      </trkpt>
      <trkpt lat="24.497926197946071624755859375" lon="118.1428420543670654296875">
        <ele>27</ele>
        <time>2026-09-28T03:59:52.000Z</time>
        <extensions>
          <ns3:TrackPointExtension>
            <ns3:hr>108</ns3:hr>
          </ns3:TrackPointExtension>
        </extensions>
      </trkpt>
      <trkpt lat="24.49800205416977405548095703125" lon="118.14286644570529460906982421875">
        <ele>27</ele>
        <time>2026-09-28T03:59:54.000Z</time>
        <extensions>
          <ns3:TrackPointExtension>
            <ns3:hr>104</ns3:hr>
          </ns3:TrackPointExtension>
        </extensions>
      </trkpt>
      <trkpt lat="24.49808411300182342529296875" lon="118.14288538880646228790283203125">
        <ele>27</ele>
        <time>2026-09-28T03:59:56.000Z</time>
        <extensions>
          <ns3:TrackPointExtension>
            <ns3:hr>101</ns3:hr>
          </ns3:TrackPointExtension>
        </extensions>
      </trkpt>
      <trkpt lat="24.4982472248375415802001953125" lon="118.14293819479644298553466796875">
        <ele>27</ele>
        <time>2026-09-28T04:00:00.000Z</time>
        <extensions>
          <ns3:TrackPointExtension>
            <ns3:hr>104</ns3:hr>
          </ns3:TrackPointExtension>
        </extensions>
      </trkpt>
      <trkpt lat="24.4982830993831157684326171875" lon="118.142952360212802886962890625">
        <ele>27</ele>
        <time>2026-09-28T04:00:01.000Z</time>
        <extensions>
          <ns3:TrackPointExtension>
            <ns3:hr>107</ns3:hr>
          </ns3:TrackPointExtension>
        </extensions>
      </trkpt>
      <trkpt lat="24.49831805191934108734130859375" lon="118.1429629214107990264892578125">
        <ele>27.200000762939453125</ele>
        <time>2026-09-28T04:00:02.000Z</time>
        <extensions>
          <ns3:TrackPointExtension>
            <ns3:hr>110</ns3:hr>
          </ns3:TrackPointExtension>
        </extensions>
      </trkpt>
      <trkpt lat="24.4983535073697566986083984375" lon="118.14297557808458805084228515625">
        <ele>27.200000762939453125</ele>
        <time>2026-09-28T04:00:03.000Z</time>
        <extensions>
          <ns3:TrackPointExtension>
            <ns3:hr>113</ns3:hr>
          </ns3:TrackPointExtension>
        </extensions>
      </trkpt>
      <trkpt lat="24.4984949938952922821044921875" lon="118.1430209241807460784912109375">
        <ele>27.3999996185302734375</ele>
        <time>2026-09-28T04:00:07.000Z</time>
        <extensions>
          <ns3:TrackPointExtension>
            <ns3:hr>116</ns3:hr>
          </ns3:TrackPointExtension>
        </extensions>
      </trkpt>
      <trkpt lat="24.498606808483600616455078125" lon="118.143060989677906036376953125">
        <ele>27.3999996185302734375</ele>
        <time>2026-09-28T04:00:10.000Z</time>
        <extensions>
          <ns3:TrackPointExtension>
            <ns3:hr>117</ns3:hr>
          </ns3:TrackPointExtension>
        </extensions>
      </trkpt>
      <trkpt lat="24.4987960718572139739990234375" lon="118.143174983561038970947265625">
        <ele>27.200000762939453125</ele>
        <time>2026-09-28T04:00:16.000Z</time>
        <extensions>
          <ns3:TrackPointExtension>
            <ns3:hr>117</ns3:hr>
          </ns3:TrackPointExtension>
        </extensions>
      </trkpt>
      <trkpt lat="24.4990089721977710723876953125" lon="118.1432344950735569000244140625">
        <ele>27.200000762939453125</ele>
        <time>2026-09-28T04:00:22.000Z</time>
        <extensions>
          <ns3:TrackPointExtension>
            <ns3:hr>116</ns3:hr>
          </ns3:TrackPointExtension>
        </extensions>
      </trkpt>
      <trkpt lat="24.4991333596408367156982421875" lon="118.1432452239096164703369140625">
        <ele>27.6000003814697265625</ele>
        <time>2026-09-28T04:00:25.000Z</time>
        <extensions>
          <ns3:TrackPointExtension>
            <ns3:hr>116</ns3:hr>
          </ns3:TrackPointExtension>
        </extensions>
      </trkpt>
      <trkpt lat="24.49925363995134830474853515625" lon="118.14328134991228580474853515625">
        <ele>27.6000003814697265625</ele>
        <time>2026-09-28T04:00:28.000Z</time>
        <extensions>
          <ns3:TrackPointExtension>
            <ns3:hr>116</ns3:hr>
          </ns3:TrackPointExtension>
        </extensions>
      </trkpt>
      <trkpt lat="24.49953426606953144073486328125" lon="118.1433679349720478057861328125">
        <ele>28</ele>
        <time>2026-09-28T04:00:35.000Z</time>
        <extensions>
          <ns3:TrackPointExtension>
            <ns3:hr>117</ns3:hr>
          </ns3:TrackPointExtension>
        </extensions>
      </trkpt>
      <trkpt lat="24.499834589660167694091796875" lon="118.14346189610660076141357421875">
        <ele>28.200000762939453125</ele>
        <time>2026-09-28T04:00:43.000Z</time>
        <extensions>
          <ns3:TrackPointExtension>
            <ns3:hr>117</ns3:hr>
          </ns3:TrackPointExtension>
        </extensions>
      </trkpt>
      <trkpt lat="24.500049836933612823486328125" lon="118.14353968016803264617919921875">
        <ele>28.6000003814697265625</ele>
        <time>2026-09-28T04:00:49.000Z</time>
        <extensions>
          <ns3:TrackPointExtension>
            <ns3:hr>117</ns3:hr>
          </ns3:TrackPointExtension>
        </extensions>
      </trkpt>
      <trkpt lat="24.50011529959738254547119140625" lon="118.14358142204582691192626953125">
        <ele>28.799999237060546875</ele>
        <time>2026-09-28T04:00:51.000Z</time>
        <extensions>
          <ns3:TrackPointExtension>
            <ns3:hr>116</ns3:hr>
          </ns3:TrackPointExtension>
        </extensions>
      </trkpt>
      <trkpt lat="24.50027137063443660736083984375" lon="118.1436244212090969085693359375">
        <ele>28.799999237060546875</ele>
        <time>2026-09-28T04:00:55.000Z</time>
        <extensions>
          <ns3:TrackPointExtension>
            <ns3:hr>116</ns3:hr>
          </ns3:TrackPointExtension>
        </extensions>
      </trkpt>
      <trkpt lat="24.500533640384674072265625" lon="118.143744282424449920654296875">
        <ele>29</ele>
        <time>2026-09-28T04:01:02.000Z</time>
        <extensions>
          <ns3:TrackPointExtension>
            <ns3:hr>115</ns3:hr>
          </ns3:TrackPointExtension>
        </extensions>
      </trkpt>
      <trkpt lat="24.50075022876262664794921875" lon="118.14394184388220310211181640625">
        <ele>29.200000762939453125</ele>
        <time>2026-09-28T04:01:09.000Z</time>
        <extensions>
          <ns3:TrackPointExtension>
            <ns3:hr>116</ns3:hr>
          </ns3:TrackPointExtension>
        </extensions>
      </trkpt>
      <trkpt lat="24.500863552093505859375" lon="118.1441199593245983123779296875">
        <ele>29.6000003814697265625</ele>
        <time>2026-09-28T04:01:14.000Z</time>
        <extensions>
          <ns3:TrackPointExtension>
            <ns3:hr>119</ns3:hr>
          </ns3:TrackPointExtension>
        </extensions>
      </trkpt>
      <trkpt lat="24.50088157318532466888427734375" lon="118.144158683717250823974609375">
        <ele>29.6000003814697265625</ele>
        <time>2026-09-28T04:01:15.000Z</time>
        <extensions>
          <ns3:TrackPointExtension>
            <ns3:hr>120</ns3:hr>
          </ns3:TrackPointExtension>
        </extensions>
      </trkpt>
      <trkpt lat="24.50091090984642505645751953125" lon="118.1442383117973804473876953125">
        <ele>29.6000003814697265625</ele>
        <time>2026-09-28T04:01:17.000Z</time>
        <extensions>
          <ns3:TrackPointExtension>
            <ns3:hr>120</ns3:hr>
          </ns3:TrackPointExtension>
        </extensions>
      </trkpt>
      <trkpt lat="24.5009559206664562225341796875" lon="118.14448465593159198760986328125">
        <ele>29.6000003814697265625</ele>
        <time>2026-09-28T04:01:23.000Z</time>
        <extensions>
          <ns3:TrackPointExtension>
            <ns3:hr>122</ns3:hr>
          </ns3:TrackPointExtension>
        </extensions>
      </trkpt>
      <trkpt lat="24.50097410939633846282958984375" lon="118.144704513251781463623046875">
        <ele>29.6000003814697265625</ele>
        <time>2026-09-28T04:01:28.000Z</time>
        <extensions>
          <ns3:TrackPointExtension>
            <ns3:hr>121</ns3:hr>
          </ns3:TrackPointExtension>
        </extensions>
      </trkpt>
      <trkpt lat="24.50098064728081226348876953125" lon="118.14496099948883056640625">
        <ele>30</ele>
        <time>2026-09-28T04:01:34.000Z</time>
        <extensions>
          <ns3:TrackPointExtension>
            <ns3:hr>120</ns3:hr>
          </ns3:TrackPointExtension>
        </extensions>
      </trkpt>
      <trkpt lat="24.5009941421449184417724609375" lon="118.145225532352924346923828125">
        <ele>29.6000003814697265625</ele>
        <time>2026-09-28T04:01:41.000Z</time>
        <extensions>
          <ns3:TrackPointExtension>
            <ns3:hr>121</ns3:hr>
          </ns3:TrackPointExtension>
        </extensions>
      </trkpt>
      <trkpt lat="24.50103395618498325347900390625" lon="118.145318739116191864013671875">
        <ele>30</ele>
        <time>2026-09-28T04:01:46.000Z</time>
        <extensions>
          <ns3:TrackPointExtension>
            <ns3:hr>121</ns3:hr>
          </ns3:TrackPointExtension>
        </extensions>
      </trkpt>
      <trkpt lat="24.5010316930711269378662109375" lon="118.14531798474490642547607421875">
        <ele>30</ele>
        <time>2026-09-28T04:01:49.000Z</time>
        <extensions>
          <ns3:TrackPointExtension>
            <ns3:hr>122</ns3:hr>
          </ns3:TrackPointExtension>
        </extensions>
      </trkpt>
    </trkseg>
  </trk>
</gpx>
