<?xml version="1.0" encoding="UTF-8"?>
<gpx creator="Garmin Connect" version="1.1"
  xsi:schemaLocation="http://www.topografix.com/GPX/1/1 http://www.topografix.com/GPX/11.xsd"
  xmlns:ns3="http://www.garmin.com/xmlschemas/TrackPointExtension/v1"
  xmlns="http://www.topografix.com/GPX/1/1"
  xmlns:xsi="http://www.w3.org/2001/XMLSchema-instance" xmlns:ns2="http://www.garmin.com/xmlschemas/GpxExtensions/v3">
  <metadata>
    <link href="connect.garmin.com">
      <text>Garmin Connect</text>
    </link>
    <time>2026-09-29T12:00:48.000Z</time>
  </metadata>
  <trk>
    <name>厦门市 骑行</name>
    <type>cycling</type>
    <trkseg>
      <trkpt lat="24.5306476391851902008056640625" lon="118.14413345418870449066162109375">
        <ele>15.19999980926513671875</ele>
        <time>2026-09-29T12:00:48.000Z</time>
        <extensions>
          <ns3:TrackPointExtension>
            <ns3:hr>106</ns3:hr>
          </ns3:TrackPointExtension>
        </extensions>
      </trkpt>
      <trkpt lat="24.53063003718852996826171875" lon="118.1441595219075679779052734375">
        <ele>15.19999980926513671875</ele>
        <time>2026-09-29T12:00:49.000Z</time>
        <extensions>
          <ns3:TrackPointExtension>
            <ns3:hr>106</ns3:hr>
          </ns3:TrackPointExtension>
        </extensions>
      </trkpt>
      <trkpt lat="24.53067689202725887298583984375" lon="118.14423202537000179290771484375">
        <ele>15</ele>
        <time>2026-09-29T12:00:53.000Z</time>
        <extensions>
          <ns3:TrackPointExtension>
            <ns3:hr>105</ns3:hr>
          </ns3:TrackPointExtension>
        </extensions>
      </trkpt>
      <trkpt lat="24.53072123229503631591796875" lon="118.14426186494529247283935546875">
        <ele>15</ele>
        <time>2026-09-29T12:00:55.000Z</time>
        <extensions>
          <ns3:TrackPointExtension>
            <ns3:hr>102</ns3:hr>
          </ns3:TrackPointExtension>
        </extensions>
      </trkpt>
      <trkpt lat="24.53080044128000736236572265625" lon="118.14429857768118381500244140625">
        <ele>14.80000019073486328125</ele>
        <time>2026-09-29T12:00:58.000Z</time>
        <extensions>
          <ns3:TrackPointExtension>
            <ns3:hr>100</ns3:hr>
          </ns3:TrackPointExtension>
        </extensions>
      </trkpt>
      <trkpt lat="24.53099523670971393585205078125" lon="118.14440603367984294891357421875">
        <ele>14.6000003814697265625</ele>
        <time>2026-09-29T12:01:05.000Z</time>
        <extensions>
          <ns3:TrackPointExtension>
            <ns3:hr>97</ns3:hr>
          </ns3:TrackPointExtension>
        </extensions>
      </trkpt>
      <trkpt lat="24.5310223102569580078125" lon="118.14441810362040996551513671875">
        <ele>14.6000003814697265625</ele>
        <time>2026-09-29T12:01:06.000Z</time>
        <extensions>
          <ns3:TrackPointExtension>
            <ns3:hr>95</ns3:hr>
          </ns3:TrackPointExtension>
        </extensions>
      </trkpt>
      <trkpt lat="24.53107620589435100555419921875" lon="118.1444609351456165313720703125">
        <ele>14.3999996185302734375</ele>
        <time>2026-09-29T12:01:08.000Z</time>
        <extensions>
          <ns3:TrackPointExtension>
            <ns3:hr>92</ns3:hr>
          </ns3:TrackPointExtension>
        </extensions>
      </trkpt>
      <trkpt lat="24.5310960710048675537109375" lon="118.14449228346347808837890625">
        <ele>14.3999996185302734375</ele>
        <time>2026-09-29T12:01:09.000Z</time>
        <extensions>
          <ns3:TrackPointExtension>
            <ns3:hr>89</ns3:hr>
          </ns3:TrackPointExtension>
        </extensions>
      </trkpt>
      <trkpt lat="24.5311041176319122314453125" lon="118.1445296667516231536865234375">
        <ele>14.3999996185302734375</ele>
        <time>2026-09-29T12:01:10.000Z</time>
        <extensions>
          <ns3:TrackPointExtension>
            <ns3:hr>87</ns3:hr>
          </ns3:TrackPointExtension>
        </extensions>
      </trkpt>
      <trkpt lat="24.5311143435537815093994140625" lon="118.144566379487514495849609375">
        <ele>14.3999996185302734375</ele>
        <time>2026-09-29T12:01:11.000Z</time>
        <extensions>
          <ns3:TrackPointExtension>
            <ns3:hr>87</ns3:hr>
          </ns3:TrackPointExtension>
        </extensions>
      </trkpt>
      <trkpt lat="24.53116958029568195343017578125" lon="118.1447496078908443450927734375">
        <ele>14.3999996185302734375</ele>
        <time>2026-09-29T12:01:16.000Z</time>
        <extensions>
          <ns3:TrackPointExtension>
            <ns3:hr>84</ns3:hr>
          </ns3:TrackPointExtension>
        </extensions>
      </trkpt>
      <trkpt lat="24.53117729164659976959228515625" lon="118.1447871588170528411865234375">
        <ele>14.3999996185302734375</ele>
        <time>2026-09-29T12:01:17.000Z</time>
        <extensions>
          <ns3:TrackPointExtension>
            <ns3:hr>84</ns3:hr>
          </ns3:TrackPointExtension>
        </extensions>
      </trkpt>
      <trkpt lat="24.5312625356018543243408203125" lon="118.145128972828388214111328125">
        <ele>14.80000019073486328125</ele>
        <time>2026-09-29T12:01:26.000Z</time>
        <extensions>
          <ns3:TrackPointExtension>
            <ns3:hr>83</ns3:hr>
          </ns3:TrackPointExtension>
        </extensions>
      </trkpt>
      <trkpt lat="24.531346522271633148193359375" lon="118.14544991590082645416259765625">
        <ele>14.6000003814697265625</ele>
        <time>2026-09-29T12:01:34.000Z</time>
        <extensions>
          <ns3:TrackPointExtension>
            <ns3:hr>84</ns3:hr>
          </ns3:TrackPointExtension>
        </extensions>
      </trkpt>
      <trkpt lat="24.53144081868231296539306640625" lon="118.1458268500864505767822265625">
        <ele>14.6000003814697265625</ele>
        <time>2026-09-29T12:01:43.000Z</time>
        <extensions>
          <ns3:TrackPointExtension>
            <ns3:hr>83</ns3:hr>
          </ns3:TrackPointExtension>
        </extensions>
      </trkpt>
      <trkpt lat="24.53149865381419658660888671875" lon="118.14606665633618831634521484375">
        <ele>14.6000003814697265625</ele>
        <time>2026-09-29T12:01:49.000Z</time>
        <extensions>
          <ns3:TrackPointExtension>
            <ns3:hr>84</ns3:hr>
          </ns3:TrackPointExtension>
        </extensions>
      </trkpt>
      <trkpt lat="24.53155137598514556884765625" lon="118.1462660618126392364501953125">
        <ele>14.6000003814697265625</ele>
        <time>2026-09-29T12:01:54.000Z</time>
        <extensions>
          <ns3:TrackPointExtension>
            <ns3:hr>87</ns3:hr>
          </ns3:TrackPointExtension>
        </extensions>
      </trkpt>
      <trkpt lat="24.53157828189432621002197265625" lon="118.14639254473149776458740234375">
        <ele>14.6000003814697265625</ele>
        <time>2026-09-29T12:01:57.000Z</time>
        <extensions>
          <ns3:TrackPointExtension>
            <ns3:hr>88</ns3:hr>
          </ns3:TrackPointExtension>
        </extensions>
      </trkpt>
      <trkpt lat="24.5316457562148571014404296875" lon="118.14664098434150218963623046875">
        <ele>14.6000003814697265625</ele>
        <time>2026-09-29T12:02:03.000Z</time>
        <extensions>
          <ns3:TrackPointExtension>
            <ns3:hr>91</ns3:hr>
          </ns3:TrackPointExtension>
        </extensions>
      </trkpt>
      <trkpt lat="24.53165472485125064849853515625" lon="118.14668306149542331695556640625">
        <ele>14.6000003814697265625</ele>
        <time>2026-09-29T12:02:04.000Z</time>
        <extensions>
          <ns3:TrackPointExtension>
            <ns3:hr>94</ns3:hr>
          </ns3:TrackPointExtension>
        </extensions>
      </trkpt>
      <trkpt lat="24.53169462271034717559814453125" lon="118.14685556106269359588623046875">
        <ele>14.3999996185302734375</ele>
        <time>2026-09-29T12:02:08.000Z</time>
        <extensions>
          <ns3:TrackPointExtension>
            <ns3:hr>96</ns3:hr>
          </ns3:TrackPointExtension>
        </extensions>
      </trkpt>
      <trkpt lat="24.531763605773448944091796875" lon="118.14711774699389934539794921875">
        <ele>14.3999996185302734375</ele>
        <time>2026-09-29T12:02:14.000Z</time>
        <extensions>
          <ns3:TrackPointExtension>
            <ns3:hr>93</ns3:hr>
          </ns3:TrackPointExtension>
        </extensions>
      </trkpt>
      <trkpt lat="24.531773664057254791259765625" lon="118.1471595726907253265380859375">
        <ele>14.3999996185302734375</ele>
        <time>2026-09-29T12:02:15.000Z</time>
        <extensions>
          <ns3:TrackPointExtension>
            <ns3:hr>92</ns3:hr>
          </ns3:TrackPointExtension>
        </extensions>
      </trkpt>
      <trkpt lat="24.5318351872265338897705078125" lon="118.14751303754746913909912109375">
        <ele>14.6000003814697265625</ele>
        <time>2026-09-29T12:02:23.000Z</time>
        <extensions>
          <ns3:TrackPointExtension>
            <ns3:hr>90</ns3:hr>
          </ns3:TrackPointExtension>
        </extensions>
      </trkpt>
      <trkpt lat="24.53185454942286014556884765625" lon="118.1476044841110706329345703125">
        <ele>14.6000003814697265625</ele>
        <time>2026-09-29T12:02:25.000Z</time>
        <extensions>
          <ns3:TrackPointExtension>
            <ns3:hr>90</ns3:hr>
          </ns3:TrackPointExtension>
        </extensions>
      </trkpt>
      <trkpt lat="24.5319055952131748199462890625" lon="118.1478415243327617645263671875">
        <ele>14.3999996185302734375</ele>
        <time>2026-09-29T12:02:30.000Z</time>
        <extensions>
          <ns3:TrackPointExtension>
            <ns3:hr>91</ns3:hr>
          </ns3:TrackPointExtension>
        </extensions>
      </trkpt>
      <trkpt lat="24.53199662268161773681640625" lon="118.14816431142389774322509765625">
        <ele>14.3999996185302734375</ele>
        <time>2026-09-29T12:02:37.000Z</time>
        <extensions>
          <ns3:TrackPointExtension>
            <ns3:hr>92</ns3:hr>
          </ns3:TrackPointExtension>
        </extensions>
      </trkpt>
      <trkpt lat="24.53206711448729038238525390625" lon="118.1484128348529338836669921875">
        <ele>14.3999996185302734375</ele>
        <time>2026-09-29T12:02:43.000Z</time>
        <extensions>
          <ns3:TrackPointExtension>
            <ns3:hr>92</ns3:hr>
          </ns3:TrackPointExtension>
        </extensions>
      </trkpt>
      <trkpt lat="24.53213274478912353515625" lon="118.148686923086643218994140625">
        <ele>14.80000019073486328125</ele>
        <time>2026-09-29T12:02:50.000Z</time>
        <extensions>
          <ns3:TrackPointExtension>
            <ns3:hr>93</ns3:hr>
          </ns3:TrackPointExtension>
        </extensions>
      </trkpt>
      <trkpt lat="24.5322318188846111297607421875" lon="118.14897291362285614013671875">
        <ele>14.80000019073486328125</ele>
        <time>2026-09-29T12:02:57.000Z</time>
        <extensions>
          <ns3:TrackPointExtension>
            <ns3:hr>93</ns3:hr>
          </ns3:TrackPointExtension>
        </extensions>
      </trkpt>
      <trkpt lat="24.53225947916507720947265625" lon="118.14909688197076320648193359375">
        <ele>14.80000019073486328125</ele>
        <time>2026-09-29T12:03:00.000Z</time>
        <extensions>
          <ns3:TrackPointExtension>
            <ns3:hr>96</ns3:hr>
          </ns3:TrackPointExtension>
        </extensions>
      </trkpt>
      <trkpt lat="24.53228361904621124267578125" lon="118.1491856463253498077392578125">
        <ele>14.80000019073486328125</ele>
        <time>2026-09-29T12:03:02.000Z</time>
        <extensions>
          <ns3:TrackPointExtension>
            <ns3:hr>96</ns3:hr>
          </ns3:TrackPointExtension>
        </extensions>
      </trkpt>
      <trkpt lat="24.53230214305222034454345703125" lon="118.14923082478344440460205078125">
        <ele>14.80000019073486328125</ele>
        <time>2026-09-29T12:03:03.000Z</time>
        <extensions>
          <ns3:TrackPointExtension>
            <ns3:hr>96</ns3:hr>
          </ns3:TrackPointExtension>
        </extensions>
      </trkpt>
      <trkpt lat="24.53240725211799144744873046875" lon="118.14957062713801860809326171875">
        <ele>14.6000003814697265625</ele>
        <time>2026-09-29T12:03:10.000Z</time>
        <extensions>
          <ns3:TrackPointExtension>
            <ns3:hr>93</ns3:hr>
          </ns3:TrackPointExtension>
        </extensions>
      </trkpt>
      <trkpt lat="24.5324232615530490875244140625" lon="118.1496226787567138671875">
        <ele>14.6000003814697265625</ele>
        <time>2026-09-29T12:03:11.000Z</time>
        <extensions>
          <ns3:TrackPointExtension>
            <ns3:hr>94</ns3:hr>
          </ns3:TrackPointExtension>
        </extensions>
      </trkpt>
      <trkpt lat="24.53253432177007198333740234375" lon="118.14994119107723236083984375">
        <ele>14.3999996185302734375</ele>
        <time>2026-09-29T12:03:18.000Z</time>
        <extensions>
          <ns3:TrackPointExtension>
            <ns3:hr>95</ns3:hr>
          </ns3:TrackPointExtension>
        </extensions>
      </trkpt>
      <trkpt lat="24.532626606523990631103515625" lon="118.150242269039154052734375">
        <ele>14.6000003814697265625</ele>
        <time>2026-09-29T12:03:25.000Z</time>
        <extensions>
          <ns3:TrackPointExtension>
            <ns3:hr>93</ns3:hr>
          </ns3:TrackPointExtension>
        </extensions>
      </trkpt>
      <trkpt lat="24.53263490460813045501708984375" lon="118.15028526820242404937744140625">
        <ele>14.6000003814697265625</ele>
        <time>2026-09-29T12:03:26.000Z</time>
        <extensions>
          <ns3:TrackPointExtension>
            <ns3:hr>94</ns3:hr>
          </ns3:TrackPointExtension>
        </extensions>
      </trkpt>
      <trkpt lat="24.5327048934996128082275390625" lon="118.1505037844181060791015625">
        <ele>14.80000019073486328125</ele>
        <time>2026-09-29T12:03:31.000Z</time>
        <extensions>
          <ns3:TrackPointExtension>
            <ns3:hr>92</ns3:hr>
          </ns3:TrackPointExtension>
        </extensions>
      </trkpt>
      <trkpt lat="24.532868005335330963134765625" lon="118.15091927535831928253173828125">
        <ele>14.80000019073486328125</ele>
        <time>2026-09-29T12:03:40.000Z</time>
        <extensions>
          <ns3:TrackPointExtension>
            <ns3:hr>92</ns3:hr>
          </ns3:TrackPointExtension>
        </extensions>
      </trkpt>
      <trkpt lat="24.53290161676704883575439453125" lon="118.15106545574963092803955078125">
        <ele>15</ele>
        <time>2026-09-29T12:03:43.000Z</time>
        <extensions>
          <ns3:TrackPointExtension>
            <ns3:hr>92</ns3:hr>
          </ns3:TrackPointExtension>
        </extensions>
      </trkpt>
      <trkpt lat="24.53293162398040294647216796875" lon="118.15121096558868885040283203125">
        <ele>14.80000019073486328125</ele>
        <time>2026-09-29T12:03:46.000Z</time>
        <extensions>
          <ns3:TrackPointExtension>
            <ns3:hr>92</ns3:hr>
          </ns3:TrackPointExtension>
        </extensions>
      </trkpt>
      <trkpt lat="24.5330247469246387481689453125" lon="118.15154573880136013031005859375">
        <ele>14.6000003814697265625</ele>
        <time>2026-09-29T12:03:53.000Z</time>
        <extensions>
          <ns3:TrackPointExtension>
            <ns3:hr>92</ns3:hr>
          </ns3:TrackPointExtension>
        </extensions>
      </trkpt>
      <trkpt lat="24.53310244716703891754150390625" lon="118.151781857013702392578125">
        <ele>14.3999996185302734375</ele>
        <time>2026-09-29T12:03:58.000Z</time>
        <extensions>
          <ns3:TrackPointExtension>
            <ns3:hr>90</ns3:hr>
          </ns3:TrackPointExtension>
        </extensions>
      </trkpt>
      <trkpt lat="24.5331162773072719573974609375" lon="118.1518708728253841400146484375">
        <ele>14.3999996185302734375</ele>
        <time>2026-09-29T12:04:00.000Z</time>
        <extensions>
          <ns3:TrackPointExtension>
            <ns3:hr>89</ns3:hr>
          </ns3:TrackPointExtension>
        </extensions>
      </trkpt>
      <trkpt lat="24.5331417582929134368896484375" lon="118.1519556976854801177978515625">
        <ele>14.3999996185302734375</ele>
        <time>2026-09-29T12:04:02.000Z</time>
        <extensions>
          <ns3:TrackPointExtension>
            <ns3:hr>89</ns3:hr>
          </ns3:TrackPointExtension>
        </extensions>
      </trkpt>
      <trkpt lat="24.5331766270101070404052734375" lon="118.15210162661969661712646484375">
        <ele>14.19999980926513671875</ele>
        <time>2026-09-29T12:04:05.000Z</time>
        <extensions>
          <ns3:TrackPointExtension>
            <ns3:hr>90</ns3:hr>
          </ns3:TrackPointExtension>
        </extensions>
      </trkpt>
      <trkpt lat="24.53322515822947025299072265625" lon="118.1522463820874691009521484375">
        <ele>14.19999980926513671875</ele>
        <time>2026-09-29T12:04:08.000Z</time>
        <extensions>
          <ns3:TrackPointExtension>
            <ns3:hr>90</ns3:hr>
          </ns3:TrackPointExtension>
        </extensions>
      </trkpt>
      <trkpt lat="24.53325382433831691741943359375" lon="118.15233950503170490264892578125">
        <ele>14</ele>
        <time>2026-09-29T12:04:10.000Z</time>
        <extensions>
          <ns3:TrackPointExtension>
            <ns3:hr>91</ns3:hr>
          </ns3:TrackPointExtension>
        </extensions>
      </trkpt>
      <trkpt lat="24.5332892797887325286865234375" lon="118.15242131240665912628173828125">
        <ele>14</ele>
        <time>2026-09-29T12:04:12.000Z</time>
        <extensions>
          <ns3:TrackPointExtension>
            <ns3:hr>91</ns3:hr>
          </ns3:TrackPointExtension>
        </extensions>
      </trkpt>
      <trkpt lat="24.53331551514565944671630859375" lon="118.15251049585640430450439453125">
        <ele>14</ele>
        <time>2026-09-29T12:04:14.000Z</time>
        <extensions>
          <ns3:TrackPointExtension>
            <ns3:hr>91</ns3:hr>
          </ns3:TrackPointExtension>
        </extensions>
      </trkpt>
      <trkpt lat="24.53332104720175266265869140625" lon="118.1526084803044795989990234375">
        <ele>14</ele>
        <time>2026-09-29T12:04:16.000Z</time>
        <extensions>
          <ns3:TrackPointExtension>
            <ns3:hr>92</ns3:hr>
          </ns3:TrackPointExtension>
        </extensions>
      </trkpt>
      <trkpt lat="24.5333107374608516693115234375" lon="118.15265432931482791900634765625">
        <ele>14</ele>
        <time>2026-09-29T12:04:17.000Z</time>
        <extensions>
          <ns3:TrackPointExtension>
            <ns3:hr>93</ns3:hr>
          </ns3:TrackPointExtension>
        </extensions>
      </trkpt>
      <trkpt lat="24.53329573385417461395263671875" lon="118.152697496116161346435546875">
        <ele>14</ele>
        <time>2026-09-29T12:04:18.000Z</time>
        <extensions>
          <ns3:TrackPointExtension>
            <ns3:hr>93</ns3:hr>
          </ns3:TrackPointExtension>
        </extensions>
      </trkpt>
      <trkpt lat="24.53325055539608001708984375" lon="118.15277159214019775390625">
        <ele>14</ele>
        <time>2026-09-29T12:04:20.000Z</time>
        <extensions>
          <ns3:TrackPointExtension>
            <ns3:hr>91</ns3:hr>
          </ns3:TrackPointExtension>
        </extensions>
      </trkpt>
      <trkpt lat="24.53321409411728382110595703125" lon="118.1527970731258392333984375">
        <ele>14</ele>
        <time>2026-09-29T12:04:21.000Z</time>
        <extensions>
          <ns3:TrackPointExtension>
            <ns3:hr>90</ns3:hr>
          </ns3:TrackPointExtension>
        </extensions>
      </trkpt>
      <trkpt lat="24.533175788819789886474609375" lon="118.15281894989311695098876953125">
        <ele>14.19999980926513671875</ele>
        <time>2026-09-29T12:04:22.000Z</time>
        <extensions>
          <ns3:TrackPointExtension>
            <ns3:hr>90</ns3:hr>
          </ns3:TrackPointExtension>
        </extensions>
      </trkpt>
      <trkpt lat="24.53310110606253147125244140625" lon="118.152848370373249053955078125">
        <ele>14.19999980926513671875</ele>
        <time>2026-09-29T12:04:24.000Z</time>
        <extensions>
          <ns3:TrackPointExtension>
            <ns3:hr>92</ns3:hr>
          </ns3:TrackPointExtension>
        </extensions>
      </trkpt>
      <trkpt lat="24.53302181325852870941162109375" lon="118.152881562709808349609375">
        <ele>14.19999980926513671875</ele>
        <time>2026-09-29T12:04:26.000Z</time>
        <extensions>
          <ns3:TrackPointExtension>
            <ns3:hr>92</ns3:hr>
          </ns3:TrackPointExtension>
        </extensions>
      </trkpt>
      <trkpt lat="24.5328229106962680816650390625" lon="118.15296613611280918121337890625">
        <ele>14.3999996185302734375</ele>
        <time>2026-09-29T12:04:31.000Z</time>
        <extensions>
          <ns3:TrackPointExtension>
            <ns3:hr>93</ns3:hr>
          </ns3:TrackPointExtension>
        </extensions>
      </trkpt>
      <trkpt lat="24.53274906612932682037353515625" lon="118.1530034355819225311279296875">
        <ele>14.3999996185302734375</ele>
        <time>2026-09-29T12:04:33.000Z</time>
        <extensions>
          <ns3:TrackPointExtension>
            <ns3:hr>93</ns3:hr>
          </ns3:TrackPointExtension>
        </extensions>
      </trkpt>
      <trkpt lat="24.5326267741620540618896484375" lon="118.15306135453283786773681640625">
        <ele>14.6000003814697265625</ele>
        <time>2026-09-29T12:04:36.000Z</time>
        <extensions>
          <ns3:TrackPointExtension>
            <ns3:hr>96</ns3:hr>
          </ns3:TrackPointExtension>
        </extensions>
      </trkpt>
      <trkpt lat="24.5324048213660717010498046875" lon="118.15313561819493770599365234375">
        <ele>14.80000019073486328125</ele>
        <time>2026-09-29T12:04:41.000Z</time>
        <extensions>
          <ns3:TrackPointExtension>
            <ns3:hr>98</ns3:hr>
          </ns3:TrackPointExtension>
        </extensions>
      </trkpt>
      <trkpt lat="24.5321047492325305938720703125" lon="118.153248019516468048095703125">
        <ele>14.6000003814697265625</ele>
        <time>2026-09-29T12:04:48.000Z</time>
        <extensions>
          <ns3:TrackPointExtension>
            <ns3:hr>100</ns3:hr>
          </ns3:TrackPointExtension>
        </extensions>
      </trkpt>
      <trkpt lat="24.53173401765525341033935546875" lon="118.1534282304346561431884765625">
        <ele>14.6000003814697265625</ele>
        <time>2026-09-29T12:04:57.000Z</time>
        <extensions>
          <ns3:TrackPointExtension>
            <ns3:hr>101</ns3:hr>
          </ns3:TrackPointExtension>
        </extensions>
      </trkpt>
      <trkpt lat="24.53150569461286067962646484375" lon="118.153512217104434967041015625">
        <ele>15</ele>
        <time>2026-09-29T12:05:03.000Z</time>
        <extensions>
          <ns3:TrackPointExtension>
            <ns3:hr>103</ns3:hr>
          </ns3:TrackPointExtension>
        </extensions>
      </trkpt>
      <trkpt lat="24.5314308442175388336181640625" lon="118.15354096703231334686279296875">
        <ele>15</ele>
        <time>2026-09-29T12:05:05.000Z</time>
        <extensions>
          <ns3:TrackPointExtension>
            <ns3:hr>103</ns3:hr>
          </ns3:TrackPointExtension>
        </extensions>
      </trkpt>
      <trkpt lat="24.53127770684659481048583984375" lon="118.15359813161194324493408203125">
        <ele>15</ele>
        <time>2026-09-29T12:05:09.000Z</time>
        <extensions>
          <ns3:TrackPointExtension>
            <ns3:hr>103</ns3:hr>
          </ns3:TrackPointExtension>
        </extensions>
      </trkpt>
      <trkpt lat="24.5311309397220611572265625" lon="118.15364129841327667236328125">
        <ele>15.19999980926513671875</ele>
        <time>2026-09-29T12:05:13.000Z</time>
        <extensions>
          <ns3:TrackPointExtension>
            <ns3:hr>104</ns3:hr>
          </ns3:TrackPointExtension>
        </extensions>
      </trkpt>
      <trkpt lat="24.5310570113360881805419921875" lon="118.1536770053207874298095703125">
        <ele>15.19999980926513671875</ele>
        <time>2026-09-29T12:05:15.000Z</time>
        <extensions>
          <ns3:TrackPointExtension>
            <ns3:hr>104</ns3:hr>
          </ns3:TrackPointExtension>
        </extensions>
      </trkpt>
      <trkpt lat="24.5308410935103893280029296875" lon="118.153761327266693115234375">
        <ele>15.19999980926513671875</ele>
        <time>2026-09-29T12:05:21.000Z</time>
        <extensions>
          <ns3:TrackPointExtension>
            <ns3:hr>104</ns3:hr>
          </ns3:TrackPointExtension>
        </extensions>
      </trkpt>
      <trkpt lat="24.53059793449938297271728515625" lon="118.153845481574535369873046875">
        <ele>15.3999996185302734375</ele>
        <time>2026-09-29T12:05:28.000Z</time>
        <extensions>
          <ns3:TrackPointExtension>
            <ns3:hr>103</ns3:hr>
          </ns3:TrackPointExtension>
        </extensions>
      </trkpt>
      <trkpt lat="24.53032753430306911468505859375" lon="118.15391111187636852264404296875">
        <ele>15.80000019073486328125</ele>
        <time>2026-09-29T12:05:35.000Z</time>
        <extensions>
          <ns3:TrackPointExtension>
            <ns3:hr>102</ns3:hr>
          </ns3:TrackPointExtension>
        </extensions>
      </trkpt>
      <trkpt lat="24.53014045022428035736083984375" lon="118.1539745628833770751953125">
        <ele>16</ele>
        <time>2026-09-29T12:05:40.000Z</time>
        <extensions>
          <ns3:TrackPointExtension>
            <ns3:hr>105</ns3:hr>
          </ns3:TrackPointExtension>
        </extensions>
      </trkpt>
      <trkpt lat="24.530070126056671142578125" lon="118.15401152707636356353759765625">
        <ele>16</ele>
        <time>2026-09-29T12:05:42.000Z</time>
        <extensions>
          <ns3:TrackPointExtension>
            <ns3:hr>104</ns3:hr>
          </ns3:TrackPointExtension>
        </extensions>
      </trkpt>
      <trkpt lat="24.53000533394515514373779296875" lon="118.15404170192778110504150390625">
        <ele>16.200000762939453125</ele>
        <time>2026-09-29T12:05:44.000Z</time>
        <extensions>
          <ns3:TrackPointExtension>
            <ns3:hr>104</ns3:hr>
          </ns3:TrackPointExtension>
        </extensions>
      </trkpt>
      <trkpt lat="24.5298044197261333465576171875" lon="118.1541235931217670440673828125">
        <ele>16.799999237060546875</ele>
        <time>2026-09-29T12:05:50.000Z</time>
        <extensions>
          <ns3:TrackPointExtension>
            <ns3:hr>103</ns3:hr>
          </ns3:TrackPointExtension>
        </extensions>
      </trkpt>
      <trkpt lat="24.529658742249011993408203125" lon="118.154182098805904388427734375">
        <ele>17.200000762939453125</ele>
        <time>2026-09-29T12:05:54.000Z</time>
        <extensions>
          <ns3:TrackPointExtension>
            <ns3:hr>106</ns3:hr>
          </ns3:TrackPointExtension>
        </extensions>
      </trkpt>
      <trkpt lat="24.52958556823432445526123046875" lon="118.15421470440924167633056640625">
        <ele>17.200000762939453125</ele>
        <time>2026-09-29T12:05:56.000Z</time>
        <extensions>
          <ns3:TrackPointExtension>
            <ns3:hr>107</ns3:hr>
          </ns3:TrackPointExtension>
        </extensions>
      </trkpt>
      <trkpt lat="24.5295509509742259979248046875" lon="118.15423280932009220123291015625">
        <ele>17.3999996185302734375</ele>
        <time>2026-09-29T12:05:57.000Z</time>
        <extensions>
          <ns3:TrackPointExtension>
            <ns3:hr>108</ns3:hr>
          </ns3:TrackPointExtension>
        </extensions>
      </trkpt>
      <trkpt lat="24.52926923520863056182861328125" lon="118.15434328280389308929443359375">
        <ele>18</ele>
        <time>2026-09-29T12:06:05.000Z</time>
        <extensions>
          <ns3:TrackPointExtension>
            <ns3:hr>111</ns3:hr>
          </ns3:TrackPointExtension>
        </extensions>
      </trkpt>
      <trkpt lat="24.5291233062744140625" lon="118.15439927391707897186279296875">
        <ele>18.200000762939453125</ele>
        <time>2026-09-29T12:06:09.000Z</time>
        <extensions>
          <ns3:TrackPointExtension>
            <ns3:hr>114</ns3:hr>
          </ns3:TrackPointExtension>
        </extensions>
      </trkpt>
      <trkpt lat="24.52908734790980815887451171875" lon="118.15441511571407318115234375">
        <ele>18.3999996185302734375</ele>
        <time>2026-09-29T12:06:10.000Z</time>
        <extensions>
          <ns3:TrackPointExtension>
            <ns3:hr>114</ns3:hr>
          </ns3:TrackPointExtension>
        </extensions>
      </trkpt>
      <trkpt lat="24.52895642258226871490478515625" lon="118.15449315123260021209716796875">
        <ele>18.6000003814697265625</ele>
        <time>2026-09-29T12:06:14.000Z</time>
        <extensions>
          <ns3:TrackPointExtension>
            <ns3:hr>113</ns3:hr>
          </ns3:TrackPointExtension>
        </extensions>
      </trkpt>
      <trkpt lat="24.52881284058094024658203125" lon="118.15444051288068294525146484375">
        <ele>19</ele>
        <time>2026-09-29T12:06:18.000Z</time>
        <extensions>
          <ns3:TrackPointExtension>
            <ns3:hr>113</ns3:hr>
          </ns3:TrackPointExtension>
        </extensions>
      </trkpt>
      <trkpt lat="24.52875659801065921783447265625" lon="118.154332302510738372802734375">
        <ele>19</ele>
        <time>2026-09-29T12:06:21.000Z</time>
        <extensions>
          <ns3:TrackPointExtension>
            <ns3:hr>110</ns3:hr>
          </ns3:TrackPointExtension>
        </extensions>
      </trkpt>
      <trkpt lat="24.52874519862234592437744140625" lon="118.1542905606329441070556640625">
        <ele>19</ele>
        <time>2026-09-29T12:06:22.000Z</time>
        <extensions>
          <ns3:TrackPointExtension>
            <ns3:hr>108</ns3:hr>
          </ns3:TrackPointExtension>
        </extensions>
      </trkpt>
      <trkpt lat="24.5286799035966396331787109375" lon="118.15404639579355716705322265625">
        <ele>19</ele>
        <time>2026-09-29T12:06:28.000Z</time>
        <extensions>
          <ns3:TrackPointExtension>
            <ns3:hr>111</ns3:hr>
          </ns3:TrackPointExtension>
        </extensions>
      </trkpt>
      <trkpt lat="24.528652913868427276611328125" lon="118.15392904914915561676025390625">
        <ele>19.200000762939453125</ele>
        <time>2026-09-29T12:06:31.000Z</time>
        <extensions>
          <ns3:TrackPointExtension>
            <ns3:hr>114</ns3:hr>
          </ns3:TrackPointExtension>
        </extensions>
      </trkpt>
      <trkpt lat="24.5286148600280284881591796875" lon="118.15368144772946834564208984375">
        <ele>19.200000762939453125</ele>
        <time>2026-09-29T12:06:38.000Z</time>
        <extensions>
          <ns3:TrackPointExtension>
            <ns3:hr>113</ns3:hr>
          </ns3:TrackPointExtension>
        </extensions>
      </trkpt>
      <trkpt lat="24.52857588417828083038330078125" lon="118.15355722792446613311767578125">
        <ele>19.3999996185302734375</ele>
        <time>2026-09-29T12:06:43.000Z</time>
        <extensions>
          <ns3:TrackPointExtension>
            <ns3:hr>110</ns3:hr>
          </ns3:TrackPointExtension>
        </extensions>
      </trkpt>
      <trkpt lat="24.52856046147644519805908203125" lon="118.1535482592880725860595703125">
        <ele>19.3999996185302734375</ele>
        <time>2026-09-29T12:06:44.000Z</time>
        <extensions>
          <ns3:TrackPointExtension>
            <ns3:hr>109</ns3:hr>
          </ns3:TrackPointExtension>
        </extensions>
      </trkpt>
    </trkseg>
  </trk>
</gpx>
