<?xml version="1.0" encoding="UTF-8"?>
<gpx creator="Garmin Connect" version="1.1"
  xsi:schemaLocation="http://www.topografix.com/GPX/1/1 http://www.topografix.com/GPX/11.xsd"
  xmlns:ns3="http://www.garmin.com/xmlschemas/TrackPointExtension/v1"
  xmlns="http://www.topografix.com/GPX/1/1"
  xmlns:xsi="http://www.w3.org/2001/XMLSchema-instance" xmlns:ns2="http://www.garmin.com/xmlschemas/GpxExtensions/v3">
  <metadata>
    <link href="connect.garmin.com">
      <text>Garmin Connect</text>
    </link>
    <time>2026-09-30T14:12:28.000Z</time>
  </metadata>
  <trk>
    <name>厦门市 骑行</name>
    <type>cycling</type>
    <trkseg>
      <trkpt lat="24.49293720535933971405029296875" lon="118.1412328965961933135986328125">
        <ele>39.59999847412109375</ele>
        <time>2026-09-30T14:12:28.000Z</time>
        <extensions>
          <ns3:TrackPointExtension>
            <ns3:hr>71</ns3:hr>
          </ns3:TrackPointExtension>
        </extensions>
      </trkpt>
      <trkpt lat="24.49289797805249691009521484375" lon="118.141212947666645050048828125">
        <ele>39.799999237060546875</ele>
        <time>2026-09-30T14:12:29.000Z</time>
        <extensions>
          <ns3:TrackPointExtension>
            <ns3:hr>72</ns3:hr>
          </ns3:TrackPointExtension>
        </extensions>
      </trkpt>
      <trkpt lat="24.492942653596401214599609375" lon="118.14122342504560947418212890625">
        <ele>39.59999847412109375</ele>
        <time>2026-09-30T14:12:31.000Z</time>
        <extensions>
          <ns3:TrackPointExtension>
            <ns3:hr>75</ns3:hr>
          </ns3:TrackPointExtension>
        </extensions>
      </trkpt>
      <trkpt lat="24.493023790419101715087890625" lon="118.14124354161322116851806640625">
        <ele>39.40000152587890625</ele>
        <time>2026-09-30T14:12:34.000Z</time>
        <extensions>
          <ns3:TrackPointExtension>
            <ns3:hr>77</ns3:hr>
          </ns3:TrackPointExtension>
        </extensions>
      </trkpt>
      <trkpt lat="24.4931134767830371856689453125" lon="118.14128109253942966461181640625">
        <ele>39.40000152587890625</ele>
        <time>2026-09-30T14:12:37.000Z</time>
        <extensions>
          <ns3:TrackPointExtension>
            <ns3:hr>80</ns3:hr>
          </ns3:TrackPointExtension>
        </extensions>
      </trkpt>
      <trkpt lat="24.4931751675903797149658203125" lon="118.141298778355121612548828125">
        <ele>39.40000152587890625</ele>
        <time>2026-09-30T14:12:39.000Z</time>
        <extensions>
          <ns3:TrackPointExtension>
            <ns3:hr>83</ns3:hr>
          </ns3:TrackPointExtension>
        </extensions>
      </trkpt>
      <trkpt lat="24.49327868409454822540283203125" lon="118.14130984246730804443359375">
        <ele>39.200000762939453125</ele>
        <time>2026-09-30T14:12:42.000Z</time>
        <extensions>
          <ns3:TrackPointExtension>
            <ns3:hr>86</ns3:hr>
          </ns3:TrackPointExtension>
        </extensions>
      </trkpt>
      <trkpt lat="24.49333928525447845458984375" lon="118.14132685773074626922607421875">
        <ele>39</ele>
        <time>2026-09-30T14:12:44.000Z</time>
        <extensions>
          <ns3:TrackPointExtension>
            <ns3:hr>88</ns3:hr>
          </ns3:TrackPointExtension>
        </extensions>
      </trkpt>
      <trkpt lat="24.49353282339870929718017578125" lon="118.1414025463163852691650390625">
        <ele>38.799999237060546875</ele>
        <time>2026-09-30T14:12:50.000Z</time>
        <extensions>
          <ns3:TrackPointExtension>
            <ns3:hr>89</ns3:hr>
          </ns3:TrackPointExtension>
        </extensions>
      </trkpt>
      <trkpt lat="24.493727199733257293701171875" lon="118.14145912416279315948486328125">
        <ele>38.799999237060546875</ele>
        <time>2026-09-30T14:12:56.000Z</time>
        <extensions>
          <ns3:TrackPointExtension>
            <ns3:hr>90</ns3:hr>
          </ns3:TrackPointExtension>
        </extensions>
      </trkpt>
      <trkpt lat="24.4937629066407680511474609375" lon="118.14146448858082294464111328125">
        <ele>38.59999847412109375</ele>
        <time>2026-09-30T14:12:57.000Z</time>
        <extensions>
          <ns3:TrackPointExtension>
            <ns3:hr>90</ns3:hr>
          </ns3:TrackPointExtension>
        </extensions>
      </trkpt>
      <trkpt lat="24.4939327239990234375" lon="118.14152835868299007415771484375">
        <ele>38.799999237060546875</ele>
        <time>2026-09-30T14:13:02.000Z</time>
        <extensions>
          <ns3:TrackPointExtension>
            <ns3:hr>89</ns3:hr>
          </ns3:TrackPointExtension>
        </extensions>
      </trkpt>
      <trkpt lat="24.493983350694179534912109375" lon="118.14156658016145229339599609375">
        <ele>38.59999847412109375</ele>
        <time>2026-09-30T14:13:04.000Z</time>
        <extensions>
          <ns3:TrackPointExtension>
            <ns3:hr>87</ns3:hr>
          </ns3:TrackPointExtension>
        </extensions>
      </trkpt>
      <trkpt lat="24.494040347635746002197265625" lon="118.1415852718055248260498046875">
        <ele>38.59999847412109375</ele>
        <time>2026-09-30T14:13:06.000Z</time>
        <extensions>
          <ns3:TrackPointExtension>
            <ns3:hr>88</ns3:hr>
          </ns3:TrackPointExtension>
        </extensions>
      </trkpt>
      <trkpt lat="24.49421904981136322021484375" lon="118.14161293208599090576171875">
        <ele>38.200000762939453125</ele>
        <time>2026-09-30T14:13:11.000Z</time>
        <extensions>
          <ns3:TrackPointExtension>
            <ns3:hr>86</ns3:hr>
          </ns3:TrackPointExtension>
        </extensions>
      </trkpt>
      <trkpt lat="24.49429909698665142059326171875" lon="118.1416251696646213531494140625">
        <ele>38.200000762939453125</ele>
        <time>2026-09-30T14:13:14.000Z</time>
        <extensions>
          <ns3:TrackPointExtension>
            <ns3:hr>82</ns3:hr>
          </ns3:TrackPointExtension>
        </extensions>
      </trkpt>
      <trkpt lat="24.49435450136661529541015625" lon="118.141648136079311370849609375">
        <ele>38.200000762939453125</ele>
        <time>2026-09-30T14:13:16.000Z</time>
        <extensions>
          <ns3:TrackPointExtension>
            <ns3:hr>81</ns3:hr>
          </ns3:TrackPointExtension>
        </extensions>
      </trkpt>
      <trkpt lat="24.49455675669014453887939453125" lon="118.14169147051870822906494140625">
        <ele>38.40000152587890625</ele>
        <time>2026-09-30T14:13:22.000Z</time>
        <extensions>
          <ns3:TrackPointExtension>
            <ns3:hr>81</ns3:hr>
          </ns3:TrackPointExtension>
        </extensions>
      </trkpt>
      <trkpt lat="24.494705535471439361572265625" lon="118.141776211559772491455078125">
        <ele>38</ele>
        <time>2026-09-30T14:13:27.000Z</time>
        <extensions>
          <ns3:TrackPointExtension>
            <ns3:hr>81</ns3:hr>
          </ns3:TrackPointExtension>
        </extensions>
      </trkpt>
      <trkpt lat="24.49492069892585277557373046875" lon="118.1418504752218723297119140625">
        <ele>37.799999237060546875</ele>
        <time>2026-09-30T14:13:33.000Z</time>
        <extensions>
          <ns3:TrackPointExtension>
            <ns3:hr>82</ns3:hr>
          </ns3:TrackPointExtension>
        </extensions>
      </trkpt>
      <trkpt lat="24.49503041803836822509765625" lon="118.14188157208263874053955078125">
        <ele>37.59999847412109375</ele>
        <time>2026-09-30T14:13:36.000Z</time>
        <extensions>
          <ns3:TrackPointExtension>
            <ns3:hr>84</ns3:hr>
          </ns3:TrackPointExtension>
        </extensions>
      </trkpt>
      <trkpt lat="24.49511281214654445648193359375" lon="118.14193211495876312255859375">
        <ele>37.59999847412109375</ele>
        <time>2026-09-30T14:13:39.000Z</time>
        <extensions>
          <ns3:TrackPointExtension>
            <ns3:hr>85</ns3:hr>
          </ns3:TrackPointExtension>
        </extensions>
      </trkpt>
      <trkpt lat="24.49531934224069118499755859375" lon="118.1419943086802959442138671875">
        <ele>37.59999847412109375</ele>
        <time>2026-09-30T14:13:45.000Z</time>
        <extensions>
          <ns3:TrackPointExtension>
            <ns3:hr>86</ns3:hr>
          </ns3:TrackPointExtension>
        </extensions>
      </trkpt>
      <trkpt lat="24.49553458951413631439208984375" lon="118.14204133115708827972412109375">
        <ele>37.200000762939453125</ele>
        <time>2026-09-30T14:13:51.000Z</time>
        <extensions>
          <ns3:TrackPointExtension>
            <ns3:hr>85</ns3:hr>
          </ns3:TrackPointExtension>
        </extensions>
      </trkpt>
      <trkpt lat="24.49573910795152187347412109375" lon="118.14209514297544956207275390625">
        <ele>37.200000762939453125</ele>
        <time>2026-09-30T14:13:56.000Z</time>
        <extensions>
          <ns3:TrackPointExtension>
            <ns3:hr>86</ns3:hr>
          </ns3:TrackPointExtension>
        </extensions>
      </trkpt>
      <trkpt lat="24.49586181901395320892333984375" lon="118.14214535057544708251953125">
        <ele>37</ele>
        <time>2026-09-30T14:13:59.000Z</time>
        <extensions>
          <ns3:TrackPointExtension>
            <ns3:hr>86</ns3:hr>
          </ns3:TrackPointExtension>
        </extensions>
      </trkpt>
      <trkpt lat="24.49598922394216060638427734375" lon="118.14218851737678050994873046875">
        <ele>36.799999237060546875</ele>
        <time>2026-09-30T14:14:02.000Z</time>
        <extensions>
          <ns3:TrackPointExtension>
            <ns3:hr>89</ns3:hr>
          </ns3:TrackPointExtension>
        </extensions>
      </trkpt>
      <trkpt lat="24.49606952257454395294189453125" lon="118.142218105494976043701171875">
        <ele>36.799999237060546875</ele>
        <time>2026-09-30T14:14:04.000Z</time>
        <extensions>
          <ns3:TrackPointExtension>
            <ns3:hr>90</ns3:hr>
          </ns3:TrackPointExtension>
        </extensions>
      </trkpt>
      <trkpt lat="24.4961554370820522308349609375" lon="118.14224333502352237701416015625">
        <ele>36.799999237060546875</ele>
        <time>2026-09-30T14:14:06.000Z</time>
        <extensions>
          <ns3:TrackPointExtension>
            <ns3:hr>91</ns3:hr>
          </ns3:TrackPointExtension>
        </extensions>
      </trkpt>
      <trkpt lat="24.4962043873965740203857421875" lon="118.14225825481116771697998046875">
        <ele>36.59999847412109375</ele>
        <time>2026-09-30T14:14:07.000Z</time>
        <extensions>
          <ns3:TrackPointExtension>
            <ns3:hr>91</ns3:hr>
          </ns3:TrackPointExtension>
        </extensions>
      </trkpt>
      <trkpt lat="24.49625040404498577117919921875" lon="118.1422665528953075408935546875">
        <ele>36.59999847412109375</ele>
        <time>2026-09-30T14:14:08.000Z</time>
        <extensions>
          <ns3:TrackPointExtension>
            <ns3:hr>91</ns3:hr>
          </ns3:TrackPointExtension>
        </extensions>
      </trkpt>
      <trkpt lat="24.496294744312763214111328125" lon="118.14227543771266937255859375">
        <ele>36.59999847412109375</ele>
        <time>2026-09-30T14:14:09.000Z</time>
        <extensions>
          <ns3:TrackPointExtension>
            <ns3:hr>91</ns3:hr>
          </ns3:TrackPointExtension>
        </extensions>
      </trkpt>
      <trkpt lat="24.49641971848905086517333984375" lon="118.1423364579677581787109375">
        <ele>36.40000152587890625</ele>
        <time>2026-09-30T14:14:12.000Z</time>
        <extensions>
          <ns3:TrackPointExtension>
            <ns3:hr>92</ns3:hr>
          </ns3:TrackPointExtension>
        </extensions>
      </trkpt>
      <trkpt lat="24.49652952142059803009033203125" lon="118.14246051013469696044921875">
        <ele>36.40000152587890625</ele>
        <time>2026-09-30T14:14:16.000Z</time>
        <extensions>
          <ns3:TrackPointExtension>
            <ns3:hr>94</ns3:hr>
          </ns3:TrackPointExtension>
        </extensions>
      </trkpt>
      <trkpt lat="24.49665424413979053497314453125" lon="118.14244039356708526611328125">
        <ele>36.200000762939453125</ele>
        <time>2026-09-30T14:14:19.000Z</time>
        <extensions>
          <ns3:TrackPointExtension>
            <ns3:hr>94</ns3:hr>
          </ns3:TrackPointExtension>
        </extensions>
      </trkpt>
      <trkpt lat="24.49680176563560962677001953125" lon="118.1424556486308574676513671875">
        <ele>36.40000152587890625</ele>
        <time>2026-09-30T14:14:23.000Z</time>
        <extensions>
          <ns3:TrackPointExtension>
            <ns3:hr>94</ns3:hr>
          </ns3:TrackPointExtension>
        </extensions>
      </trkpt>
      <trkpt lat="24.49683864600956439971923828125" lon="118.1424705684185028076171875">
        <ele>36.40000152587890625</ele>
        <time>2026-09-30T14:14:24.000Z</time>
        <extensions>
          <ns3:TrackPointExtension>
            <ns3:hr>95</ns3:hr>
          </ns3:TrackPointExtension>
        </extensions>
      </trkpt>
      <trkpt lat="24.4970761053264141082763671875" lon="118.14255028031766414642333984375">
        <ele>36.40000152587890625</ele>
        <time>2026-09-30T14:14:30.000Z</time>
        <extensions>
          <ns3:TrackPointExtension>
            <ns3:hr>96</ns3:hr>
          </ns3:TrackPointExtension>
        </extensions>
      </trkpt>
      <trkpt lat="24.4971491955220699310302734375" lon="118.14258716069161891937255859375">
        <ele>36.59999847412109375</ele>
        <time>2026-09-30T14:14:32.000Z</time>
        <extensions>
          <ns3:TrackPointExtension>
            <ns3:hr>99</ns3:hr>
          </ns3:TrackPointExtension>
        </extensions>
      </trkpt>
      <trkpt lat="24.4973097927868366241455078125" lon="118.142659664154052734375">
        <ele>36.799999237060546875</ele>
        <time>2026-09-30T14:14:36.000Z</time>
        <extensions>
          <ns3:TrackPointExtension>
            <ns3:hr>99</ns3:hr>
          </ns3:TrackPointExtension>
        </extensions>
      </trkpt>
      <trkpt lat="24.4975937716662883758544921875" lon="118.1427309103310108184814453125">
        <ele>36.799999237060546875</ele>
        <time>2026-09-30T14:14:43.000Z</time>
        <extensions>
          <ns3:TrackPointExtension>
            <ns3:hr>97</ns3:hr>
          </ns3:TrackPointExtension>
        </extensions>
      </trkpt>
      <trkpt lat="24.4978676922619342803955078125" lon="118.14280928112566471099853515625">
        <ele>37</ele>
        <time>2026-09-30T14:14:50.000Z</time>
        <extensions>
          <ns3:TrackPointExtension>
            <ns3:hr>96</ns3:hr>
          </ns3:TrackPointExtension>
        </extensions>
      </trkpt>
      <trkpt lat="24.4981355778872966766357421875" lon="118.14289460889995098114013671875">
        <ele>37.200000762939453125</ele>
        <time>2026-09-30T14:14:57.000Z</time>
        <extensions>
          <ns3:TrackPointExtension>
            <ns3:hr>97</ns3:hr>
          </ns3:TrackPointExtension>
        </extensions>
      </trkpt>
      <trkpt lat="24.4984428584575653076171875" lon="118.14300223253667354583740234375">
        <ele>37.40000152587890625</ele>
        <time>2026-09-30T14:15:05.000Z</time>
        <extensions>
          <ns3:TrackPointExtension>
            <ns3:hr>97</ns3:hr>
          </ns3:TrackPointExtension>
        </extensions>
      </trkpt>
      <trkpt lat="24.49852206744253635406494140625" lon="118.14302989281713962554931640625">
        <ele>37.59999847412109375</ele>
        <time>2026-09-30T14:15:07.000Z</time>
        <extensions>
          <ns3:TrackPointExtension>
            <ns3:hr>97</ns3:hr>
          </ns3:TrackPointExtension>
        </extensions>
      </trkpt>
      <trkpt lat="24.498709402978420257568359375" lon="118.14306140877306461334228515625">
        <ele>37.59999847412109375</ele>
        <time>2026-09-30T14:15:12.000Z</time>
        <extensions>
          <ns3:TrackPointExtension>
            <ns3:hr>99</ns3:hr>
          </ns3:TrackPointExtension>
        </extensions>
      </trkpt>
      <trkpt lat="24.49881828390061855316162109375" lon="118.1431379355490207672119140625">
        <ele>37.799999237060546875</ele>
        <time>2026-09-30T14:15:16.000Z</time>
        <extensions>
          <ns3:TrackPointExtension>
            <ns3:hr>99</ns3:hr>
          </ns3:TrackPointExtension>
        </extensions>
      </trkpt>
      <trkpt lat="24.49907116591930389404296875" lon="118.14324094913899898529052734375">
        <ele>37.799999237060546875</ele>
        <time>2026-09-30T14:15:23.000Z</time>
        <extensions>
          <ns3:TrackPointExtension>
            <ns3:hr>99</ns3:hr>
          </ns3:TrackPointExtension>
        </extensions>
      </trkpt>
      <trkpt lat="24.4993982277810573577880859375" lon="118.1433226726949214935302734375">
        <ele>38</ele>
        <time>2026-09-30T14:15:31.000Z</time>
        <extensions>
          <ns3:TrackPointExtension>
            <ns3:hr>102</ns3:hr>
          </ns3:TrackPointExtension>
        </extensions>
      </trkpt>
      <trkpt lat="24.49971355497837066650390625" lon="118.143424093723297119140625">
        <ele>38</ele>
        <time>2026-09-30T14:15:39.000Z</time>
        <extensions>
          <ns3:TrackPointExtension>
            <ns3:hr>101</ns3:hr>
          </ns3:TrackPointExtension>
        </extensions>
      </trkpt>
      <trkpt lat="24.49997699819505214691162109375" lon="118.14350011758506298065185546875">
        <ele>38.200000762939453125</ele>
        <time>2026-09-30T14:15:46.000Z</time>
        <extensions>
          <ns3:TrackPointExtension>
            <ns3:hr>100</ns3:hr>
          </ns3:TrackPointExtension>
        </extensions>
      </trkpt>
      <trkpt lat="24.50020976364612579345703125" lon="118.143602125346660614013671875">
        <ele>38.59999847412109375</ele>
        <time>2026-09-30T14:15:53.000Z</time>
        <extensions>
          <ns3:TrackPointExtension>
            <ns3:hr>101</ns3:hr>
          </ns3:TrackPointExtension>
        </extensions>
      </trkpt>
      <trkpt lat="24.50024689547717571258544921875" lon="118.143610842525959014892578125">
        <ele>38.59999847412109375</ele>
        <time>2026-09-30T14:15:54.000Z</time>
        <extensions>
          <ns3:TrackPointExtension>
            <ns3:hr>102</ns3:hr>
          </ns3:TrackPointExtension>
        </extensions>
      </trkpt>
      <trkpt lat="24.5004560239613056182861328125" lon="118.14368753693997859954833984375">
        <ele>38.40000152587890625</ele>
        <time>2026-09-30T14:16:00.000Z</time>
        <extensions>
          <ns3:TrackPointExtension>
            <ns3:hr>101</ns3:hr>
          </ns3:TrackPointExtension>
        </extensions>
      </trkpt>
      <trkpt lat="24.50068451464176177978515625" lon="118.14381293021142482757568359375">
        <ele>38.799999237060546875</ele>
        <time>2026-09-30T14:16:07.000Z</time>
        <extensions>
          <ns3:TrackPointExtension>
            <ns3:hr>101</ns3:hr>
          </ns3:TrackPointExtension>
        </extensions>
      </trkpt>
      <trkpt lat="24.50080580078065395355224609375" lon="118.14395123161375522613525390625">
        <ele>39</ele>
        <time>2026-09-30T14:16:12.000Z</time>
        <extensions>
          <ns3:TrackPointExtension>
            <ns3:hr>104</ns3:hr>
          </ns3:TrackPointExtension>
        </extensions>
      </trkpt>
      <trkpt lat="24.50082625262439250946044921875" lon="118.14398534595966339111328125">
        <ele>38.799999237060546875</ele>
        <time>2026-09-30T14:16:13.000Z</time>
        <extensions>
          <ns3:TrackPointExtension>
            <ns3:hr>105</ns3:hr>
          </ns3:TrackPointExtension>
        </extensions>
      </trkpt>
      <trkpt lat="24.50087151490151882171630859375" lon="118.14409405924379825592041015625">
        <ele>39</ele>
        <time>2026-09-30T14:16:16.000Z</time>
        <extensions>
          <ns3:TrackPointExtension>
            <ns3:hr>101</ns3:hr>
          </ns3:TrackPointExtension>
        </extensions>
      </trkpt>
      <trkpt lat="24.50090286321938037872314453125" lon="118.14425733871757984161376953125">
        <ele>39</ele>
        <time>2026-09-30T14:16:20.000Z</time>
        <extensions>
          <ns3:TrackPointExtension>
            <ns3:hr>101</ns3:hr>
          </ns3:TrackPointExtension>
        </extensions>
      </trkpt>
      <trkpt lat="24.50092918239533901214599609375" lon="118.14448113553225994110107421875">
        <ele>39.40000152587890625</ele>
        <time>2026-09-30T14:16:26.000Z</time>
        <extensions>
          <ns3:TrackPointExtension>
            <ns3:hr>104</ns3:hr>
          </ns3:TrackPointExtension>
        </extensions>
      </trkpt>
      <trkpt lat="24.50094074942171573638916015625" lon="118.1445586681365966796875">
        <ele>39.40000152587890625</ele>
        <time>2026-09-30T14:16:28.000Z</time>
        <extensions>
          <ns3:TrackPointExtension>
            <ns3:hr>102</ns3:hr>
          </ns3:TrackPointExtension>
        </extensions>
      </trkpt>
      <trkpt lat="24.50095617212355136871337890625" lon="118.14480233006179332733154296875">
        <ele>39.40000152587890625</ele>
        <time>2026-09-30T14:16:34.000Z</time>
        <extensions>
          <ns3:TrackPointExtension>
            <ns3:hr>102</ns3:hr>
          </ns3:TrackPointExtension>
        </extensions>
      </trkpt>
      <trkpt lat="24.50097410939633846282958984375" lon="118.145155124366283416748046875">
        <ele>39.59999847412109375</ele>
        <time>2026-09-30T14:16:42.000Z</time>
        <extensions>
          <ns3:TrackPointExtension>
            <ns3:hr>102</ns3:hr>
          </ns3:TrackPointExtension>
        </extensions>
      </trkpt>
      <trkpt lat="24.501004703342914581298828125" lon="118.1452868878841400146484375">
        <ele>39.59999847412109375</ele>
        <time>2026-09-30T14:16:47.000Z</time>
        <extensions>
          <ns3:TrackPointExtension>
            <ns3:hr>101</ns3:hr>
          </ns3:TrackPointExtension>
        </extensions>
      </trkpt>
      <trkpt lat="24.50101685710251331329345703125" lon="118.145300634205341339111328125">
        <ele>39.799999237060546875</ele>
        <time>2026-09-30T14:16:48.000Z</time>
        <extensions>
          <ns3:TrackPointExtension>
            <ns3:hr>100</ns3:hr>
          </ns3:TrackPointExtension>
        </extensions>
      </trkpt>
      <trkpt lat="24.50103378854691982269287109375" lon="118.145303316414356231689453125">
        <ele>39.799999237060546875</ele>
        <time>2026-09-30T14:16:50.000Z</time>
        <extensions>
          <ns3:TrackPointExtension>
            <ns3:hr>97</ns3:hr>
          </ns3:TrackPointExtension>
        </extensions>
      </trkpt>
      <trkpt lat="24.50103144161403179168701171875" lon="118.1452954374253749847412109375">
        <ele>39.799999237060546875</ele>
        <time>2026-09-30T14:16:51.000Z</time>
        <extensions>
          <ns3:TrackPointExtension>
            <ns3:hr>96</ns3:hr>
          </ns3:TrackPointExtension>
        </extensions>
      </trkpt>
    </trkseg>
  </trk>
</gpx>
