<?xml version="1.0" encoding="UTF-8"?>
<gpx creator="Garmin Connect" version="1.1"
  xsi:schemaLocation="http://www.topografix.com/GPX/1/1 http://www.topografix.com/GPX/11.xsd"
  xmlns:ns3="http://www.garmin.com/xmlschemas/TrackPointExtension/v1"
  xmlns="http://www.topografix.com/GPX/1/1"
  xmlns:xsi="http://www.w3.org/2001/XMLSchema-instance" xmlns:ns2="http://www.garmin.com/xmlschemas/GpxExtensions/v3">
  <metadata>
    <link href="connect.garmin.com">
      <text>Garmin Connect</text>
    </link>
    <time>2026-09-30T05:36:43.000Z</time>
  </metadata>
  <trk>
    <name>厦门市 骑行</name>
    <type>cycling</type>
    <trkseg>
      <trkpt lat="24.52840237878262996673583984375" lon="118.1534302420914173126220703125">
        <ele>72</ele>
        <time>2026-09-30T05:36:43.000Z</time>
        <extensions>
          <ns3:TrackPointExtension>
            <ns3:hr>84</ns3:hr>
          </ns3:TrackPointExtension>
        </extensions>
      </trkpt>
      <trkpt lat="24.528451077640056610107421875" lon="118.15329403616487979888916015625">
        <ele>72</ele>
        <time>2026-09-30T05:36:44.000Z</time>
        <extensions>
          <ns3:TrackPointExtension>
            <ns3:hr>84</ns3:hr>
          </ns3:TrackPointExtension>
        </extensions>
      </trkpt>
      <trkpt lat="24.5284713618457317352294921875" lon="118.153423368930816650390625">
        <ele>72</ele>
        <time>2026-09-30T05:36:49.000Z</time>
        <extensions>
          <ns3:TrackPointExtension>
            <ns3:hr>88</ns3:hr>
          </ns3:TrackPointExtension>
        </extensions>
      </trkpt>
      <trkpt lat="24.52848426997661590576171875" lon="118.153451867401599884033203125">
        <ele>72</ele>
        <time>2026-09-30T05:36:50.000Z</time>
        <extensions>
          <ns3:TrackPointExtension>
            <ns3:hr>91</ns3:hr>
          </ns3:TrackPointExtension>
        </extensions>
      </trkpt>
      <trkpt lat="24.52849105931818485260009765625" lon="118.1534822098910808563232421875">
        <ele>71.8000030517578125</ele>
        <time>2026-09-30T05:36:51.000Z</time>
        <extensions>
          <ns3:TrackPointExtension>
            <ns3:hr>97</ns3:hr>
          </ns3:TrackPointExtension>
        </extensions>
      </trkpt>
      <trkpt lat="24.5285253413021564483642578125" lon="118.15357918851077556610107421875">
        <ele>71.59999847412109375</ele>
        <time>2026-09-30T05:36:54.000Z</time>
        <extensions>
          <ns3:TrackPointExtension>
            <ns3:hr>100</ns3:hr>
          </ns3:TrackPointExtension>
        </extensions>
      </trkpt>
      <trkpt lat="24.5285947434604167938232421875" lon="118.153817988932132720947265625">
        <ele>71</ele>
        <time>2026-09-30T05:37:01.000Z</time>
        <extensions>
          <ns3:TrackPointExtension>
            <ns3:hr>99</ns3:hr>
          </ns3:TrackPointExtension>
        </extensions>
      </trkpt>
      <trkpt lat="24.52860496938228607177734375" lon="118.15385721623897552490234375">
        <ele>71</ele>
        <time>2026-09-30T05:37:02.000Z</time>
        <extensions>
          <ns3:TrackPointExtension>
            <ns3:hr>99</ns3:hr>
          </ns3:TrackPointExtension>
        </extensions>
      </trkpt>
      <trkpt lat="24.52865467406809329986572265625" lon="118.15404497087001800537109375">
        <ele>71</ele>
        <time>2026-09-30T05:37:07.000Z</time>
        <extensions>
          <ns3:TrackPointExtension>
            <ns3:hr>98</ns3:hr>
          </ns3:TrackPointExtension>
        </extensions>
      </trkpt>
      <trkpt lat="24.52867696993052959442138671875" lon="118.1541537679731845855712890625">
        <ele>71</ele>
        <time>2026-09-30T05:37:10.000Z</time>
        <extensions>
          <ns3:TrackPointExtension>
            <ns3:hr>95</ns3:hr>
          </ns3:TrackPointExtension>
        </extensions>
      </trkpt>
      <trkpt lat="24.52870530076324939727783203125" lon="118.1542570330202579498291015625">
        <ele>71</ele>
        <time>2026-09-30T05:37:13.000Z</time>
        <extensions>
          <ns3:TrackPointExtension>
            <ns3:hr>94</ns3:hr>
          </ns3:TrackPointExtension>
        </extensions>
      </trkpt>
      <trkpt lat="24.5287757925689220428466796875" lon="118.1544136069715023040771484375">
        <ele>70.59999847412109375</ele>
        <time>2026-09-30T05:37:18.000Z</time>
        <extensions>
          <ns3:TrackPointExtension>
            <ns3:hr>93</ns3:hr>
          </ns3:TrackPointExtension>
        </extensions>
      </trkpt>
      <trkpt lat="24.528932534158229827880859375" lon="118.154512010514736175537109375">
        <ele>70.1999969482421875</ele>
        <time>2026-09-30T05:37:23.000Z</time>
        <extensions>
          <ns3:TrackPointExtension>
            <ns3:hr>94</ns3:hr>
          </ns3:TrackPointExtension>
        </extensions>
      </trkpt>
      <trkpt lat="24.52901224605739116668701171875" lon="118.15450220368802547454833984375">
        <ele>70</ele>
        <time>2026-09-30T05:37:25.000Z</time>
        <extensions>
          <ns3:TrackPointExtension>
            <ns3:hr>96</ns3:hr>
          </ns3:TrackPointExtension>
        </extensions>
      </trkpt>
      <trkpt lat="24.5291060395538806915283203125" lon="118.15448082983493804931640625">
        <ele>69.8000030517578125</ele>
        <time>2026-09-30T05:37:27.000Z</time>
        <extensions>
          <ns3:TrackPointExtension>
            <ns3:hr>98</ns3:hr>
          </ns3:TrackPointExtension>
        </extensions>
      </trkpt>
      <trkpt lat="24.529434107244014739990234375" lon="118.15436013042926788330078125">
        <ele>69</ele>
        <time>2026-09-30T05:37:34.000Z</time>
        <extensions>
          <ns3:TrackPointExtension>
            <ns3:hr>99</ns3:hr>
          </ns3:TrackPointExtension>
        </extensions>
      </trkpt>
      <trkpt lat="24.5294822193682193756103515625" lon="118.154340684413909912109375">
        <ele>68.8000030517578125</ele>
        <time>2026-09-30T05:37:35.000Z</time>
        <extensions>
          <ns3:TrackPointExtension>
            <ns3:hr>99</ns3:hr>
          </ns3:TrackPointExtension>
        </extensions>
      </trkpt>
      <trkpt lat="24.52977977693080902099609375" lon="118.15424085594713687896728515625">
        <ele>68</ele>
        <time>2026-09-30T05:37:41.000Z</time>
        <extensions>
          <ns3:TrackPointExtension>
            <ns3:hr>96</ns3:hr>
          </ns3:TrackPointExtension>
        </extensions>
      </trkpt>
      <trkpt lat="24.529882036149501800537109375" lon="118.15420598722994327545166015625">
        <ele>67.8000030517578125</ele>
        <time>2026-09-30T05:37:43.000Z</time>
        <extensions>
          <ns3:TrackPointExtension>
            <ns3:hr>94</ns3:hr>
          </ns3:TrackPointExtension>
        </extensions>
      </trkpt>
      <trkpt lat="24.53011010773479938507080078125" lon="118.15415385179221630096435546875">
        <ele>67.1999969482421875</ele>
        <time>2026-09-30T05:37:47.000Z</time>
        <extensions>
          <ns3:TrackPointExtension>
            <ns3:hr>91</ns3:hr>
          </ns3:TrackPointExtension>
        </extensions>
      </trkpt>
      <trkpt lat="24.53028000891208648681640625" lon="118.1541064940392971038818359375">
        <ele>66.8000030517578125</ele>
        <time>2026-09-30T05:37:50.000Z</time>
        <extensions>
          <ns3:TrackPointExtension>
            <ns3:hr>90</ns3:hr>
          </ns3:TrackPointExtension>
        </extensions>
      </trkpt>
      <trkpt lat="24.5303316414356231689453125" lon="118.154086209833621978759765625">
        <ele>66.59999847412109375</ele>
        <time>2026-09-30T05:37:51.000Z</time>
        <extensions>
          <ns3:TrackPointExtension>
            <ns3:hr>90</ns3:hr>
          </ns3:TrackPointExtension>
        </extensions>
      </trkpt>
      <trkpt lat="24.53056809492409229278564453125" lon="118.1539693661034107208251953125">
        <ele>66.1999969482421875</ele>
        <time>2026-09-30T05:37:56.000Z</time>
        <extensions>
          <ns3:TrackPointExtension>
            <ns3:hr>88</ns3:hr>
          </ns3:TrackPointExtension>
        </extensions>
      </trkpt>
      <trkpt lat="24.53078250400722026824951171875" lon="118.1538619101047515869140625">
        <ele>66</ele>
        <time>2026-09-30T05:38:01.000Z</time>
        <extensions>
          <ns3:TrackPointExtension>
            <ns3:hr>83</ns3:hr>
          </ns3:TrackPointExtension>
        </extensions>
      </trkpt>
      <trkpt lat="24.53097260557115077972412109375" lon="118.15378203056752681732177734375">
        <ele>65.8000030517578125</ele>
        <time>2026-09-30T05:38:05.000Z</time>
        <extensions>
          <ns3:TrackPointExtension>
            <ns3:hr>83</ns3:hr>
          </ns3:TrackPointExtension>
        </extensions>
      </trkpt>
      <trkpt lat="24.53120143152773380279541015625" lon="118.1536875665187835693359375">
        <ele>65.59999847412109375</ele>
        <time>2026-09-30T05:38:10.000Z</time>
        <extensions>
          <ns3:TrackPointExtension>
            <ns3:hr>85</ns3:hr>
          </ns3:TrackPointExtension>
        </extensions>
      </trkpt>
      <trkpt lat="24.53129413537681102752685546875" lon="118.15365462563931941986083984375">
        <ele>65.40000152587890625</ele>
        <time>2026-09-30T05:38:12.000Z</time>
        <extensions>
          <ns3:TrackPointExtension>
            <ns3:hr>86</ns3:hr>
          </ns3:TrackPointExtension>
        </extensions>
      </trkpt>
      <trkpt lat="24.531429000198841094970703125" lon="118.15359829925000667572021484375">
        <ele>65.1999969482421875</ele>
        <time>2026-09-30T05:38:15.000Z</time>
        <extensions>
          <ns3:TrackPointExtension>
            <ns3:hr>86</ns3:hr>
          </ns3:TrackPointExtension>
        </extensions>
      </trkpt>
      <trkpt lat="24.53152363188564777374267578125" lon="118.1535710580646991729736328125">
        <ele>65</ele>
        <time>2026-09-30T05:38:17.000Z</time>
        <extensions>
          <ns3:TrackPointExtension>
            <ns3:hr>85</ns3:hr>
          </ns3:TrackPointExtension>
        </extensions>
      </trkpt>
      <trkpt lat="24.531567133963108062744140625" lon="118.15355035476386547088623046875">
        <ele>65</ele>
        <time>2026-09-30T05:38:18.000Z</time>
        <extensions>
          <ns3:TrackPointExtension>
            <ns3:hr>85</ns3:hr>
          </ns3:TrackPointExtension>
        </extensions>
      </trkpt>
      <trkpt lat="24.5317317545413970947265625" lon="118.15348304808139801025390625">
        <ele>64.59999847412109375</ele>
        <time>2026-09-30T05:38:22.000Z</time>
        <extensions>
          <ns3:TrackPointExtension>
            <ns3:hr>82</ns3:hr>
          </ns3:TrackPointExtension>
        </extensions>
      </trkpt>
      <trkpt lat="24.53182152472436428070068359375" lon="118.1534516997635364532470703125">
        <ele>64.40000152587890625</ele>
        <time>2026-09-30T05:38:24.000Z</time>
        <extensions>
          <ns3:TrackPointExtension>
            <ns3:hr>82</ns3:hr>
          </ns3:TrackPointExtension>
        </extensions>
      </trkpt>
      <trkpt lat="24.53186745755374431610107421875" lon="118.15343250520527362823486328125">
        <ele>64.59999847412109375</ele>
        <time>2026-09-30T05:38:25.000Z</time>
        <extensions>
          <ns3:TrackPointExtension>
            <ns3:hr>83</ns3:hr>
          </ns3:TrackPointExtension>
        </extensions>
      </trkpt>
      <trkpt lat="24.53212779946625232696533203125" lon="118.1533356942236423492431640625">
        <ele>64.8000030517578125</ele>
        <time>2026-09-30T05:38:31.000Z</time>
        <extensions>
          <ns3:TrackPointExtension>
            <ns3:hr>86</ns3:hr>
          </ns3:TrackPointExtension>
        </extensions>
      </trkpt>
      <trkpt lat="24.5322656817734241485595703125" lon="118.1532783620059490203857421875">
        <ele>64.59999847412109375</ele>
        <time>2026-09-30T05:38:34.000Z</time>
        <extensions>
          <ns3:TrackPointExtension>
            <ns3:hr>89</ns3:hr>
          </ns3:TrackPointExtension>
        </extensions>
      </trkpt>
      <trkpt lat="24.53253599815070629119873046875" lon="118.153162859380245208740234375">
        <ele>64.1999969482421875</ele>
        <time>2026-09-30T05:38:40.000Z</time>
        <extensions>
          <ns3:TrackPointExtension>
            <ns3:hr>91</ns3:hr>
          </ns3:TrackPointExtension>
        </extensions>
      </trkpt>
      <trkpt lat="24.53283858485519886016845703125" lon="118.1530319340527057647705078125">
        <ele>63.799999237060546875</ele>
        <time>2026-09-30T05:38:47.000Z</time>
        <extensions>
          <ns3:TrackPointExtension>
            <ns3:hr>93</ns3:hr>
          </ns3:TrackPointExtension>
        </extensions>
      </trkpt>
      <trkpt lat="24.5328849367797374725341796875" lon="118.1530215404927730560302734375">
        <ele>63.799999237060546875</ele>
        <time>2026-09-30T05:38:48.000Z</time>
        <extensions>
          <ns3:TrackPointExtension>
            <ns3:hr>93</ns3:hr>
          </ns3:TrackPointExtension>
        </extensions>
      </trkpt>
      <trkpt lat="24.5330138504505157470703125" lon="118.1529809720814228057861328125">
        <ele>63.59999847412109375</ele>
        <time>2026-09-30T05:38:51.000Z</time>
        <extensions>
          <ns3:TrackPointExtension>
            <ns3:hr>96</ns3:hr>
          </ns3:TrackPointExtension>
        </extensions>
      </trkpt>
      <trkpt lat="24.53309825621545314788818359375" lon="118.15295725129544734954833984375">
        <ele>63.59999847412109375</ele>
        <time>2026-09-30T05:38:53.000Z</time>
        <extensions>
          <ns3:TrackPointExtension>
            <ns3:hr>98</ns3:hr>
          </ns3:TrackPointExtension>
        </extensions>
      </trkpt>
      <trkpt lat="24.53313915990293025970458984375" lon="118.1529377214610576629638671875">
        <ele>63.59999847412109375</ele>
        <time>2026-09-30T05:38:54.000Z</time>
        <extensions>
          <ns3:TrackPointExtension>
            <ns3:hr>98</ns3:hr>
          </ns3:TrackPointExtension>
        </extensions>
      </trkpt>
      <trkpt lat="24.53322649933397769927978515625" lon="118.15291576087474822998046875">
        <ele>63.59999847412109375</ele>
        <time>2026-09-30T05:38:56.000Z</time>
        <extensions>
          <ns3:TrackPointExtension>
            <ns3:hr>97</ns3:hr>
          </ns3:TrackPointExtension>
        </extensions>
      </trkpt>
      <trkpt lat="24.53331383876502513885498046875" lon="118.15292783081531524658203125">
        <ele>63.59999847412109375</ele>
        <time>2026-09-30T05:38:58.000Z</time>
        <extensions>
          <ns3:TrackPointExtension>
            <ns3:hr>97</ns3:hr>
          </ns3:TrackPointExtension>
        </extensions>
      </trkpt>
      <trkpt lat="24.53335457481443881988525390625" lon="118.15293462015688419342041015625">
        <ele>63.40000152587890625</ele>
        <time>2026-09-30T05:38:59.000Z</time>
        <extensions>
          <ns3:TrackPointExtension>
            <ns3:hr>97</ns3:hr>
          </ns3:TrackPointExtension>
        </extensions>
      </trkpt>
      <trkpt lat="24.53345096670091152191162109375" lon="118.1530158407986164093017578125">
        <ele>63.40000152587890625</ele>
        <time>2026-09-30T05:39:02.000Z</time>
        <extensions>
          <ns3:TrackPointExtension>
            <ns3:hr>97</ns3:hr>
          </ns3:TrackPointExtension>
        </extensions>
      </trkpt>
      <trkpt lat="24.53353352844715118408203125" lon="118.15321407280862331390380859375">
        <ele>63</ele>
        <time>2026-09-30T05:39:07.000Z</time>
        <extensions>
          <ns3:TrackPointExtension>
            <ns3:hr>98</ns3:hr>
          </ns3:TrackPointExtension>
        </extensions>
      </trkpt>
      <trkpt lat="24.53362547792494297027587890625" lon="118.153504170477390289306640625">
        <ele>62.799999237060546875</ele>
        <time>2026-09-30T05:39:14.000Z</time>
        <extensions>
          <ns3:TrackPointExtension>
            <ns3:hr>97</ns3:hr>
          </ns3:TrackPointExtension>
        </extensions>
      </trkpt>
      <trkpt lat="24.533619694411754608154296875" lon="118.153540380299091339111328125">
        <ele>62.799999237060546875</ele>
        <time>2026-09-30T05:39:15.000Z</time>
        <extensions>
          <ns3:TrackPointExtension>
            <ns3:hr>98</ns3:hr>
          </ns3:TrackPointExtension>
        </extensions>
      </trkpt>
      <trkpt lat="24.533628411591053009033203125" lon="118.153645657002925872802734375">
        <ele>62.799999237060546875</ele>
        <time>2026-09-30T05:39:18.000Z</time>
        <extensions>
          <ns3:TrackPointExtension>
            <ns3:hr>100</ns3:hr>
          </ns3:TrackPointExtension>
        </extensions>
      </trkpt>
      <trkpt lat="24.53360703773796558380126953125" lon="118.1539083458483219146728515625">
        <ele>62.799999237060546875</ele>
        <time>2026-09-30T05:39:25.000Z</time>
        <extensions>
          <ns3:TrackPointExtension>
            <ns3:hr>98</ns3:hr>
          </ns3:TrackPointExtension>
        </extensions>
      </trkpt>
      <trkpt lat="24.53352774493396282196044921875" lon="118.1540840305387973785400390625">
        <ele>62.59999847412109375</ele>
        <time>2026-09-30T05:39:30.000Z</time>
        <extensions>
          <ns3:TrackPointExtension>
            <ns3:hr>99</ns3:hr>
          </ns3:TrackPointExtension>
        </extensions>
      </trkpt>
      <trkpt lat="24.53349103219807147979736328125" lon="118.15415360033512115478515625">
        <ele>62.40000152587890625</ele>
        <time>2026-09-30T05:39:32.000Z</time>
        <extensions>
          <ns3:TrackPointExtension>
            <ns3:hr>99</ns3:hr>
          </ns3:TrackPointExtension>
        </extensions>
      </trkpt>
      <trkpt lat="24.533436298370361328125" lon="118.15429818816483020782470703125">
        <ele>62.40000152587890625</ele>
        <time>2026-09-30T05:39:36.000Z</time>
        <extensions>
          <ns3:TrackPointExtension>
            <ns3:hr>100</ns3:hr>
          </ns3:TrackPointExtension>
        </extensions>
      </trkpt>
      <trkpt lat="24.5333851687610149383544921875" lon="118.15447303466498851776123046875">
        <ele>62.200000762939453125</ele>
        <time>2026-09-30T05:39:41.000Z</time>
        <extensions>
          <ns3:TrackPointExtension>
            <ns3:hr>99</ns3:hr>
          </ns3:TrackPointExtension>
        </extensions>
      </trkpt>
      <trkpt lat="24.533374607563018798828125" lon="118.15456171520054340362548828125">
        <ele>62.200000762939453125</ele>
        <time>2026-09-30T05:39:44.000Z</time>
        <extensions>
          <ns3:TrackPointExtension>
            <ns3:hr>97</ns3:hr>
          </ns3:TrackPointExtension>
        </extensions>
      </trkpt>
    </trkseg>
  </trk>
</gpx>
