<?xml version="1.0" encoding="UTF-8"?>
<gpx creator="Garmin Connect" version="1.1"
  xsi:schemaLocation="http://www.topografix.com/GPX/1/1 http://www.topografix.com/GPX/11.xsd"
  xmlns:ns3="http://www.garmin.com/xmlschemas/TrackPointExtension/v1"
  xmlns="http://www.topografix.com/GPX/1/1"
  xmlns:xsi="http://www.w3.org/2001/XMLSchema-instance" xmlns:ns2="http://www.garmin.com/xmlschemas/GpxExtensions/v3">
  <metadata>
    <link href="connect.garmin.com">
      <text>Garmin Connect</text>
    </link>
    <time>2026-09-30T06:59:25.000Z</time>
  </metadata>
  <trk>
    <name>厦门市 骑行</name>
    <type>cycling</type>
    <trkseg>
      <trkpt lat="24.53336312435567378997802734375" lon="118.15453824587166309356689453125">
        <ele>16.6000003814697265625</ele>
        <time>2026-09-30T06:59:25.000Z</time>
        <extensions>
          <ns3:TrackPointExtension>
            <ns3:hr>75</ns3:hr>
          </ns3:TrackPointExtension>
        </extensions>
      </trkpt>
      <trkpt lat="24.5333824865520000457763671875" lon="118.154490888118743896484375">
        <ele>16.3999996185302734375</ele>
        <time>2026-09-30T06:59:26.000Z</time>
        <extensions>
          <ns3:TrackPointExtension>
            <ns3:hr>75</ns3:hr>
          </ns3:TrackPointExtension>
        </extensions>
      </trkpt>
      <trkpt lat="24.53339480794966220855712890625" lon="118.154548220336437225341796875">
        <ele>16.3999996185302734375</ele>
        <time>2026-09-30T06:59:29.000Z</time>
        <extensions>
          <ns3:TrackPointExtension>
            <ns3:hr>77</ns3:hr>
          </ns3:TrackPointExtension>
        </extensions>
      </trkpt>
      <trkpt lat="24.53340335749089717864990234375" lon="118.15470856614410877227783203125">
        <ele>16.3999996185302734375</ele>
        <time>2026-09-30T06:59:34.000Z</time>
        <extensions>
          <ns3:TrackPointExtension>
            <ns3:hr>80</ns3:hr>
          </ns3:TrackPointExtension>
        </extensions>
      </trkpt>
      <trkpt lat="24.5334596000611782073974609375" lon="118.154864721000194549560546875">
        <ele>16.3999996185302734375</ele>
        <time>2026-09-30T06:59:39.000Z</time>
        <extensions>
          <ns3:TrackPointExtension>
            <ns3:hr>81</ns3:hr>
          </ns3:TrackPointExtension>
        </extensions>
      </trkpt>
      <trkpt lat="24.53351383097469806671142578125" lon="118.1550127454102039337158203125">
        <ele>16.6000003814697265625</ele>
        <time>2026-09-30T06:59:44.000Z</time>
        <extensions>
          <ns3:TrackPointExtension>
            <ns3:hr>82</ns3:hr>
          </ns3:TrackPointExtension>
        </extensions>
      </trkpt>
      <trkpt lat="24.53359697945415973663330078125" lon="118.15517040900886058807373046875">
        <ele>16.799999237060546875</ele>
        <time>2026-09-30T06:59:49.000Z</time>
        <extensions>
          <ns3:TrackPointExtension>
            <ns3:hr>83</ns3:hr>
          </ns3:TrackPointExtension>
        </extensions>
      </trkpt>
      <trkpt lat="24.5336242206394672393798828125" lon="118.1553232111036777496337890625">
        <ele>16.799999237060546875</ele>
        <time>2026-09-30T06:59:53.000Z</time>
        <extensions>
          <ns3:TrackPointExtension>
            <ns3:hr>83</ns3:hr>
          </ns3:TrackPointExtension>
        </extensions>
      </trkpt>
      <trkpt lat="24.53363603912293910980224609375" lon="118.155443407595157623291015625">
        <ele>16.799999237060546875</ele>
        <time>2026-09-30T06:59:56.000Z</time>
        <extensions>
          <ns3:TrackPointExtension>
            <ns3:hr>85</ns3:hr>
          </ns3:TrackPointExtension>
        </extensions>
      </trkpt>
      <trkpt lat="24.53367166221141815185546875" lon="118.15553787164390087127685546875">
        <ele>16.799999237060546875</ele>
        <time>2026-09-30T06:59:58.000Z</time>
        <extensions>
          <ns3:TrackPointExtension>
            <ns3:hr>85</ns3:hr>
          </ns3:TrackPointExtension>
        </extensions>
      </trkpt>
      <trkpt lat="24.5336346141993999481201171875" lon="118.15571104176342487335205078125">
        <ele>16.799999237060546875</ele>
        <time>2026-09-30T07:00:03.000Z</time>
        <extensions>
          <ns3:TrackPointExtension>
            <ns3:hr>84</ns3:hr>
          </ns3:TrackPointExtension>
        </extensions>
      </trkpt>
      <trkpt lat="24.53351651318371295928955078125" lon="118.15591958351433277130126953125">
        <ele>17.3999996185302734375</ele>
        <time>2026-09-30T07:00:09.000Z</time>
        <extensions>
          <ns3:TrackPointExtension>
            <ns3:hr>85</ns3:hr>
          </ns3:TrackPointExtension>
        </extensions>
      </trkpt>
      <trkpt lat="24.5334696583449840545654296875" lon="118.15599485300481319427490234375">
        <ele>17.3999996185302734375</ele>
        <time>2026-09-30T07:00:11.000Z</time>
        <extensions>
          <ns3:TrackPointExtension>
            <ns3:hr>88</ns3:hr>
          </ns3:TrackPointExtension>
        </extensions>
      </trkpt>
      <trkpt lat="24.5334046147763729095458984375" lon="118.15613851882517337799072265625">
        <ele>17.6000003814697265625</ele>
        <time>2026-09-30T07:00:15.000Z</time>
        <extensions>
          <ns3:TrackPointExtension>
            <ns3:hr>90</ns3:hr>
          </ns3:TrackPointExtension>
        </extensions>
      </trkpt>
      <trkpt lat="24.53337796032428741455078125" lon="118.15621613524854183197021484375">
        <ele>17.799999237060546875</ele>
        <time>2026-09-30T07:00:17.000Z</time>
        <extensions>
          <ns3:TrackPointExtension>
            <ns3:hr>90</ns3:hr>
          </ns3:TrackPointExtension>
        </extensions>
      </trkpt>
      <trkpt lat="24.53329238109290599822998046875" lon="118.1563644111156463623046875">
        <ele>17.799999237060546875</ele>
        <time>2026-09-30T07:00:21.000Z</time>
        <extensions>
          <ns3:TrackPointExtension>
            <ns3:hr>95</ns3:hr>
          </ns3:TrackPointExtension>
        </extensions>
      </trkpt>
      <trkpt lat="24.53327067196369171142578125" lon="118.1564011238515377044677734375">
        <ele>17.799999237060546875</ele>
        <time>2026-09-30T07:00:22.000Z</time>
        <extensions>
          <ns3:TrackPointExtension>
            <ns3:hr>96</ns3:hr>
          </ns3:TrackPointExtension>
        </extensions>
      </trkpt>
      <trkpt lat="24.53322834335267543792724609375" lon="118.1564852781593799591064453125">
        <ele>17.799999237060546875</ele>
        <time>2026-09-30T07:00:24.000Z</time>
        <extensions>
          <ns3:TrackPointExtension>
            <ns3:hr>97</ns3:hr>
          </ns3:TrackPointExtension>
        </extensions>
      </trkpt>
      <trkpt lat="24.533126167953014373779296875" lon="118.1566944904625415802001953125">
        <ele>17.799999237060546875</ele>
        <time>2026-09-30T07:00:29.000Z</time>
        <extensions>
          <ns3:TrackPointExtension>
            <ns3:hr>98</ns3:hr>
          </ns3:TrackPointExtension>
        </extensions>
      </trkpt>
      <trkpt lat="24.53298761509358882904052734375" lon="118.15696991980075836181640625">
        <ele>17.799999237060546875</ele>
        <time>2026-09-30T07:00:36.000Z</time>
        <extensions>
          <ns3:TrackPointExtension>
            <ns3:hr>100</ns3:hr>
          </ns3:TrackPointExtension>
        </extensions>
      </trkpt>
      <trkpt lat="24.532809667289257049560546875" lon="118.15730310045182704925537109375">
        <ele>18</ele>
        <time>2026-09-30T07:00:44.000Z</time>
        <extensions>
          <ns3:TrackPointExtension>
            <ns3:hr>100</ns3:hr>
          </ns3:TrackPointExtension>
        </extensions>
      </trkpt>
      <trkpt lat="24.53276599757373332977294921875" lon="118.157382309436798095703125">
        <ele>18</ele>
        <time>2026-09-30T07:00:46.000Z</time>
        <extensions>
          <ns3:TrackPointExtension>
            <ns3:hr>100</ns3:hr>
          </ns3:TrackPointExtension>
        </extensions>
      </trkpt>
      <trkpt lat="24.5326629839837551116943359375" lon="118.15758339129388332366943359375">
        <ele>18</ele>
        <time>2026-09-30T07:00:51.000Z</time>
        <extensions>
          <ns3:TrackPointExtension>
            <ns3:hr>100</ns3:hr>
          </ns3:TrackPointExtension>
        </extensions>
      </trkpt>
      <trkpt lat="24.532603137195110321044921875" lon="118.1577103771269321441650390625">
        <ele>17.3999996185302734375</ele>
        <time>2026-09-30T07:00:54.000Z</time>
        <extensions>
          <ns3:TrackPointExtension>
            <ns3:hr>99</ns3:hr>
          </ns3:TrackPointExtension>
        </extensions>
      </trkpt>
      <trkpt lat="24.53256483189761638641357421875" lon="118.15779210068285465240478515625">
        <ele>17</ele>
        <time>2026-09-30T07:00:56.000Z</time>
        <extensions>
          <ns3:TrackPointExtension>
            <ns3:hr>99</ns3:hr>
          </ns3:TrackPointExtension>
        </extensions>
      </trkpt>
      <trkpt lat="24.5323977805674076080322265625" lon="118.15813533961772918701171875">
        <ele>16.799999237060546875</ele>
        <time>2026-09-30T07:01:04.000Z</time>
        <extensions>
          <ns3:TrackPointExtension>
            <ns3:hr>100</ns3:hr>
          </ns3:TrackPointExtension>
        </extensions>
      </trkpt>
      <trkpt lat="24.53233784995973110198974609375" lon="118.15826953388750553131103515625">
        <ele>16.6000003814697265625</ele>
        <time>2026-09-30T07:01:07.000Z</time>
        <extensions>
          <ns3:TrackPointExtension>
            <ns3:hr>101</ns3:hr>
          </ns3:TrackPointExtension>
        </extensions>
      </trkpt>
      <trkpt lat="24.5322355069220066070556640625" lon="118.158487044274806976318359375">
        <ele>16.6000003814697265625</ele>
        <time>2026-09-30T07:01:12.000Z</time>
        <extensions>
          <ns3:TrackPointExtension>
            <ns3:hr>103</ns3:hr>
          </ns3:TrackPointExtension>
        </extensions>
      </trkpt>
      <trkpt lat="24.53215512447059154510498046875" lon="118.15860162489116191864013671875">
        <ele>16.3999996185302734375</ele>
        <time>2026-09-30T07:01:15.000Z</time>
        <extensions>
          <ns3:TrackPointExtension>
            <ns3:hr>103</ns3:hr>
          </ns3:TrackPointExtension>
        </extensions>
      </trkpt>
      <trkpt lat="24.53209586441516876220703125" lon="118.15867639146745204925537109375">
        <ele>16.3999996185302734375</ele>
        <time>2026-09-30T07:01:17.000Z</time>
        <extensions>
          <ns3:TrackPointExtension>
            <ns3:hr>102</ns3:hr>
          </ns3:TrackPointExtension>
        </extensions>
      </trkpt>
      <trkpt lat="24.53201665543019771575927734375" lon="118.15871058963239192962646484375">
        <ele>16.3999996185302734375</ele>
        <time>2026-09-30T07:01:19.000Z</time>
        <extensions>
          <ns3:TrackPointExtension>
            <ns3:hr>100</ns3:hr>
          </ns3:TrackPointExtension>
        </extensions>
      </trkpt>
      <trkpt lat="24.5319793559610843658447265625" lon="118.15870354883372783660888671875">
        <ele>16.200000762939453125</ele>
        <time>2026-09-30T07:01:20.000Z</time>
        <extensions>
          <ns3:TrackPointExtension>
            <ns3:hr>99</ns3:hr>
          </ns3:TrackPointExtension>
        </extensions>
      </trkpt>
      <trkpt lat="24.53187651000916957855224609375" lon="118.15865677781403064727783203125">
        <ele>16.6000003814697265625</ele>
        <time>2026-09-30T07:01:24.000Z</time>
        <extensions>
          <ns3:TrackPointExtension>
            <ns3:hr>98</ns3:hr>
          </ns3:TrackPointExtension>
        </extensions>
      </trkpt>
      <trkpt lat="24.53173804096877574920654296875" lon="118.15857111476361751556396484375">
        <ele>16.3999996185302734375</ele>
        <time>2026-09-30T07:01:29.000Z</time>
        <extensions>
          <ns3:TrackPointExtension>
            <ns3:hr>98</ns3:hr>
          </ns3:TrackPointExtension>
        </extensions>
      </trkpt>
      <trkpt lat="24.53145523555576801300048828125" lon="118.1583748944103717803955078125">
        <ele>16.6000003814697265625</ele>
        <time>2026-09-30T07:01:38.000Z</time>
        <extensions>
          <ns3:TrackPointExtension>
            <ns3:hr>98</ns3:hr>
          </ns3:TrackPointExtension>
        </extensions>
      </trkpt>
      <trkpt lat="24.5312675647437572479248046875" lon="118.1582424603402614593505859375">
        <ele>16.6000003814697265625</ele>
        <time>2026-09-30T07:01:44.000Z</time>
        <extensions>
          <ns3:TrackPointExtension>
            <ns3:hr>98</ns3:hr>
          </ns3:TrackPointExtension>
        </extensions>
      </trkpt>
      <trkpt lat="24.53101694583892822265625" lon="118.15806803293526172637939453125">
        <ele>17</ele>
        <time>2026-09-30T07:01:52.000Z</time>
        <extensions>
          <ns3:TrackPointExtension>
            <ns3:hr>99</ns3:hr>
          </ns3:TrackPointExtension>
        </extensions>
      </trkpt>
      <trkpt lat="24.53084218315780162811279296875" lon="118.157942555844783782958984375">
        <ele>17.200000762939453125</ele>
        <time>2026-09-30T07:01:58.000Z</time>
        <extensions>
          <ns3:TrackPointExtension>
            <ns3:hr>99</ns3:hr>
          </ns3:TrackPointExtension>
        </extensions>
      </trkpt>
      <trkpt lat="24.5306861959397792816162109375" lon="118.15786845982074737548828125">
        <ele>17</ele>
        <time>2026-09-30T07:02:03.000Z</time>
        <extensions>
          <ns3:TrackPointExtension>
            <ns3:hr>96</ns3:hr>
          </ns3:TrackPointExtension>
        </extensions>
      </trkpt>
      <trkpt lat="24.53065644018352031707763671875" lon="118.15784926526248455047607421875">
        <ele>17.200000762939453125</ele>
        <time>2026-09-30T07:02:04.000Z</time>
        <extensions>
          <ns3:TrackPointExtension>
            <ns3:hr>96</ns3:hr>
          </ns3:TrackPointExtension>
        </extensions>
      </trkpt>
      <trkpt lat="24.53049802221357822418212890625" lon="118.1577442400157451629638671875">
        <ele>17.6000003814697265625</ele>
        <time>2026-09-30T07:02:09.000Z</time>
        <extensions>
          <ns3:TrackPointExtension>
            <ns3:hr>99</ns3:hr>
          </ns3:TrackPointExtension>
        </extensions>
      </trkpt>
      <trkpt lat="24.530429542064666748046875" lon="118.15770660527050495147705078125">
        <ele>17.799999237060546875</ele>
        <time>2026-09-30T07:02:11.000Z</time>
        <extensions>
          <ns3:TrackPointExtension>
            <ns3:hr>100</ns3:hr>
          </ns3:TrackPointExtension>
        </extensions>
      </trkpt>
      <trkpt lat="24.530277661979198455810546875" lon="118.15759085118770599365234375">
        <ele>17.799999237060546875</ele>
        <time>2026-09-30T07:02:16.000Z</time>
        <extensions>
          <ns3:TrackPointExtension>
            <ns3:hr>99</ns3:hr>
          </ns3:TrackPointExtension>
        </extensions>
      </trkpt>
      <trkpt lat="24.5299985446035861968994140625" lon="118.157398402690887451171875">
        <ele>18</ele>
        <time>2026-09-30T07:02:24.000Z</time>
        <extensions>
          <ns3:TrackPointExtension>
            <ns3:hr>101</ns3:hr>
          </ns3:TrackPointExtension>
        </extensions>
      </trkpt>
      <trkpt lat="24.5298057608306407928466796875" lon="118.1571853347122669219970703125">
        <ele>18.200000762939453125</ele>
        <time>2026-09-30T07:02:31.000Z</time>
        <extensions>
          <ns3:TrackPointExtension>
            <ns3:hr>102</ns3:hr>
          </ns3:TrackPointExtension>
        </extensions>
      </trkpt>
      <trkpt lat="24.5296753384172916412353515625" lon="118.1570230610668659210205078125">
        <ele>18.6000003814697265625</ele>
        <time>2026-09-30T07:02:36.000Z</time>
        <extensions>
          <ns3:TrackPointExtension>
            <ns3:hr>103</ns3:hr>
          </ns3:TrackPointExtension>
        </extensions>
      </trkpt>
      <trkpt lat="24.52963569201529026031494140625" lon="118.15695642493665218353271484375">
        <ele>18.799999237060546875</ele>
        <time>2026-09-30T07:02:38.000Z</time>
        <extensions>
          <ns3:TrackPointExtension>
            <ns3:hr>104</ns3:hr>
          </ns3:TrackPointExtension>
        </extensions>
      </trkpt>
      <trkpt lat="24.52949956990778446197509765625" lon="118.156760036945343017578125">
        <ele>18.799999237060546875</ele>
        <time>2026-09-30T07:02:44.000Z</time>
        <extensions>
          <ns3:TrackPointExtension>
            <ns3:hr>104</ns3:hr>
          </ns3:TrackPointExtension>
        </extensions>
      </trkpt>
      <trkpt lat="24.5293581672012805938720703125" lon="118.15646692179143428802490234375">
        <ele>19</ele>
        <time>2026-09-30T07:02:52.000Z</time>
        <extensions>
          <ns3:TrackPointExtension>
            <ns3:hr>105</ns3:hr>
          </ns3:TrackPointExtension>
        </extensions>
      </trkpt>
      <trkpt lat="24.529279880225658416748046875" lon="118.15623759292066097259521484375">
        <ele>19.3999996185302734375</ele>
        <time>2026-09-30T07:02:58.000Z</time>
        <extensions>
          <ns3:TrackPointExtension>
            <ns3:hr>105</ns3:hr>
          </ns3:TrackPointExtension>
        </extensions>
      </trkpt>
      <trkpt lat="24.52918994240462779998779296875" lon="118.15595344640314579010009765625">
        <ele>19.6000003814697265625</ele>
        <time>2026-09-30T07:03:05.000Z</time>
        <extensions>
          <ns3:TrackPointExtension>
            <ns3:hr>104</ns3:hr>
          </ns3:TrackPointExtension>
        </extensions>
      </trkpt>
      <trkpt lat="24.5291157625615596771240234375" lon="118.155710957944393157958984375">
        <ele>19.799999237060546875</ele>
        <time>2026-09-30T07:03:11.000Z</time>
        <extensions>
          <ns3:TrackPointExtension>
            <ns3:hr>105</ns3:hr>
          </ns3:TrackPointExtension>
        </extensions>
      </trkpt>
      <trkpt lat="24.5290983282029628753662109375" lon="118.15567466430366039276123046875">
        <ele>19.799999237060546875</ele>
        <time>2026-09-30T07:03:12.000Z</time>
        <extensions>
          <ns3:TrackPointExtension>
            <ns3:hr>105</ns3:hr>
          </ns3:TrackPointExtension>
        </extensions>
      </trkpt>
      <trkpt lat="24.529013670980930328369140625" lon="118.1553832255303859710693359375">
        <ele>20.200000762939453125</ele>
        <time>2026-09-30T07:03:19.000Z</time>
        <extensions>
          <ns3:TrackPointExtension>
            <ns3:hr>106</ns3:hr>
          </ns3:TrackPointExtension>
        </extensions>
      </trkpt>
      <trkpt lat="24.52891753055155277252197265625" lon="118.15504141151905059814453125">
        <ele>20.200000762939453125</ele>
        <time>2026-09-30T07:03:28.000Z</time>
        <extensions>
          <ns3:TrackPointExtension>
            <ns3:hr>106</ns3:hr>
          </ns3:TrackPointExtension>
        </extensions>
      </trkpt>
      <trkpt lat="24.52882482670247554779052734375" lon="118.154766149818897247314453125">
        <ele>20.200000762939453125</ele>
        <time>2026-09-30T07:03:35.000Z</time>
        <extensions>
          <ns3:TrackPointExtension>
            <ns3:hr>105</ns3:hr>
          </ns3:TrackPointExtension>
        </extensions>
      </trkpt>
      <trkpt lat="24.52883471734821796417236328125" lon="118.154572360217571258544921875">
        <ele>20.200000762939453125</ele>
        <time>2026-09-30T07:03:40.000Z</time>
        <extensions>
          <ns3:TrackPointExtension>
            <ns3:hr>104</ns3:hr>
          </ns3:TrackPointExtension>
        </extensions>
      </trkpt>
      <trkpt lat="24.52876280061900615692138671875" lon="118.15438561141490936279296875">
        <ele>20.200000762939453125</ele>
        <time>2026-09-30T07:03:45.000Z</time>
        <extensions>
          <ns3:TrackPointExtension>
            <ns3:hr>102</ns3:hr>
          </ns3:TrackPointExtension>
        </extensions>
      </trkpt>
      <trkpt lat="24.52870295383036136627197265625" lon="118.15413222648203372955322265625">
        <ele>20.200000762939453125</ele>
        <time>2026-09-30T07:03:51.000Z</time>
        <extensions>
          <ns3:TrackPointExtension>
            <ns3:hr>104</ns3:hr>
          </ns3:TrackPointExtension>
        </extensions>
      </trkpt>
      <trkpt lat="24.52860538847744464874267578125" lon="118.15376870334148406982421875">
        <ele>20.3999996185302734375</ele>
        <time>2026-09-30T07:04:00.000Z</time>
        <extensions>
          <ns3:TrackPointExtension>
            <ns3:hr>104</ns3:hr>
          </ns3:TrackPointExtension>
        </extensions>
      </trkpt>
      <trkpt lat="24.52859549783170223236083984375" lon="118.1536672823131084442138671875">
        <ele>20.3999996185302734375</ele>
        <time>2026-09-30T07:04:03.000Z</time>
        <extensions>
          <ns3:TrackPointExtension>
            <ns3:hr>101</ns3:hr>
          </ns3:TrackPointExtension>
        </extensions>
      </trkpt>
      <trkpt lat="24.5285870321094989776611328125" lon="118.153640292584896087646484375">
        <ele>20.3999996185302734375</ele>
        <time>2026-09-30T07:04:04.000Z</time>
        <extensions>
          <ns3:TrackPointExtension>
            <ns3:hr>101</ns3:hr>
          </ns3:TrackPointExtension>
        </extensions>
      </trkpt>
      <trkpt lat="24.5285826735198497772216796875" lon="118.15360617823898792266845703125">
        <ele>20.6000003814697265625</ele>
        <time>2026-09-30T07:04:06.000Z</time>
        <extensions>
          <ns3:TrackPointExtension>
            <ns3:hr>98</ns3:hr>
          </ns3:TrackPointExtension>
        </extensions>
      </trkpt>
      <trkpt lat="24.528581164777278900146484375" lon="118.15359544940292835235595703125">
        <ele>20.6000003814697265625</ele>
        <time>2026-09-30T07:04:07.000Z</time>
        <extensions>
          <ns3:TrackPointExtension>
            <ns3:hr>98</ns3:hr>
          </ns3:TrackPointExtension>
        </extensions>
      </trkpt>
    </trkseg>
  </trk>
</gpx>
