<?xml version="1.0" encoding="UTF-8"?>
<gpx creator="Garmin Connect" version="1.1"
  xsi:schemaLocation="http://www.topografix.com/GPX/1/1 http://www.topografix.com/GPX/11.xsd"
  xmlns:ns3="http://www.garmin.com/xmlschemas/TrackPointExtension/v1"
  xmlns="http://www.topografix.com/GPX/1/1"
  xmlns:xsi="http://www.w3.org/2001/XMLSchema-instance" xmlns:ns2="http://www.garmin.com/xmlschemas/GpxExtensions/v3">
  <metadata>
    <link href="connect.garmin.com">
      <text>Garmin Connect</text>
    </link>
    <time>2026-10-01T09:39:31.000Z</time>
  </metadata>
  <trk>
    <name>厦门市 骑行</name>
    <type>cycling</type>
    <trkseg>
      <trkpt lat="24.49296788312494754791259765625" lon="118.14073258079588413238525390625">
        <ele>49.59999847412109375</ele>
        <time>2026-10-01T09:39:31.000Z</time>
        <extensions>
          <ns3:TrackPointExtension>
            <ns3:hr>91</ns3:hr>
          </ns3:TrackPointExtension>
        </extensions>
      </trkpt>
      <trkpt lat="24.49292890727519989013671875" lon="118.140805922448635101318359375">
        <ele>49.59999847412109375</ele>
        <time>2026-10-01T09:39:32.000Z</time>
        <extensions>
          <ns3:TrackPointExtension>
            <ns3:hr>91</ns3:hr>
          </ns3:TrackPointExtension>
        </extensions>
      </trkpt>
      <trkpt lat="24.4928881712257862091064453125" lon="118.14075605012476444244384765625">
        <ele>49.59999847412109375</ele>
        <time>2026-10-01T09:39:35.000Z</time>
        <extensions>
          <ns3:TrackPointExtension>
            <ns3:hr>92</ns3:hr>
          </ns3:TrackPointExtension>
        </extensions>
      </trkpt>
      <trkpt lat="24.49283997528254985809326171875" lon="118.14074230380356311798095703125">
        <ele>49.59999847412109375</ele>
        <time>2026-10-01T09:39:38.000Z</time>
        <extensions>
          <ns3:TrackPointExtension>
            <ns3:hr>91</ns3:hr>
          </ns3:TrackPointExtension>
        </extensions>
      </trkpt>
      <trkpt lat="24.49281089007854461669921875" lon="118.14075504429638385772705078125">
        <ele>49.40000152587890625</ele>
        <time>2026-10-01T09:39:40.000Z</time>
        <extensions>
          <ns3:TrackPointExtension>
            <ns3:hr>92</ns3:hr>
          </ns3:TrackPointExtension>
        </extensions>
      </trkpt>
      <trkpt lat="24.4927882589399814605712890625" lon="118.14075772650539875030517578125">
        <ele>49.799999237060546875</ele>
        <time>2026-10-01T09:39:43.000Z</time>
        <extensions>
          <ns3:TrackPointExtension>
            <ns3:hr>90</ns3:hr>
          </ns3:TrackPointExtension>
        </extensions>
      </trkpt>
      <trkpt lat="24.4927839003503322601318359375" lon="118.1407968699932098388671875">
        <ele>49.799999237060546875</ele>
        <time>2026-10-01T09:39:45.000Z</time>
        <extensions>
          <ns3:TrackPointExtension>
            <ns3:hr>89</ns3:hr>
          </ns3:TrackPointExtension>
        </extensions>
      </trkpt>
      <trkpt lat="24.4927550666034221649169921875" lon="118.14090323634445667266845703125">
        <ele>50</ele>
        <time>2026-10-01T09:39:49.000Z</time>
        <extensions>
          <ns3:TrackPointExtension>
            <ns3:hr>89</ns3:hr>
          </ns3:TrackPointExtension>
        </extensions>
      </trkpt>
      <trkpt lat="24.4927275739610195159912109375" lon="118.1410354189574718475341796875">
        <ele>50.200000762939453125</ele>
        <time>2026-10-01T09:39:53.000Z</time>
        <extensions>
          <ns3:TrackPointExtension>
            <ns3:hr>86</ns3:hr>
          </ns3:TrackPointExtension>
        </extensions>
      </trkpt>
      <trkpt lat="24.4927393086254596710205078125" lon="118.1410650908946990966796875">
        <ele>50.200000762939453125</ele>
        <time>2026-10-01T09:39:54.000Z</time>
        <extensions>
          <ns3:TrackPointExtension>
            <ns3:hr>85</ns3:hr>
          </ns3:TrackPointExtension>
        </extensions>
      </trkpt>
      <trkpt lat="24.49281415902078151702880859375" lon="118.1411192379891872406005859375">
        <ele>50.40000152587890625</ele>
        <time>2026-10-01T09:39:57.000Z</time>
        <extensions>
          <ns3:TrackPointExtension>
            <ns3:hr>82</ns3:hr>
          </ns3:TrackPointExtension>
        </extensions>
      </trkpt>
      <trkpt lat="24.4928489439189434051513671875" lon="118.14113860018551349639892578125">
        <ele>50.40000152587890625</ele>
        <time>2026-10-01T09:39:58.000Z</time>
        <extensions>
          <ns3:TrackPointExtension>
            <ns3:hr>82</ns3:hr>
          </ns3:TrackPointExtension>
        </extensions>
      </trkpt>
      <trkpt lat="24.49308506213128566741943359375" lon="118.1412501633167266845703125">
        <ele>50.200000762939453125</ele>
        <time>2026-10-01T09:40:04.000Z</time>
        <extensions>
          <ns3:TrackPointExtension>
            <ns3:hr>83</ns3:hr>
          </ns3:TrackPointExtension>
        </extensions>
      </trkpt>
      <trkpt lat="24.4931280612945556640625" lon="118.1412689387798309326171875">
        <ele>50.200000762939453125</ele>
        <time>2026-10-01T09:40:05.000Z</time>
        <extensions>
          <ns3:TrackPointExtension>
            <ns3:hr>89</ns3:hr>
          </ns3:TrackPointExtension>
        </extensions>
      </trkpt>
      <trkpt lat="24.49316896498203277587890625" lon="118.1412939168512821197509765625">
        <ele>50.200000762939453125</ele>
        <time>2026-10-01T09:40:06.000Z</time>
        <extensions>
          <ns3:TrackPointExtension>
            <ns3:hr>92</ns3:hr>
          </ns3:TrackPointExtension>
        </extensions>
      </trkpt>
      <trkpt lat="24.49325052089989185333251953125" lon="118.14133993349969387054443359375">
        <ele>50.200000762939453125</ele>
        <time>2026-10-01T09:40:08.000Z</time>
        <extensions>
          <ns3:TrackPointExtension>
            <ns3:hr>95</ns3:hr>
          </ns3:TrackPointExtension>
        </extensions>
      </trkpt>
      <trkpt lat="24.49336946010589599609375" lon="118.14139860682189464569091796875">
        <ele>50</ele>
        <time>2026-10-01T09:40:11.000Z</time>
        <extensions>
          <ns3:TrackPointExtension>
            <ns3:hr>97</ns3:hr>
          </ns3:TrackPointExtension>
        </extensions>
      </trkpt>
      <trkpt lat="24.49344950728118419647216796875" lon="118.14142190851271152496337890625">
        <ele>50</ele>
        <time>2026-10-01T09:40:13.000Z</time>
        <extensions>
          <ns3:TrackPointExtension>
            <ns3:hr>98</ns3:hr>
          </ns3:TrackPointExtension>
        </extensions>
      </trkpt>
      <trkpt lat="24.49358127079904079437255859375" lon="118.141445629298686981201171875">
        <ele>50</ele>
        <time>2026-10-01T09:40:16.000Z</time>
        <extensions>
          <ns3:TrackPointExtension>
            <ns3:hr>97</ns3:hr>
          </ns3:TrackPointExtension>
        </extensions>
      </trkpt>
      <trkpt lat="24.49370716698467731475830078125" lon="118.14148058183491230010986328125">
        <ele>50</ele>
        <time>2026-10-01T09:40:19.000Z</time>
        <extensions>
          <ns3:TrackPointExtension>
            <ns3:hr>98</ns3:hr>
          </ns3:TrackPointExtension>
        </extensions>
      </trkpt>
      <trkpt lat="24.493849910795688629150390625" lon="118.14150472171604633331298828125">
        <ele>50</ele>
        <time>2026-10-01T09:40:22.000Z</time>
        <extensions>
          <ns3:TrackPointExtension>
            <ns3:hr>98</ns3:hr>
          </ns3:TrackPointExtension>
        </extensions>
      </trkpt>
      <trkpt lat="24.494123496115207672119140625" lon="118.141576386988162994384765625">
        <ele>50.200000762939453125</ele>
        <time>2026-10-01T09:40:28.000Z</time>
        <extensions>
          <ns3:TrackPointExtension>
            <ns3:hr>99</ns3:hr>
          </ns3:TrackPointExtension>
        </extensions>
      </trkpt>
      <trkpt lat="24.49421477504074573516845703125" lon="118.1415956653654575347900390625">
        <ele>50</ele>
        <time>2026-10-01T09:40:30.000Z</time>
        <extensions>
          <ns3:TrackPointExtension>
            <ns3:hr>99</ns3:hr>
          </ns3:TrackPointExtension>
        </extensions>
      </trkpt>
      <trkpt lat="24.4943653978407382965087890625" lon="118.14165794290602207183837890625">
        <ele>50</ele>
        <time>2026-10-01T09:40:34.000Z</time>
        <extensions>
          <ns3:TrackPointExtension>
            <ns3:hr>99</ns3:hr>
          </ns3:TrackPointExtension>
        </extensions>
      </trkpt>
      <trkpt lat="24.49452473782002925872802734375" lon="118.14169599674642086029052734375">
        <ele>50.200000762939453125</ele>
        <time>2026-10-01T09:40:39.000Z</time>
        <extensions>
          <ns3:TrackPointExtension>
            <ns3:hr>97</ns3:hr>
          </ns3:TrackPointExtension>
        </extensions>
      </trkpt>
      <trkpt lat="24.49470360763370990753173828125" lon="118.14176757819950580596923828125">
        <ele>50.200000762939453125</ele>
        <time>2026-10-01T09:40:45.000Z</time>
        <extensions>
          <ns3:TrackPointExtension>
            <ns3:hr>96</ns3:hr>
          </ns3:TrackPointExtension>
        </extensions>
      </trkpt>
      <trkpt lat="24.49492715299129486083984375" lon="118.14185089431703090667724609375">
        <ele>50</ele>
        <time>2026-10-01T09:40:51.000Z</time>
        <extensions>
          <ns3:TrackPointExtension>
            <ns3:hr>95</ns3:hr>
          </ns3:TrackPointExtension>
        </extensions>
      </trkpt>
      <trkpt lat="24.4951657019555568695068359375" lon="118.14191878773272037506103515625">
        <ele>50</ele>
        <time>2026-10-01T09:40:57.000Z</time>
        <extensions>
          <ns3:TrackPointExtension>
            <ns3:hr>95</ns3:hr>
          </ns3:TrackPointExtension>
        </extensions>
      </trkpt>
      <trkpt lat="24.49542461894452571868896484375" lon="118.14198483712971210479736328125">
        <ele>49.799999237060546875</ele>
        <time>2026-10-01T09:41:03.000Z</time>
        <extensions>
          <ns3:TrackPointExtension>
            <ns3:hr>95</ns3:hr>
          </ns3:TrackPointExtension>
        </extensions>
      </trkpt>
      <trkpt lat="24.49568445794284343719482421875" lon="118.1420466117560863494873046875">
        <ele>49.799999237060546875</ele>
        <time>2026-10-01T09:41:09.000Z</time>
        <extensions>
          <ns3:TrackPointExtension>
            <ns3:hr>94</ns3:hr>
          </ns3:TrackPointExtension>
        </extensions>
      </trkpt>
      <trkpt lat="24.4958831928670406341552734375" lon="118.14210067503154277801513671875">
        <ele>50</ele>
        <time>2026-10-01T09:41:14.000Z</time>
        <extensions>
          <ns3:TrackPointExtension>
            <ns3:hr>97</ns3:hr>
          </ns3:TrackPointExtension>
        </extensions>
      </trkpt>
      <trkpt lat="24.49592317454516887664794921875" lon="118.14211408607661724090576171875">
        <ele>49.799999237060546875</ele>
        <time>2026-10-01T09:41:15.000Z</time>
        <extensions>
          <ns3:TrackPointExtension>
            <ns3:hr>98</ns3:hr>
          </ns3:TrackPointExtension>
        </extensions>
      </trkpt>
      <trkpt lat="24.49600615538656711578369140625" lon="118.1421408243477344512939453125">
        <ele>50</ele>
        <time>2026-10-01T09:41:17.000Z</time>
        <extensions>
          <ns3:TrackPointExtension>
            <ns3:hr>102</ns3:hr>
          </ns3:TrackPointExtension>
        </extensions>
      </trkpt>
      <trkpt lat="24.4961844384670257568359375" lon="118.142197318375110626220703125">
        <ele>49.799999237060546875</ele>
        <time>2026-10-01T09:41:21.000Z</time>
        <extensions>
          <ns3:TrackPointExtension>
            <ns3:hr>103</ns3:hr>
          </ns3:TrackPointExtension>
        </extensions>
      </trkpt>
      <trkpt lat="24.49632718227803707122802734375" lon="118.14223587512969970703125">
        <ele>49.799999237060546875</ele>
        <time>2026-10-01T09:41:24.000Z</time>
        <extensions>
          <ns3:TrackPointExtension>
            <ns3:hr>99</ns3:hr>
          </ns3:TrackPointExtension>
        </extensions>
      </trkpt>
      <trkpt lat="24.49642323888838291168212890625" lon="118.1422586739063262939453125">
        <ele>49.799999237060546875</ele>
        <time>2026-10-01T09:41:26.000Z</time>
        <extensions>
          <ns3:TrackPointExtension>
            <ns3:hr>96</ns3:hr>
          </ns3:TrackPointExtension>
        </extensions>
      </trkpt>
      <trkpt lat="24.49646539986133575439453125" lon="118.14229245297610759735107421875">
        <ele>49.799999237060546875</ele>
        <time>2026-10-01T09:41:27.000Z</time>
        <extensions>
          <ns3:TrackPointExtension>
            <ns3:hr>96</ns3:hr>
          </ns3:TrackPointExtension>
        </extensions>
      </trkpt>
      <trkpt lat="24.49653656221926212310791015625" lon="118.1424643658101558685302734375">
        <ele>50</ele>
        <time>2026-10-01T09:41:31.000Z</time>
        <extensions>
          <ns3:TrackPointExtension>
            <ns3:hr>98</ns3:hr>
          </ns3:TrackPointExtension>
        </extensions>
      </trkpt>
      <trkpt lat="24.4966392405331134796142578125" lon="118.14249026589095592498779296875">
        <ele>50</ele>
        <time>2026-10-01T09:41:34.000Z</time>
        <extensions>
          <ns3:TrackPointExtension>
            <ns3:hr>99</ns3:hr>
          </ns3:TrackPointExtension>
        </extensions>
      </trkpt>
      <trkpt lat="24.496675617992877960205078125" lon="118.1424831412732601165771484375">
        <ele>50</ele>
        <time>2026-10-01T09:41:35.000Z</time>
        <extensions>
          <ns3:TrackPointExtension>
            <ns3:hr>99</ns3:hr>
          </ns3:TrackPointExtension>
        </extensions>
      </trkpt>
      <trkpt lat="24.49690125882625579833984375" lon="118.14251407049596309661865234375">
        <ele>50.200000762939453125</ele>
        <time>2026-10-01T09:41:42.000Z</time>
        <extensions>
          <ns3:TrackPointExtension>
            <ns3:hr>97</ns3:hr>
          </ns3:TrackPointExtension>
        </extensions>
      </trkpt>
      <trkpt lat="24.49723863042891025543212890625" lon="118.14263493753969669342041015625">
        <ele>50.40000152587890625</ele>
        <time>2026-10-01T09:41:51.000Z</time>
        <extensions>
          <ns3:TrackPointExtension>
            <ns3:hr>96</ns3:hr>
          </ns3:TrackPointExtension>
        </extensions>
      </trkpt>
      <trkpt lat="24.4975994713604450225830078125" lon="118.14274406991899013519287109375">
        <ele>50.59999847412109375</ele>
        <time>2026-10-01T09:42:00.000Z</time>
        <extensions>
          <ns3:TrackPointExtension>
            <ns3:hr>97</ns3:hr>
          </ns3:TrackPointExtension>
        </extensions>
      </trkpt>
      <trkpt lat="24.497641213238239288330078125" lon="118.14275798387825489044189453125">
        <ele>50.59999847412109375</ele>
        <time>2026-10-01T09:42:01.000Z</time>
        <extensions>
          <ns3:TrackPointExtension>
            <ns3:hr>97</ns3:hr>
          </ns3:TrackPointExtension>
        </extensions>
      </trkpt>
      <trkpt lat="24.49784338474273681640625" lon="118.14282302744686603546142578125">
        <ele>50.59999847412109375</ele>
        <time>2026-10-01T09:42:06.000Z</time>
        <extensions>
          <ns3:TrackPointExtension>
            <ns3:hr>98</ns3:hr>
          </ns3:TrackPointExtension>
        </extensions>
      </trkpt>
      <trkpt lat="24.49792318046092987060546875" lon="118.1428492628037929534912109375">
        <ele>50.799999237060546875</ele>
        <time>2026-10-01T09:42:08.000Z</time>
        <extensions>
          <ns3:TrackPointExtension>
            <ns3:hr>98</ns3:hr>
          </ns3:TrackPointExtension>
        </extensions>
      </trkpt>
      <trkpt lat="24.4982090033590793609619140625" lon="118.1429374404251575469970703125">
        <ele>50.799999237060546875</ele>
        <time>2026-10-01T09:42:15.000Z</time>
        <extensions>
          <ns3:TrackPointExtension>
            <ns3:hr>100</ns3:hr>
          </ns3:TrackPointExtension>
        </extensions>
      </trkpt>
      <trkpt lat="24.49857554398477077484130859375" lon="118.143061660230159759521484375">
        <ele>51.200000762939453125</ele>
        <time>2026-10-01T09:42:24.000Z</time>
        <extensions>
          <ns3:TrackPointExtension>
            <ns3:hr>103</ns3:hr>
          </ns3:TrackPointExtension>
        </extensions>
      </trkpt>
      <trkpt lat="24.4988466985523700714111328125" lon="118.14316148869693279266357421875">
        <ele>51.200000762939453125</ele>
        <time>2026-10-01T09:42:31.000Z</time>
        <extensions>
          <ns3:TrackPointExtension>
            <ns3:hr>105</ns3:hr>
          </ns3:TrackPointExtension>
        </extensions>
      </trkpt>
      <trkpt lat="24.49911232106387615203857421875" lon="118.14325134269893169403076171875">
        <ele>51.40000152587890625</ele>
        <time>2026-10-01T09:42:38.000Z</time>
        <extensions>
          <ns3:TrackPointExtension>
            <ns3:hr>107</ns3:hr>
          </ns3:TrackPointExtension>
        </extensions>
      </trkpt>
      <trkpt lat="24.4991960562765598297119140625" lon="118.143267519772052764892578125">
        <ele>51.40000152587890625</ele>
        <time>2026-10-01T09:42:40.000Z</time>
        <extensions>
          <ns3:TrackPointExtension>
            <ns3:hr>107</ns3:hr>
          </ns3:TrackPointExtension>
        </extensions>
      </trkpt>
      <trkpt lat="24.49935841374099254608154296875" lon="118.14332862384617328643798828125">
        <ele>51.59999847412109375</ele>
        <time>2026-10-01T09:42:44.000Z</time>
        <extensions>
          <ns3:TrackPointExtension>
            <ns3:hr>106</ns3:hr>
          </ns3:TrackPointExtension>
        </extensions>
      </trkpt>
      <trkpt lat="24.49939898215234279632568359375" lon="118.14333893358707427978515625">
        <ele>51.59999847412109375</ele>
        <time>2026-10-01T09:42:45.000Z</time>
        <extensions>
          <ns3:TrackPointExtension>
            <ns3:hr>105</ns3:hr>
          </ns3:TrackPointExtension>
        </extensions>
      </trkpt>
      <trkpt lat="24.49952102266252040863037109375" lon="118.14338008873164653778076171875">
        <ele>51.799999237060546875</ele>
        <time>2026-10-01T09:42:48.000Z</time>
        <extensions>
          <ns3:TrackPointExtension>
            <ns3:hr>104</ns3:hr>
          </ns3:TrackPointExtension>
        </extensions>
      </trkpt>
      <trkpt lat="24.4997169077396392822265625" lon="118.14345753751695156097412109375">
        <ele>51.799999237060546875</ele>
        <time>2026-10-01T09:42:53.000Z</time>
        <extensions>
          <ns3:TrackPointExtension>
            <ns3:hr>104</ns3:hr>
          </ns3:TrackPointExtension>
        </extensions>
      </trkpt>
      <trkpt lat="24.50002871453762054443359375" lon="118.1435530073940753936767578125">
        <ele>52.200000762939453125</ele>
        <time>2026-10-01T09:43:01.000Z</time>
        <extensions>
          <ns3:TrackPointExtension>
            <ns3:hr>102</ns3:hr>
          </ns3:TrackPointExtension>
        </extensions>
      </trkpt>
      <trkpt lat="24.50018269009888172149658203125" lon="118.14361461438238620758056640625">
        <ele>52.40000152587890625</ele>
        <time>2026-10-01T09:43:06.000Z</time>
        <extensions>
          <ns3:TrackPointExtension>
            <ns3:hr>102</ns3:hr>
          </ns3:TrackPointExtension>
        </extensions>
      </trkpt>
      <trkpt lat="24.5003869570791721343994140625" lon="118.14367865212261676788330078125">
        <ele>52.59999847412109375</ele>
        <time>2026-10-01T09:43:12.000Z</time>
        <extensions>
          <ns3:TrackPointExtension>
            <ns3:hr>102</ns3:hr>
          </ns3:TrackPointExtension>
        </extensions>
      </trkpt>
      <trkpt lat="24.50055602006614208221435546875" lon="118.14374797046184539794921875">
        <ele>52.799999237060546875</ele>
        <time>2026-10-01T09:43:17.000Z</time>
        <extensions>
          <ns3:TrackPointExtension>
            <ns3:hr>102</ns3:hr>
          </ns3:TrackPointExtension>
        </extensions>
      </trkpt>
      <trkpt lat="24.50058803893625736236572265625" lon="118.143771775066852569580078125">
        <ele>52.799999237060546875</ele>
        <time>2026-10-01T09:43:18.000Z</time>
        <extensions>
          <ns3:TrackPointExtension>
            <ns3:hr>103</ns3:hr>
          </ns3:TrackPointExtension>
        </extensions>
      </trkpt>
      <trkpt lat="24.50075265951454639434814453125" lon="118.14391870982944965362548828125">
        <ele>53.200000762939453125</ele>
        <time>2026-10-01T09:43:24.000Z</time>
        <extensions>
          <ns3:TrackPointExtension>
            <ns3:hr>103</ns3:hr>
          </ns3:TrackPointExtension>
        </extensions>
      </trkpt>
      <trkpt lat="24.5008550025522708892822265625" lon="118.1441105715930461883544921875">
        <ele>53.40000152587890625</ele>
        <time>2026-10-01T09:43:30.000Z</time>
        <extensions>
          <ns3:TrackPointExtension>
            <ns3:hr>104</ns3:hr>
          </ns3:TrackPointExtension>
        </extensions>
      </trkpt>
      <trkpt lat="24.5009549148380756378173828125" lon="118.14440670423209667205810546875">
        <ele>53.59999847412109375</ele>
        <time>2026-10-01T09:43:38.000Z</time>
        <extensions>
          <ns3:TrackPointExtension>
            <ns3:hr>103</ns3:hr>
          </ns3:TrackPointExtension>
        </extensions>
      </trkpt>
      <trkpt lat="24.50097628869116306304931640625" lon="118.1446362845599651336669921875">
        <ele>53.799999237060546875</ele>
        <time>2026-10-01T09:43:44.000Z</time>
        <extensions>
          <ns3:TrackPointExtension>
            <ns3:hr>103</ns3:hr>
          </ns3:TrackPointExtension>
        </extensions>
      </trkpt>
      <trkpt lat="24.50098131783306598663330078125" lon="118.14478858374059200286865234375">
        <ele>53.799999237060546875</ele>
        <time>2026-10-01T09:43:48.000Z</time>
        <extensions>
          <ns3:TrackPointExtension>
            <ns3:hr>103</ns3:hr>
          </ns3:TrackPointExtension>
        </extensions>
      </trkpt>
      <trkpt lat="24.50098223984241485595703125" lon="118.1448632664978504180908203125">
        <ele>54</ele>
        <time>2026-10-01T09:43:50.000Z</time>
        <extensions>
          <ns3:TrackPointExtension>
            <ns3:hr>104</ns3:hr>
          </ns3:TrackPointExtension>
        </extensions>
      </trkpt>
      <trkpt lat="24.50098668225109577178955078125" lon="118.14511883072555065155029296875">
        <ele>54.200000762939453125</ele>
        <time>2026-10-01T09:43:57.000Z</time>
        <extensions>
          <ns3:TrackPointExtension>
            <ns3:hr>102</ns3:hr>
          </ns3:TrackPointExtension>
        </extensions>
      </trkpt>
      <trkpt lat="24.50101652182638645172119140625" lon="118.14529133029282093048095703125">
        <ele>54.200000762939453125</ele>
        <time>2026-10-01T09:44:02.000Z</time>
        <extensions>
          <ns3:TrackPointExtension>
            <ns3:hr>100</ns3:hr>
          </ns3:TrackPointExtension>
        </extensions>
      </trkpt>
      <trkpt lat="24.50103026814758777618408203125" lon="118.14529049210250377655029296875">
        <ele>54.200000762939453125</ele>
        <time>2026-10-01T09:44:05.000Z</time>
        <extensions>
          <ns3:TrackPointExtension>
            <ns3:hr>100</ns3:hr>
          </ns3:TrackPointExtension>
        </extensions>
      </trkpt>
    </trkseg>
  </trk>
</gpx>
