<?xml version="1.0" encoding="UTF-8"?>
<gpx creator="Garmin Connect" version="1.1"
  xsi:schemaLocation="http://www.topografix.com/GPX/1/1 http://www.topografix.com/GPX/11.xsd"
  xmlns:ns3="http://www.garmin.com/xmlschemas/TrackPointExtension/v1"
  xmlns="http://www.topografix.com/GPX/1/1"
  xmlns:xsi="http://www.w3.org/2001/XMLSchema-instance" xmlns:ns2="http://www.garmin.com/xmlschemas/GpxExtensions/v3">
  <metadata>
    <link href="connect.garmin.com">
      <text>Garmin Connect</text>
    </link>
    <time>2026-10-01T08:44:53.000Z</time>
  </metadata>
  <trk>
    <name>厦门市 骑行</name>
    <type>cycling</type>
    <trkseg>
      <trkpt lat="24.5010843314230442047119140625" lon="118.1452458165585994720458984375">
        <ele>31.799999237060546875</ele>
        <time>2026-10-01T08:44:53.000Z</time>
        <extensions>
          <ns3:TrackPointExtension>
            <ns3:hr>88</ns3:hr>
          </ns3:TrackPointExtension>
        </extensions>
      </trkpt>
      <trkpt lat="24.50104803778231143951416015625" lon="118.1451593153178691864013671875">
        <ele>31.799999237060546875</ele>
        <time>2026-10-01T08:44:58.000Z</time>
        <extensions>
          <ns3:TrackPointExtension>
            <ns3:hr>86</ns3:hr>
          </ns3:TrackPointExtension>
        </extensions>
      </trkpt>
      <trkpt lat="24.50105222873389720916748046875" lon="118.1450811959803104400634765625">
        <ele>31.6000003814697265625</ele>
        <time>2026-10-01T08:45:01.000Z</time>
        <extensions>
          <ns3:TrackPointExtension>
            <ns3:hr>90</ns3:hr>
          </ns3:TrackPointExtension>
        </extensions>
      </trkpt>
      <trkpt lat="24.50105122290551662445068359375" lon="118.14505345188081264495849609375">
        <ele>31.6000003814697265625</ele>
        <time>2026-10-01T08:45:02.000Z</time>
        <extensions>
          <ns3:TrackPointExtension>
            <ns3:hr>93</ns3:hr>
          </ns3:TrackPointExtension>
        </extensions>
      </trkpt>
      <trkpt lat="24.50104795396327972412109375" lon="118.14502143301069736480712890625">
        <ele>31.6000003814697265625</ele>
        <time>2026-10-01T08:45:03.000Z</time>
        <extensions>
          <ns3:TrackPointExtension>
            <ns3:hr>98</ns3:hr>
          </ns3:TrackPointExtension>
        </extensions>
      </trkpt>
      <trkpt lat="24.50104652903974056243896484375" lon="118.14498849213123321533203125">
        <ele>31.6000003814697265625</ele>
        <time>2026-10-01T08:45:04.000Z</time>
        <extensions>
          <ns3:TrackPointExtension>
            <ns3:hr>100</ns3:hr>
          </ns3:TrackPointExtension>
        </extensions>
      </trkpt>
      <trkpt lat="24.501038230955600738525390625" lon="118.1447732448577880859375">
        <ele>31.3999996185302734375</ele>
        <time>2026-10-01T08:45:10.000Z</time>
        <extensions>
          <ns3:TrackPointExtension>
            <ns3:hr>103</ns3:hr>
          </ns3:TrackPointExtension>
        </extensions>
      </trkpt>
      <trkpt lat="24.5010360516607761383056640625" lon="118.14473678357899188995361328125">
        <ele>31.3999996185302734375</ele>
        <time>2026-10-01T08:45:11.000Z</time>
        <extensions>
          <ns3:TrackPointExtension>
            <ns3:hr>103</ns3:hr>
          </ns3:TrackPointExtension>
        </extensions>
      </trkpt>
      <trkpt lat="24.5010233111679553985595703125" lon="118.14447082579135894775390625">
        <ele>31.3999996185302734375</ele>
        <time>2026-10-01T08:45:18.000Z</time>
        <extensions>
          <ns3:TrackPointExtension>
            <ns3:hr>101</ns3:hr>
          </ns3:TrackPointExtension>
        </extensions>
      </trkpt>
      <trkpt lat="24.50100545771420001983642578125" lon="118.1442570872604846954345703125">
        <ele>31.200000762939453125</ele>
        <time>2026-10-01T08:45:23.000Z</time>
        <extensions>
          <ns3:TrackPointExtension>
            <ns3:hr>98</ns3:hr>
          </ns3:TrackPointExtension>
        </extensions>
      </trkpt>
      <trkpt lat="24.50100629590451717376708984375" lon="118.144202940165996551513671875">
        <ele>31.200000762939453125</ele>
        <time>2026-10-01T08:45:24.000Z</time>
        <extensions>
          <ns3:TrackPointExtension>
            <ns3:hr>97</ns3:hr>
          </ns3:TrackPointExtension>
        </extensions>
      </trkpt>
      <trkpt lat="24.501043595373630523681640625" lon="118.1441169418394565582275390625">
        <ele>31</ele>
        <time>2026-10-01T08:45:26.000Z</time>
        <extensions>
          <ns3:TrackPointExtension>
            <ns3:hr>97</ns3:hr>
          </ns3:TrackPointExtension>
        </extensions>
      </trkpt>
      <trkpt lat="24.50106832198798656463623046875" lon="118.1440797261893749237060546875">
        <ele>30.799999237060546875</ele>
        <time>2026-10-01T08:45:27.000Z</time>
        <extensions>
          <ns3:TrackPointExtension>
            <ns3:hr>97</ns3:hr>
          </ns3:TrackPointExtension>
        </extensions>
      </trkpt>
      <trkpt lat="24.5010809786617755889892578125" lon="118.14400814473628997802734375">
        <ele>30.799999237060546875</ele>
        <time>2026-10-01T08:45:29.000Z</time>
        <extensions>
          <ns3:TrackPointExtension>
            <ns3:hr>97</ns3:hr>
          </ns3:TrackPointExtension>
        </extensions>
      </trkpt>
      <trkpt lat="24.50105776078999042510986328125" lon="118.1438286043703556060791015625">
        <ele>31.3999996185302734375</ele>
        <time>2026-10-01T08:45:34.000Z</time>
        <extensions>
          <ns3:TrackPointExtension>
            <ns3:hr>97</ns3:hr>
          </ns3:TrackPointExtension>
        </extensions>
      </trkpt>
      <trkpt lat="24.5010392367839813232421875" lon="118.14364277757704257965087890625">
        <ele>31.3999996185302734375</ele>
        <time>2026-10-01T08:45:39.000Z</time>
        <extensions>
          <ns3:TrackPointExtension>
            <ns3:hr>97</ns3:hr>
          </ns3:TrackPointExtension>
        </extensions>
      </trkpt>
      <trkpt lat="24.501020126044750213623046875" lon="118.143401630222797393798828125">
        <ele>31.3999996185302734375</ele>
        <time>2026-10-01T08:45:46.000Z</time>
        <extensions>
          <ns3:TrackPointExtension>
            <ns3:hr>96</ns3:hr>
          </ns3:TrackPointExtension>
        </extensions>
      </trkpt>
      <trkpt lat="24.500935636460781097412109375" lon="118.14325201325118541717529296875">
        <ele>31.3999996185302734375</ele>
        <time>2026-10-01T08:45:51.000Z</time>
        <extensions>
          <ns3:TrackPointExtension>
            <ns3:hr>95</ns3:hr>
          </ns3:TrackPointExtension>
        </extensions>
      </trkpt>
      <trkpt lat="24.5008161105215549468994140625" lon="118.14318059943616390228271484375">
        <ele>31.3999996185302734375</ele>
        <time>2026-10-01T08:45:57.000Z</time>
        <extensions>
          <ns3:TrackPointExtension>
            <ns3:hr>94</ns3:hr>
          </ns3:TrackPointExtension>
        </extensions>
      </trkpt>
      <trkpt lat="24.500667415559291839599609375" lon="118.14323164522647857666015625">
        <ele>31.200000762939453125</ele>
        <time>2026-10-01T08:46:02.000Z</time>
        <extensions>
          <ns3:TrackPointExtension>
            <ns3:hr>95</ns3:hr>
          </ns3:TrackPointExtension>
        </extensions>
      </trkpt>
      <trkpt lat="24.50044202618300914764404296875" lon="118.1432536058127880096435546875">
        <ele>31</ele>
        <time>2026-10-01T08:46:08.000Z</time>
        <extensions>
          <ns3:TrackPointExtension>
            <ns3:hr>97</ns3:hr>
          </ns3:TrackPointExtension>
        </extensions>
      </trkpt>
      <trkpt lat="24.500261060893535614013671875" lon="118.14320423640310764312744140625">
        <ele>31</ele>
        <time>2026-10-01T08:46:13.000Z</time>
        <extensions>
          <ns3:TrackPointExtension>
            <ns3:hr>94</ns3:hr>
          </ns3:TrackPointExtension>
        </extensions>
      </trkpt>
      <trkpt lat="24.50011010281741619110107421875" lon="118.143152855336666107177734375">
        <ele>30.799999237060546875</ele>
        <time>2026-10-01T08:46:17.000Z</time>
        <extensions>
          <ns3:TrackPointExtension>
            <ns3:hr>91</ns3:hr>
          </ns3:TrackPointExtension>
        </extensions>
      </trkpt>
      <trkpt lat="24.50000029988586902618408203125" lon="118.14310482703149318695068359375">
        <ele>30.6000003814697265625</ele>
        <time>2026-10-01T08:46:20.000Z</time>
        <extensions>
          <ns3:TrackPointExtension>
            <ns3:hr>91</ns3:hr>
          </ns3:TrackPointExtension>
        </extensions>
      </trkpt>
      <trkpt lat="24.49987121857702732086181640625" lon="118.14305369742214679718017578125">
        <ele>30.3999996185302734375</ele>
        <time>2026-10-01T08:46:24.000Z</time>
        <extensions>
          <ns3:TrackPointExtension>
            <ns3:hr>94</ns3:hr>
          </ns3:TrackPointExtension>
        </extensions>
      </trkpt>
      <trkpt lat="24.49983735568821430206298828125" lon="118.1430430524051189422607421875">
        <ele>30.6000003814697265625</ele>
        <time>2026-10-01T08:46:25.000Z</time>
        <extensions>
          <ns3:TrackPointExtension>
            <ns3:hr>95</ns3:hr>
          </ns3:TrackPointExtension>
        </extensions>
      </trkpt>
      <trkpt lat="24.4996389560401439666748046875" lon="118.1429810263216495513916015625">
        <ele>30.6000003814697265625</ele>
        <time>2026-10-01T08:46:30.000Z</time>
        <extensions>
          <ns3:TrackPointExtension>
            <ns3:hr>93</ns3:hr>
          </ns3:TrackPointExtension>
        </extensions>
      </trkpt>
      <trkpt lat="24.49933343566954135894775390625" lon="118.142883293330669403076171875">
        <ele>30.6000003814697265625</ele>
        <time>2026-10-01T08:46:38.000Z</time>
        <extensions>
          <ns3:TrackPointExtension>
            <ns3:hr>94</ns3:hr>
          </ns3:TrackPointExtension>
        </extensions>
      </trkpt>
      <trkpt lat="24.49919412843883037567138671875" lon="118.14280190505087375640869140625">
        <ele>30.3999996185302734375</ele>
        <time>2026-10-01T08:46:43.000Z</time>
        <extensions>
          <ns3:TrackPointExtension>
            <ns3:hr>97</ns3:hr>
          </ns3:TrackPointExtension>
        </extensions>
      </trkpt>
      <trkpt lat="24.49916881509125232696533203125" lon="118.14278363250195980072021484375">
        <ele>30.6000003814697265625</ele>
        <time>2026-10-01T08:46:45.000Z</time>
        <extensions>
          <ns3:TrackPointExtension>
            <ns3:hr>98</ns3:hr>
          </ns3:TrackPointExtension>
        </extensions>
      </trkpt>
      <trkpt lat="24.49916328303515911102294921875" lon="118.14278782345354557037353515625">
        <ele>30.6000003814697265625</ele>
        <time>2026-10-01T08:46:47.000Z</time>
        <extensions>
          <ns3:TrackPointExtension>
            <ns3:hr>100</ns3:hr>
          </ns3:TrackPointExtension>
        </extensions>
      </trkpt>
      <trkpt lat="24.499087594449520111083984375" lon="118.1427315808832645416259765625">
        <ele>30.3999996185302734375</ele>
        <time>2026-10-01T08:46:51.000Z</time>
        <extensions>
          <ns3:TrackPointExtension>
            <ns3:hr>100</ns3:hr>
          </ns3:TrackPointExtension>
        </extensions>
      </trkpt>
      <trkpt lat="24.49889690615236759185791015625" lon="118.142745830118656158447265625">
        <ele>30</ele>
        <time>2026-10-01T08:46:56.000Z</time>
        <extensions>
          <ns3:TrackPointExtension>
            <ns3:hr>100</ns3:hr>
          </ns3:TrackPointExtension>
        </extensions>
      </trkpt>
      <trkpt lat="24.49881409294903278350830078125" lon="118.1427527032792568206787109375">
        <ele>30</ele>
        <time>2026-10-01T08:46:58.000Z</time>
        <extensions>
          <ns3:TrackPointExtension>
            <ns3:hr>102</ns3:hr>
          </ns3:TrackPointExtension>
        </extensions>
      </trkpt>
      <trkpt lat="24.49873764999210834503173828125" lon="118.1427361071109771728515625">
        <ele>30</ele>
        <time>2026-10-01T08:47:00.000Z</time>
        <extensions>
          <ns3:TrackPointExtension>
            <ns3:hr>103</ns3:hr>
          </ns3:TrackPointExtension>
        </extensions>
      </trkpt>
      <trkpt lat="24.49869674630463123321533203125" lon="118.14272277988493442535400390625">
        <ele>30</ele>
        <time>2026-10-01T08:47:01.000Z</time>
        <extensions>
          <ns3:TrackPointExtension>
            <ns3:hr>102</ns3:hr>
          </ns3:TrackPointExtension>
        </extensions>
      </trkpt>
      <trkpt lat="24.49852424673736095428466796875" lon="118.1426705606281757354736328125">
        <ele>29.799999237060546875</ele>
        <time>2026-10-01T08:47:05.000Z</time>
        <extensions>
          <ns3:TrackPointExtension>
            <ns3:hr>101</ns3:hr>
          </ns3:TrackPointExtension>
        </extensions>
      </trkpt>
      <trkpt lat="24.49844093061983585357666015625" lon="118.14264315180480480194091796875">
        <ele>29.799999237060546875</ele>
        <time>2026-10-01T08:47:07.000Z</time>
        <extensions>
          <ns3:TrackPointExtension>
            <ns3:hr>101</ns3:hr>
          </ns3:TrackPointExtension>
        </extensions>
      </trkpt>
      <trkpt lat="24.49827714823186397552490234375" lon="118.14258833415806293487548828125">
        <ele>29.6000003814697265625</ele>
        <time>2026-10-01T08:47:11.000Z</time>
        <extensions>
          <ns3:TrackPointExtension>
            <ns3:hr>98</ns3:hr>
          </ns3:TrackPointExtension>
        </extensions>
      </trkpt>
      <trkpt lat="24.49806039221584796905517578125" lon="118.1425216980278491973876953125">
        <ele>29.3999996185302734375</ele>
        <time>2026-10-01T08:47:16.000Z</time>
        <extensions>
          <ns3:TrackPointExtension>
            <ns3:hr>97</ns3:hr>
          </ns3:TrackPointExtension>
        </extensions>
      </trkpt>
      <trkpt lat="24.49802066199481487274169921875" lon="118.142502419650554656982421875">
        <ele>29.3999996185302734375</ele>
        <time>2026-10-01T08:47:17.000Z</time>
        <extensions>
          <ns3:TrackPointExtension>
            <ns3:hr>97</ns3:hr>
          </ns3:TrackPointExtension>
        </extensions>
      </trkpt>
      <trkpt lat="24.49789979495108127593994140625" lon="118.1424573250114917755126953125">
        <ele>29.3999996185302734375</ele>
        <time>2026-10-01T08:47:20.000Z</time>
        <extensions>
          <ns3:TrackPointExtension>
            <ns3:hr>101</ns3:hr>
          </ns3:TrackPointExtension>
        </extensions>
      </trkpt>
      <trkpt lat="24.4978184066712856292724609375" lon="118.142425306141376495361328125">
        <ele>29.3999996185302734375</ele>
        <time>2026-10-01T08:47:22.000Z</time>
        <extensions>
          <ns3:TrackPointExtension>
            <ns3:hr>101</ns3:hr>
          </ns3:TrackPointExtension>
        </extensions>
      </trkpt>
      <trkpt lat="24.49759134091436862945556640625" lon="118.14234643243253231048583984375">
        <ele>29.200000762939453125</ele>
        <time>2026-10-01T08:47:27.000Z</time>
        <extensions>
          <ns3:TrackPointExtension>
            <ns3:hr>98</ns3:hr>
          </ns3:TrackPointExtension>
        </extensions>
      </trkpt>
      <trkpt lat="24.49741632677614688873291015625" lon="118.1422947160899639129638671875">
        <ele>29.200000762939453125</ele>
        <time>2026-10-01T08:47:31.000Z</time>
        <extensions>
          <ns3:TrackPointExtension>
            <ns3:hr>95</ns3:hr>
          </ns3:TrackPointExtension>
        </extensions>
      </trkpt>
      <trkpt lat="24.49729026295244693756103515625" lon="118.1422479450702667236328125">
        <ele>29.200000762939453125</ele>
        <time>2026-10-01T08:47:34.000Z</time>
        <extensions>
          <ns3:TrackPointExtension>
            <ns3:hr>93</ns3:hr>
          </ns3:TrackPointExtension>
        </extensions>
      </trkpt>
      <trkpt lat="24.49715875089168548583984375" lon="118.1422102265059947967529296875">
        <ele>29.200000762939453125</ele>
        <time>2026-10-01T08:47:37.000Z</time>
        <extensions>
          <ns3:TrackPointExtension>
            <ns3:hr>97</ns3:hr>
          </ns3:TrackPointExtension>
        </extensions>
      </trkpt>
      <trkpt lat="24.49698817916214466094970703125" lon="118.14216990955173969268798828125">
        <ele>29.200000762939453125</ele>
        <time>2026-10-01T08:47:41.000Z</time>
        <extensions>
          <ns3:TrackPointExtension>
            <ns3:hr>99</ns3:hr>
          </ns3:TrackPointExtension>
        </extensions>
      </trkpt>
      <trkpt lat="24.49694828130304813385009765625" lon="118.14215029589831829071044921875">
        <ele>29</ele>
        <time>2026-10-01T08:47:42.000Z</time>
        <extensions>
          <ns3:TrackPointExtension>
            <ns3:hr>99</ns3:hr>
          </ns3:TrackPointExtension>
        </extensions>
      </trkpt>
      <trkpt lat="24.4968387298285961151123046875" lon="118.14203999005258083343505859375">
        <ele>29</ele>
        <time>2026-10-01T08:47:46.000Z</time>
        <extensions>
          <ns3:TrackPointExtension>
            <ns3:hr>98</ns3:hr>
          </ns3:TrackPointExtension>
        </extensions>
      </trkpt>
      <trkpt lat="24.49682213366031646728515625" lon="118.14196564257144927978515625">
        <ele>29.200000762939453125</ele>
        <time>2026-10-01T08:47:48.000Z</time>
        <extensions>
          <ns3:TrackPointExtension>
            <ns3:hr>93</ns3:hr>
          </ns3:TrackPointExtension>
        </extensions>
      </trkpt>
      <trkpt lat="24.49681685306131839752197265625" lon="118.14192465506494045257568359375">
        <ele>29.200000762939453125</ele>
        <time>2026-10-01T08:47:49.000Z</time>
        <extensions>
          <ns3:TrackPointExtension>
            <ns3:hr>93</ns3:hr>
          </ns3:TrackPointExtension>
        </extensions>
      </trkpt>
      <trkpt lat="24.49681676924228668212890625" lon="118.14188710413873195648193359375">
        <ele>29.200000762939453125</ele>
        <time>2026-10-01T08:47:50.000Z</time>
        <extensions>
          <ns3:TrackPointExtension>
            <ns3:hr>93</ns3:hr>
          </ns3:TrackPointExtension>
        </extensions>
      </trkpt>
      <trkpt lat="24.49686027131974697113037109375" lon="118.141668923199176788330078125">
        <ele>29.200000762939453125</ele>
        <time>2026-10-01T08:47:56.000Z</time>
        <extensions>
          <ns3:TrackPointExtension>
            <ns3:hr>95</ns3:hr>
          </ns3:TrackPointExtension>
        </extensions>
      </trkpt>
      <trkpt lat="24.49684484861791133880615234375" lon="118.14160563983023166656494140625">
        <ele>29.3999996185302734375</ele>
        <time>2026-10-01T08:47:58.000Z</time>
        <extensions>
          <ns3:TrackPointExtension>
            <ns3:hr>97</ns3:hr>
          </ns3:TrackPointExtension>
        </extensions>
      </trkpt>
      <trkpt lat="24.496824480593204498291015625" lon="118.14160631038248538970947265625">
        <ele>29.3999996185302734375</ele>
        <time>2026-10-01T08:48:00.000Z</time>
        <extensions>
          <ns3:TrackPointExtension>
            <ns3:hr>98</ns3:hr>
          </ns3:TrackPointExtension>
        </extensions>
      </trkpt>
      <trkpt lat="24.49681903235614299774169921875" lon="118.14159172587096691131591796875">
        <ele>29.6000003814697265625</ele>
        <time>2026-10-01T08:48:02.000Z</time>
        <extensions>
          <ns3:TrackPointExtension>
            <ns3:hr>98</ns3:hr>
          </ns3:TrackPointExtension>
        </extensions>
      </trkpt>
    </trkseg>
  </trk>
</gpx>
